id,street,house,postcode,city,lon,lat
pt.ine.add.PTCONT.455956,R ALEXANDRE HERCULANO,7A,7920-031,ALVITO,-7.991329559968929,38.25816243043788
pt.ine.add.PTCONT.456148,R PENEDO,52,7920-050,ALVITO,-7.991336386884224,38.254648969935815
pt.ine.add.PTCONT.456157,HRD HERDADE MONTE TERRUJO,,7920-201,ALVITO,-8.040834602786164,38.196104145244796
pt.ine.add.PTCONT.456254,R 25 DE ABRIL,,7920-392,VILA NOVA DA BARONIA,-8.03172388810754,38.28724888500145
pt.ine.add.PTCONT.456303,R JOSE DIAS COELHO,5,7920-383,VILA NOVA DA BARONIA,-8.03438715668787,38.2871971031158
pt.ine.add.PTCONT.456377,R MQ DE POMBAL,10 A,7920-386,VILA NOVA DA BARONIA,-8.036536035449837,38.28717186504227
pt.ine.add.PTCONT.456435,R 25 DE ABRIL,18,7920-392,VILA NOVA DA BARONIA,-8.03634020617037,38.28831582756968
pt.ine.add.PTCONT.456455,R 5 DE OUTUBRO,51,7920-368,VILA NOVA DA BARONIA,-8.036785424025318,38.288739609811635
pt.ine.add.PTCONT.456476,R PROF EGAS MONIZ,1 A,7920-391,VILA NOVA DA BARONIA,-8.036474370198993,38.29057715871364
pt.ine.add.PTCONT.456555,QTA FUNCHAIS,,7920-301,VILA NOVA DA BARONIA,-8.036984002440171,38.276839072398964
pt.ine.add.PTCONT.456581,R MANHAS,30,7920-043,ALVITO,-7.993470411874882,38.255921782917454
pt.ine.add.PTCONT.456661,R D JOÃO DE CASTRO,3,7920-372,VILA NOVA DA BARONIA,-8.038078558531343,38.287578522849394
pt.ine.add.PTCONT.456662,R PINTO DE MELO,40,7920-390,VILA NOVA DA BARONIA,-8.037677857086775,38.28807368432312
pt.ine.add.PTCONT.456813,AV BOMBEIROS VOLUNTARIOS,18,7920-011,ALVITO,-7.993934252768126,38.25832770844617
pt.ine.add.PTCONT.456989,R JOAQUIM CORREIA,14,7920-381,VILA NOVA DA BARONIA,-8.038171477720336,38.28644348288549
pt.ine.add.PTCONT.457017,PC REPUBLICA,27,7920-028,ALVITO,-7.991423850138684,38.256676077024835
pt.ine.add.PTCONT.457060,R PINTO DE MELO,45,7920-301,VILA NOVA DA BARONIA,-8.03791801974795,38.28797478208505
pt.ine.add.PTCONT.457111,R PENEDO,77,7920-050,ALVITO,-7.990583698612666,38.2539543731305
pt.ine.add.PTCONT.457139,R DR ERNESTO GOIS,2,7920-201,ALVITO,-7.995888076742053,38.25829397376774
pt.ine.add.PTCONT.457219,R BEJA,10,7920-046,ALVITO,-7.991299328383391,38.256081339597706
pt.ine.add.PTCONT.457220,R CRUZ,39,7920-035,ALVITO,-7.992707669245542,38.25449746726211
pt.ine.add.PTCONT.457247,R ALMEIDA GARRETT,27,7920-032,ALVITO,-7.993715585248837,38.25915626687037
pt.ine.add.PTCONT.457394,R PINTO DE MELO,43,7920-390,VILA NOVA DA BARONIA,-8.037838044108485,38.28794769062169
pt.ine.add.PTCONT.457472,R PINTO DE MELO,83,7920-390,VILA NOVA DA BARONIA,-8.039701144485596,38.287958197577915
pt.ine.add.PTCONT.457535,R LOBOS,19,7920-053,ALVITO,-7.993173964053206,38.2556061184651
pt.ine.add.PTCONT.457649,R 25 DE ABRIL,49,7920-392,VILA NOVA DA BARONIA,-8.038271955467913,38.28828136958364
pt.ine.add.PTCONT.457733,R PROF EGAS MONIZ,16,7920-391,VILA NOVA DA BARONIA,-8.036190056246252,38.2894868538281
pt.ine.add.PTCONT.457740,R PINTO DE MELO,29,7920-390,VILA NOVA DA BARONIA,-8.037312222422942,38.28797428900614
pt.ine.add.PTCONT.457759,LG PORTA NOVA,4,7920-017,ALVITO,-7.994076354019029,38.25570628886647
pt.ine.add.PTCONT.457780,R INF D HENRIQUE,25,7920-378,VILA NOVA DA BARONIA,-8.038736288437835,38.29160600826258
pt.ine.add.PTCONT.457970,MTE MALK ABRAÃO,,7920-201,ALVITO,-7.981657476557655,38.2225741293681
pt.ine.add.PTCONT.457993,AV 1 DE MAIO,1,7920-351,VILA NOVA DA BARONIA,-8.035053297445742,38.2933146678546
pt.ine.add.PTCONT.458021,AV 1 DE MAIO,17,7920-351,VILA NOVA DA BARONIA,-8.036301595590023,38.291567989154466
pt.ine.add.PTCONT.458208,FTE PASTORES,,7920-301,VILA NOVA DA BARONIA,-8.015332499624625,38.28769302674854
pt.ine.add.PTCONT.458299,MTE COELHOS,,7920-201,ALVITO,-8.025629166437335,38.211379446491215
pt.ine.add.PTCONT.458307,R BEJA,34,7920-046,ALVITO,-7.990992113475361,38.25543232750626
pt.ine.add.PTCONT.458309,BR CARDOSA,,7920-352,VILA NOVA DA BARONIA,-8.034689112384513,38.2921251957956
pt.ine.add.PTCONT.458328,HORTA DA ESTEBAINHA,,7920-301,VILA NOVA DA BARONIA,-8.03689964371407,38.29746026187366
pt.ine.add.PTCONT.458422,HORTA VALE MARIANAS,,7920-301,VILA NOVA DA BARONIA,-8.043423809441549,38.28156481564526
pt.ine.add.PTCONT.458437,R JOAQUIM HENRIQUE DA SILVA,2,7920-382,VILA NOVA DA BARONIA,-8.037274271491793,38.29075799174571
pt.ine.add.PTCONT.458520,R NOVA,21,7920-055,ALVITO,-7.992181028912476,38.255064396521306
pt.ine.add.PTCONT.458695,R S NEUTEL,,7920-301,VILA NOVA DA BARONIA,-8.03522654095072,38.291990512773225
pt.ine.add.PTCONT.458727,R PEREIRAS,19,7920-044,ALVITO,-7.993148193539325,38.257128590896066
pt.ine.add.PTCONT.458774,AV BOMBEIROS VOLUNTARIOS,22,7920-011,ALVITO,-7.993933874698092,38.258525903607634
pt.ine.add.PTCONT.352224,BR CARDOSA,14,7920-352,VILA NOVA DA BARONIA,-8.034335380712536,38.29166544752528
pt.ine.add.PTCONT.352225,R JOAQUIM ANTÓNIO GIAO,5,7920-380,VILA NOVA DA BARONIA,-8.039035254555888,38.29023690396897
pt.ine.add.PTCONT.352226,R CUSTÓDIO SANTOS COELHO,16,7920-369,VILA NOVA DA BARONIA,-8.038223314181263,38.290524533166646
pt.ine.add.PTCONT.352227,MTE CARDOSO,,7920-301,VILA NOVA DA BARONIA,-8.023926967711889,38.288340967799094
pt.ine.add.PTCONT.352255,AV 1 DE MAIO,51,7920-351,VILA NOVA DA BARONIA,-8.039596273527469,38.289516644766344
pt.ine.add.PTCONT.352256,R DR ERNESTO GOIS,14,7920-375,VILA NOVA DA BARONIA,-8.03659069206226,38.28905475944295
pt.ine.add.PTCONT.352257,R 25 DE ABRIL,93,7920-392,VILA NOVA DA BARONIA,-8.039883623346391,38.28827365243628
pt.ine.add.PTCONT.352258,R PINTO DE MELO,62,7920-390,VILA NOVA DA BARONIA,-8.039369543077322,38.28805703044546
pt.ine.add.PTCONT.352259,R JOÃO DE DEUS,63,7920-379,VILA NOVA DA BARONIA,-8.038707189395923,38.28759704804406
pt.ine.add.PTCONT.352260,QTA ROLAO,,7920-301,VILA NOVA DA BARONIA,-8.049398123431377,38.284289905214806
pt.ine.add.PTCONT.352725,ESTR S ROMÃO HORTA DA GUINE,,7920-015,ALVITO,-7.985515120133116,38.25760571928855
pt.ine.add.PTCONT.352726,R VASCO DA GAMA,,7920-058,ALVITO,-7.988955915033307,38.256718115920606
pt.ine.add.PTCONT.352775,R AVIADORES,2,7920-052,ALVITO,-7.988956893944485,38.25622262795797
pt.ine.add.PTCONT.352776,R NSA SRA ASSUNÇAO,24,7920-013,ALVITO,-7.9952620077494485,38.25705902173951
pt.ine.add.PTCONT.352777,MTE RATOEIRA,,7920-201,ALVITO,-8.010224740768775,38.25967921356702
pt.ine.add.PTCONT.352778,R SANTA LUZIA,8,7920-047,ALVITO,-7.990398135816738,38.255368544426034
pt.ine.add.PTCONT.352779,R CRUZ,75,7920-035,ALVITO,-7.9918521640086615,38.253793746616
pt.ine.add.PTCONT.352780,HORTA DO LOUREIRO,,7920-201,ALVITO,-7.996108096072957,38.25064567673672
pt.ine.add.PTCONT.352861,HORTA DA ESPERANÇA,,7920-201,ALVITO,-7.981574364139494,38.25712322559071
pt.ine.add.PTCONT.353108,R LATINO COELHO,5,7920-384,VILA NOVA DA BARONIA,-8.034970330077536,38.28701741536566
pt.ine.add.PTCONT.353112,MTE PALHETA,,7920-201,ALVITO,-7.932743720624928,38.20676219117232
pt.ine.add.PTCONT.353135,AV BOMBEIROS VOLUNTARIOS,3,7920-011,ALVITO,-7.994027768860556,38.25721972555352
pt.ine.add.PTCONT.353136,LG PROF ABEL SALAZAR,5,7920-358,VILA NOVA DA BARONIA,-8.039025917495458,38.2886153040131
pt.ine.add.PTCONT.353148,R NSA SRA ASSUNÇÃO,14,7920-013,ALVITO,-7.994977416216663,38.256509144571595
pt.ine.add.PTCONT.353169,R VASCO DA GAMA,6,7920-058,ALVITO,-7.9892059905827635,38.257367063137906
pt.ine.add.PTCONT.353912,R 25 DE ABRIL,1B,7920-392,VILA NOVA DA BARONIA,-8.033712576940776,38.28734968400732
pt.ine.add.PTCONT.353908,R CRATO,22,7920-023,ALVITO,-7.990921965835674,38.25625205198686
pt.ine.add.PTCONT.353915,QTA CEU,,7920-201,ALVITO,-7.978606891267001,38.271839867149986
pt.ine.add.PTCONT.353920,R S MIGUEL,4,7920-030,ALVITO,-7.995927612688677,38.26157325566586
pt.ine.add.PTCONT.353921,R JOAQUIM CORREIA,2,7920-381,VILA NOVA DA BARONIA,-8.038205333394822,38.286776837775314
pt.ine.add.PTCONT.353925,R ALMEIDA GARRETT,16,7920-032,ALVITO,-7.9934072664526346,38.259065811332555
pt.ine.add.PTCONT.353926,HRD HERDADE LOIZANDAS,,7920-201,ALVITO,-8.0513394256713,38.20424704452705
pt.ine.add.PTCONT.353928,R CAMPO DA FEIRA,7B,7920-360,VILA NOVA DA BARONIA,-8.037384766943216,38.28495638296324
pt.ine.add.PTCONT.353932,QTA PONTÃO,,7920-301,VILA NOVA DA BARONIA,-8.032327803124307,38.28033961330387
pt.ine.add.PTCONT.353943,R MANHAS,10,7920-043,ALVITO,-7.992440572666697,38.256740362401096
pt.ine.add.PTCONT.353945,R MISERICÓRDIA,12,7920-038,ALVITO,-7.993263810479163,38.25641702611559
pt.ine.add.PTCONT.353946,R CUSTÓDIO SANTOS COELHO,1,7920-369,VILA NOVA DA BARONIA,-8.037994115509104,38.29097478982189
pt.ine.add.PTCONT.353949,R JOAQUIM HENRIQUE DA SILVA,16,7920-382,VILA NOVA DA BARONIA,-8.037423472223724,38.29029866241868
pt.ine.add.PTCONT.353956,R ALEXANDRE HERCULANO,13,7920-031,ALVITO,-7.991078270285815,38.25812609100651
pt.ine.add.PTCONT.353957,R ALEXANDRE HERCULANO,13,7920-031,ALVITO,-7.991078270285815,38.25812609100651
pt.ine.add.PTCONT.354487,QTA CEU,,7920-201,ALVITO,-7.978606891267001,38.271839867149986
pt.ine.add.PTCONT.354489,BR CARDOSA,,7920-352,VILA NOVA DA BARONIA,-8.035455059717023,38.292062773951116
pt.ine.add.PTCONT.354702,R SERPA PINTO,,7920-057,ALVITO,-7.9897887704667685,38.257322731855616
pt.ine.add.PTCONT.354705,R PENEDO,43,7920-050,ALVITO,-7.991267469752464,38.254838073492
pt.ine.add.PTCONT.354711,R MQ DE POMBAL,23,7920-386,VILA NOVA DA BARONIA,-8.03609014506723,38.28726158567369
pt.ine.add.PTCONT.354720,R S MIGUEL,107,7920-030,ALVITO,-7.996508836502372,38.26237572454435
pt.ine.add.PTCONT.354721,MTE BOAVISTA,,7920-201,ALVITO,-7.979461121399444,38.22977842677302
pt.ine.add.PTCONT.354725,R ALMEIDA GARRETT,23,7920-032,ALVITO,-7.993590196481004,38.259002966727415
pt.ine.add.PTCONT.354726,MTE SERRA,,7920-301,VILA NOVA DA BARONIA,-8.012064779879847,38.27314940242507
pt.ine.add.PTCONT.354729,R PEREIRAS,10,7920-044,ALVITO,-7.9930793306074,38.25729066882357
pt.ine.add.PTCONT.354733,R CAMILO CASTELO BRANCO,11,7920-366,VILA NOVA DA BARONIA,-8.040065390704932,38.28914765500439
pt.ine.add.PTCONT.354739,R 25 DE ABRIL,50,7920-392,VILA NOVA DA BARONIA,-8.037414490402247,38.2884338237553
pt.ine.add.PTCONT.354742,R 25 DE ABRIL,,7920-392,VILA NOVA DA BARONIA,-8.0383747100462,38.288371541086015
pt.ine.add.PTCONT.354748,R PINTO DE MELO,85,7920-390,VILA NOVA DA BARONIA,-8.039815468912876,38.287940270843286
pt.ine.add.PTCONT.355516,R CRATO,11,7920-023,ALVITO,-7.990841691188521,38.2564051059013
pt.ine.add.PTCONT.355517,R CRATO,11,7920-023,ALVITO,-7.990841691188521,38.2564051059013
pt.ine.add.PTCONT.355526,MTE DO ESTACAL,,7920-201,ALVITO,-7.949719902138216,38.27558199797516
pt.ine.add.PTCONT.355538,R OUTEIRO DAS PELES,9,7920-056,ALVITO,-7.991774279828869,38.25861341144553
pt.ine.add.PTCONT.355539,MTE PORTO DE BEJA,,7920-301,VILA NOVA DA BARONIA,-8.038415250839353,38.28356084666644
pt.ine.add.PTCONT.355544,MTE CARRASCOSA,,7920-301,VILA NOVA DA BARONIA,-8.042560673978725,38.249537570063346
pt.ine.add.PTCONT.355559,R CUSTÓDIO SANTOS COELHO,2,7920-369,VILA NOVA DA BARONIA,-8.038154144034257,38.29097491945161
pt.ine.add.PTCONT.355560,R 25 DE ABRIL,26,7920-392,VILA NOVA DA BARONIA,-8.036591563005754,38.288397114257144
pt.ine.add.PTCONT.355564,R PINTO DE MELO,93,7920-390,VILA NOVA DA BARONIA,-8.040272651308685,38.28795865119311
pt.ine.add.PTCONT.356098,R STA ÁGUEDA,,7920-353,VILA NOVA DA BARONIA,-8.037960788189167,38.290236037494154
pt.ine.add.PTCONT.356321,R SERPA PINTO,10A,7920-057,ALVITO,-7.98950446743415,38.256646717311675
pt.ine.add.PTCONT.356322,R CRUZ,32,7920-035,ALVITO,-7.992970475948983,38.25447976358791
pt.ine.add.PTCONT.356323,R CRUZ,32,7920-035,ALVITO,-7.992970475948983,38.25447976358791
pt.ine.add.PTCONT.356324,MTE DA SERRA,,7920-301,VILA NOVA DA BARONIA,-8.010004619568381,38.28855240665712
pt.ine.add.PTCONT.356329,LG GEN HUMBERTO DELGADO,8,7920-027,ALVITO,-7.990760554991075,38.25699959449808
pt.ine.add.PTCONT.356330,R SALVADOR,13,7920-051,ALVITO,-7.9911843587240945,38.25645056528501
pt.ine.add.PTCONT.356345,R DR LUIS CERQUEIRA,310,7920-072,ALVITO,-7.9952522709549125,38.26221209516216
pt.ine.add.PTCONT.356356,R PROF EGAS MONIZ,3 A,7920-391,VILA NOVA DA BARONIA,-8.03615485425552,38.29017149705786
pt.ine.add.PTCONT.356360,R NSA SRA ASSUNÇAO,26,7920-013,ALVITO,-7.995079458972365,38.25692367376497
pt.ine.add.PTCONT.356361,LG TRINDADE,6,7920-018,ALVITO,-7.994679284490457,38.257076353594705
pt.ine.add.PTCONT.356362,R MANHAS,14A,7920-043,ALVITO,-7.992577883582727,38.256632420184395
pt.ine.add.PTCONT.356363,AV 1 DE MAIO,70,7920-351,VILA NOVA DA BARONIA,-8.041494418940239,38.288959593798474
pt.ine.add.PTCONT.356376,R DA LIBERDADE,4-6,7920-370,VILA NOVA DA BARONIA,-8.038053571685795,38.289209104200445
pt.ine.add.PTCONT.356377,R DA LIBERDADE,4-6,7920-370,VILA NOVA DA BARONIA,-8.038053571685795,38.289209104200445
pt.ine.add.PTCONT.356378,R DA LIBERDADE,4-6,7920-370,VILA NOVA DA BARONIA,-8.038053571685795,38.289209104200445
pt.ine.add.PTCONT.356381,HORTA DOS POÇOS,,7920-301,VILA NOVA DA BARONIA,-8.043271561379076,38.275267503062146
pt.ine.add.PTCONT.356927,LG MERCADO,2,7920-354,VILA NOVA DA BARONIA,-8.039710103966861,38.289886098153815
pt.ine.add.PTCONT.356933,R DA LIBERDADE,4-6,7920-370,VILA NOVA DA BARONIA,-8.038053571685795,38.289209104200445
pt.ine.add.PTCONT.356971,R STA ÁGUEDA,,7920-353,VILA NOVA DA BARONIA,-8.038018081713904,38.290127977795485
pt.ine.add.PTCONT.357148,R CRUZ,40,7920-035,ALVITO,-7.992639518877084,38.25429018106788
pt.ine.add.PTCONT.357149,R CRUZ,55,7920-035,ALVITO,-7.992308337546364,38.25421771301165
pt.ine.add.PTCONT.357150,MTE MARIDONA,,7920-201,ALVITO,-7.987990569404135,38.2308163002404
pt.ine.add.PTCONT.357176,MTE MARIDONA,,7920-201,ALVITO,-7.987990569404135,38.2308163002404
pt.ine.add.PTCONT.357177,R MANUEL MARQUES-BAIRRO DR TEÓFILO CASACA SIM SIM,,7920-360,VILA NOVA DA BARONIA,-8.036366139775,38.286000574410444
pt.ine.add.PTCONT.357178,R D DINIS,8,7920-371,VILA NOVA DA BARONIA,-8.036593507612768,38.28692867337001
pt.ine.add.PTCONT.357179,VIVENDA CLARISSE,,7920-301,VILA NOVA DA BARONIA,-8.010454142883846,38.2863276919871
pt.ine.add.PTCONT.357204,R JOÃO DE DEUS,69,7920-379,VILA NOVA DA BARONIA,-8.038935790984333,38.28759723175946
pt.ine.add.PTCONT.357688,R PENEDO,23,7920-050,ALVITO,-7.991711924626131,38.25541517919876
pt.ine.add.PTCONT.357689,LG GEN HUMBERTO DELGADO,6,7920-027,ALVITO,-7.990157769392651,38.25559347426821
pt.ine.add.PTCONT.357690,QTA SANTO ANTÓNIO,,7920-201,ALVITO,-7.939964226640824,38.26975562770218
pt.ine.add.PTCONT.357740,MTE ZAMBUJOSA,,7920-201,ALVITO,-8.01949164475267,38.22990508046005
pt.ine.add.PTCONT.357741,MTE SERRA,,7920-301,VILA NOVA DA BARONIA,-8.017186079322654,38.28649669589777
pt.ine.add.PTCONT.357765,R LOBOS,35,7920-053,ALVITO,-7.993631465362224,38.25534540512228
pt.ine.add.PTCONT.358030,MTE VALE MARIANAS,,7920-301,VILA NOVA DA BARONIA,-8.042544023476877,38.28135693608417
pt.ine.add.PTCONT.358033,R FIGUEIRAS,11,7920-041,ALVITO,-7.988282971506773,38.25614071816097
pt.ine.add.PTCONT.358034,LG GEN HUMBERTO DELGADO,10,7920-356,VILA NOVA DA BARONIA,-8.035381447233808,38.28728802404224
pt.ine.add.PTCONT.358035,LG GEN HUMBERTO DELGADO,4,7920-356,VILA NOVA DA BARONIA,-8.035427131131016,38.28731508863684
pt.ine.add.PTCONT.358039,R NOVA,27,7920-055,ALVITO,-7.991975745509653,38.254874962997505
pt.ine.add.PTCONT.358045,R JOSE DIAS COELHO,12,7920-383,VILA NOVA DA BARONIA,-8.034478913778928,38.286962950178385
pt.ine.add.PTCONT.358053,HRD HERDADE MONTE TERRUJO,,7920-201,ALVITO,-8.040834602786164,38.196104145244796
pt.ine.add.PTCONT.358054,R IRMA MARIA PIA BAIRRO DR TEÓFILO CASACA SIM SIM,17,7920-360,VILA NOVA DA BARONIA,-8.0374529311396,38.28527174843265
pt.ine.add.PTCONT.358058,AV BOMBEIROS VOLUNTARIOS,22,7920-011,ALVITO,-7.9939451455499455,38.258606996994196
pt.ine.add.PTCONT.358065,AV 1 DE MAIO,21,7920-351,VILA NOVA DA BARONIA,-8.036530520043407,38.29133394789083
pt.ine.add.PTCONT.358070,R PARREIRA,20,7920-039,ALVITO,-7.993377285859889,38.256822561517836
pt.ine.add.PTCONT.358071,R CALCADA,9,7920-034,ALVITO,-7.992291158011681,38.25719963677293
pt.ine.add.PTCONT.358072,TV PRIOR LAMPREIA,7,7920-067,ALVITO,-7.991676025600055,38.25625296318785
pt.ine.add.PTCONT.358085,R 25 DE ABRIL,63,7920-392,VILA NOVA DA BARONIA,-8.038774883681057,38.288281775041334
pt.ine.add.PTCONT.358088,R CRUZ,37,7920-035,ALVITO,-7.992787626038484,38.25450657179028
pt.ine.add.PTCONT.358090,QTA SANTO ANTÓNIO,,7920-301,VILA NOVA DA BARONIA,-8.03333802218164,38.29377267253585
pt.ine.add.PTCONT.358608,PC REPUBLICA,9,7920-028,ALVITO,-7.992291158011681,38.25719963677293
pt.ine.add.PTCONT.358665,MTE TOSCANOS,,7920-301,VILA NOVA DA BARONIA,-8.096315510639915,38.28630495613277
pt.ine.add.PTCONT.358989,ESTR HORTAS,11,7920-014,ALVITO,-7.987871110971284,38.25641948488128
pt.ine.add.PTCONT.358990,ESTR HORTAS,11,7920-014,ALVITO,-7.987871110971284,38.25641948488128
pt.ine.add.PTCONT.358991,R BEJA,41,7920-046,ALVITO,-7.990923282480718,38.25557638646098
pt.ine.add.PTCONT.359023,R PARREIRA,10A,7920-039,ALVITO,-7.992726532619064,38.256569535839006
pt.ine.add.PTCONT.359024,R PARREIRA,10 A,7920-039,ALVITO,-7.992726532619064,38.256569535839006
pt.ine.add.PTCONT.359025,R CRUZ,26,7920-035,ALVITO,-7.993050242547045,38.25458796557993
pt.ine.add.PTCONT.359026,R PENEDO,61,7920-050,ALVITO,-7.990982601119137,38.254450346273295
pt.ine.add.PTCONT.359069,BR CARDOSA,8,7920-352,VILA NOVA DA BARONIA,-8.035397833345405,38.29211677935982
pt.ine.add.PTCONT.359070,,,7920-301,VILA NOVA DA BARONIA,-8.091988826311312,38.29726728475604
pt.ine.add.PTCONT.359071,R CATARINA EUFEMIA,E,7920-367,VILA NOVA DA BARONIA,-8.038537152643498,38.28650684017393
pt.ine.add.PTCONT.359072,R LUIS DE CAMÕES,18,7920-385,VILA NOVA DA BARONIA,-8.03912803453221,38.28920096096798
pt.ine.add.PTCONT.359640,R FRADES FRANCISCANOS,,7920-068,ALVITO,-7.9930181644105565,38.253443797238106
pt.ine.add.PTCONT.359651,R D JOÃO DE CASTRO,21,7920-372,VILA NOVA DA BARONIA,-8.038056520810738,38.286947885474895
pt.ine.add.PTCONT.359653,R 25 DE ABRIL,1A,7920-392,VILA NOVA DA BARONIA,-8.034135500616957,38.287341032692964
pt.ine.add.PTCONT.359656,VINHA DA MARECA,,7920-201,ALVITO,-7.985352605976331,38.25322719171982
pt.ine.add.PTCONT.359665,LG ADRO,13,7920-021,ALVITO,-7.9942696201528065,38.25621101580419
pt.ine.add.PTCONT.359666,HORTA POMAR DAS PENAS,,7920-301,VILA NOVA DA BARONIA,-8.035694549144141,38.283927982363934
pt.ine.add.PTCONT.359667,MTE LANCAS,,7920-301,VILA NOVA DA BARONIA,-8.067027416059167,38.253670967035156
pt.ine.add.PTCONT.359672,AV 1 DE MAIO,36,7920-351,VILA NOVA DA BARONIA,-8.039424470391449,38.28978677310529
pt.ine.add.PTCONT.359676,R MISERICÓRDIA,4,7920-038,ALVITO,-7.993012612315923,38.25633564645598
pt.ine.add.PTCONT.359677,R CAMILO CASTELO BRANCO,1A,7920-366,VILA NOVA DA BARONIA,-8.039460116098837,38.288732766426186
pt.ine.add.PTCONT.359681,BR CASA DO POVO,,7920-353,VILA NOVA DA BARONIA,-8.03824662087656,38.29018221588222
pt.ine.add.PTCONT.360187,MTE LANCAS,,7920-301,VILA NOVA DA BARONIA,-8.067027416059167,38.253670967035156
pt.ine.add.PTCONT.360212,R 1 MAIO,9,7920-013,ALVITO,-7.995628567181806,38.25655495367523
pt.ine.add.PTCONT.360429,MTE PEGO DO ASNO,,7920-301,VILA NOVA DA BARONIA,-8.07106358043444,38.27675393606389
pt.ine.add.PTCONT.360443,R MQ DE POMBAL,22,7920-386,VILA NOVA DA BARONIA,-8.036021720918173,38.287144414018265
pt.ine.add.PTCONT.360455,R ALMEIDA GARRETT,10,7920-032,ALVITO,-7.993236314398322,38.258840385435036
pt.ine.add.PTCONT.360468,R 1 MAIO,11,7920-013,ALVITO,-7.995548709691438,38.25649179783374
pt.ine.add.PTCONT.360477,R JOÃO DE DEUS,73,7920-379,VILA NOVA DA BARONIA,-8.039027208362008,38.287615322801955
pt.ine.add.PTCONT.361002,R JOSE DIAS COELHO,14,7920-383,VILA NOVA DA BARONIA,-8.034456114791285,38.28691788675707
pt.ine.add.PTCONT.361440,R PINTO DE MELO,19,7920-390,VILA NOVA DA BARONIA,-8.036774994031914,38.28798285796993
pt.ine.add.PTCONT.361441,R JOÃO DE DEUS,19,7920-379,VILA NOVA DA BARONIA,-8.036455451915215,38.287604223485516
pt.ine.add.PTCONT.361474,R 25 DE ABRIL,78,7920-392,VILA NOVA DA BARONIA,-8.03861475594298,38.28836272581976
pt.ine.add.PTCONT.361475,R 25 DE ABRIL,67,7920-392,VILA NOVA DA BARONIA,-8.038957789946151,38.288263904267026
pt.ine.add.PTCONT.361803,R PROF EGAS MONIZ,10,7920-391,VILA NOVA DA BARONIA,-8.036280912742027,38.28992836232447
pt.ine.add.PTCONT.362044,ESTR S ROMÃO,8,7920-015,ALVITO,-7.988164586160762,38.258221626226465
pt.ine.add.PTCONT.362045,R BEJA,20,7920-046,ALVITO,-7.9912310579328745,38.25593711476329
pt.ine.add.PTCONT.362180,R RAINHA SANTA ISABEL,1,7920-024,ALVITO,-7.988304999345167,38.25655515446906
pt.ine.add.PTCONT.362181,LG D DINIS,2,7920-024,ALVITO,-7.9886589663357555,38.25666369742246
pt.ine.add.PTCONT.362182,R HORTAS,7,7920-042,ALVITO,-7.988729425020731,38.25569983243481
pt.ine.add.PTCONT.362183,R PEREIRAS,12,7920-044,ALVITO,-7.993216589800439,38.25720975248761
pt.ine.add.PTCONT.362217,R CRUZ,4,7920-035,ALVITO,-7.993780162475471,38.2552554927944
pt.ine.add.PTCONT.362218,R CRUZ,59,7920-035,ALVITO,-7.992308459228016,38.25415465087352
pt.ine.add.PTCONT.362219,MTE POMBAL,,7920-201,ALVITO,-8.001360122640053,38.23973288843193
pt.ine.add.PTCONT.362258,HORTA DA ESTEBAINHA,,7920-301,VILA NOVA DA BARONIA,-8.03537887497417,38.29772926986768
pt.ine.add.PTCONT.362259,QTA DE SANTO ANTÓNIO,,7920-301,VILA NOVA DA BARONIA,-8.030045447868826,38.29407612677245
pt.ine.add.PTCONT.362260,R CATARINA EUFEMIA,,7920-367,VILA NOVA DA BARONIA,-8.038629642904644,38.28569611799793
pt.ine.add.PTCONT.362261,R MQ DE POMBAL,15,7920-386,VILA NOVA DA BARONIA,-8.036398719906376,38.287288866987396
pt.ine.add.PTCONT.362262,R JOAQUIM CORREIA,3,7920-381,VILA NOVA DA BARONIA,-8.037931802777853,38.286173023146716
pt.ine.add.PTCONT.362263,R JOAQUIM CORREIA,17,7920-381,VILA NOVA DA BARONIA,-8.038046888561214,38.28556952333564
pt.ine.add.PTCONT.362264,HORTA PRENDE-LHE AS VACAS,,7920-301,VILA NOVA DA BARONIA,-8.038779617458896,38.28462418509397
pt.ine.add.PTCONT.362298,MTE BOAVISTA,,7920-301,VILA NOVA DA BARONIA,-8.048033126297947,38.288469030824224
pt.ine.add.PTCONT.362299,MTE MARIA PIRES,,7920-301,VILA NOVA DA BARONIA,-8.128047365587458,38.25065346056853
pt.ine.add.PTCONT.362300,MTE MARIA PIRES,,7920-301,VILA NOVA DA BARONIA,-8.128047365587458,38.25065346056853
pt.ine.add.PTCONT.362301,MTE MARIA PIRES,,7920-301,VILA NOVA DA BARONIA,-8.128047365587458,38.25065346056853
pt.ine.add.PTCONT.362620,R INF D HENRIQUE,15,7920-378,VILA NOVA DA BARONIA,-8.038931518595614,38.29090347529385
pt.ine.add.PTCONT.362646,R 25 DE ABRIL,89,7920-392,VILA NOVA DA BARONIA,-8.039757879763076,38.28828256130186
pt.ine.add.PTCONT.362676,R 25 DE ABRIL,85,7920-392,VILA NOVA DA BARONIA,-8.03962078685301,38.288228399047476
pt.ine.add.PTCONT.362856,R DR LUIS CERQUEIRA,170,7920-072,ALVITO,-7.99523180254493,38.26095082698798
pt.ine.add.PTCONT.362864,R OUTEIRO DAS PELES,11,7920-056,ALVITO,-7.991888500132668,38.258631566734856
pt.ine.add.PTCONT.362865,MTE SIMÕES,,7920-301,VILA NOVA DA BARONIA,-8.018606249781927,38.27739914474325
pt.ine.add.PTCONT.363459,R D PEDRO V,4A,7920-374,VILA NOVA DA BARONIA,-8.040557775516557,38.28845436315633
pt.ine.add.PTCONT.363485,R ALBERTO ARAÚJO,22,7920-361,VILA NOVA DA BARONIA,-8.040168711668647,38.28879639183345
pt.ine.add.PTCONT.363652,R S SEBASTIÃO,5,7920-046,ALVITO,-7.990865841153616,38.25573847696777
pt.ine.add.PTCONT.363656,R HORTAS,3,7920-042,ALVITO,-7.988866561360747,38.255681983281136
pt.ine.add.PTCONT.363657,ROSSIO DE S SEBASTIÃO,8,7920-029,ALVITO,-7.990203169622764,38.255746680781364
pt.ine.add.PTCONT.363658,R MANUEL MARQUES-BAIRRO DR TEÓFILO CASACA SIM SIM,39,7920-360,VILA NOVA DA BARONIA,-8.036847156289113,38.28527125298169
pt.ine.add.PTCONT.363688,,,7920-201,ALVITO,-7.9599504597985895,38.29866018189504
pt.ine.add.PTCONT.363675,R JOÃO DE DEUS,17,7920-054,ALVITO,-7.993729523579425,38.25784098530656
pt.ine.add.PTCONT.363677,R LUIS DE CAMÕES,26,7920-385,VILA NOVA DA BARONIA,-8.039368314825358,38.289011967398864
pt.ine.add.PTCONT.363689,R MATADOURO,2,7920-049,ALVITO,-7.990700808711581,38.258341846952966
pt.ine.add.PTCONT.363692,R NOVA,18,7920-055,ALVITO,-7.992729011151995,38.255281266805085
pt.ine.add.PTCONT.363693,R JOÃO DE DEUS,75,7920-379,VILA NOVA DA BARONIA,-8.039278658576677,38.28762453301913
pt.ine.add.PTCONT.363696,R LOBOS,31,7920-053,ALVITO,-7.993539944683596,38.25540835858554
pt.ine.add.PTCONT.363697,MTE BOAVISTA,,7920-301,VILA NOVA DA BARONIA,-8.0527184730868,38.28941826389444
pt.ine.add.PTCONT.364281,MTE GUARDA DA CALÇADA,,7920-201,ALVITO,-8.003758168957788,38.24657332277736
pt.ine.add.PTCONT.364497,HORTA DOS SOBREIROS,,7920-201,ALVITO,-7.980395427369976,38.263599087172274
pt.ine.add.PTCONT.364500,R CATARINA EUFEMIA,35,7920-367,VILA NOVA DA BARONIA,-8.038470281006052,38.28519149378403
pt.ine.add.PTCONT.364504,R INF D HENRIQUE,54,7920-378,VILA NOVA DA BARONIA,-8.038598465643485,38.292110392540316
pt.ine.add.PTCONT.364505,MTE PEDRAGOSA,,7920-301,VILA NOVA DA BARONIA,-8.02862159247833,38.2666428875484
pt.ine.add.PTCONT.364510,R PROF EGAS MONIZ,33,7920-391,VILA NOVA DA BARONIA,-8.036019284718783,38.28897320834265
pt.ine.add.PTCONT.364519,R INF D HENRIQUE,10,7920-378,VILA NOVA DA BARONIA,-8.038691896227341,38.290578964276264
pt.ine.add.PTCONT.364522,R 1 MAIO,8,7920-013,ALVITO,-7.9959142818162245,38.25651024357071
pt.ine.add.PTCONT.364523,BR CASA DO POVO,,7920-353,VILA NOVA DA BARONIA,-8.038303855337327,38.29011920022489
pt.ine.add.PTCONT.364526,LG ADRO,3,7920-021,ALVITO,-7.993755505935626,38.25620139754523
pt.ine.add.PTCONT.364527,R LOBOS,10,7920-053,ALVITO,-7.993048011846458,38.25575011053893
pt.ine.add.PTCONT.364531,R ABRANTES,8,7920-045,ALVITO,-7.992781388851612,38.25774976645648
pt.ine.add.PTCONT.365029,R CRUZ,5,7920-035,ALVITO,-7.99350618671059,38.255138051547554
pt.ine.add.PTCONT.365243,R NOVA,6,7920-055,ALVITO,-7.993037071009805,38.25549784840423
pt.ine.add.PTCONT.365279,HORTA DO SOBRAL,,7920-301,VILA NOVA DA BARONIA,-8.041869807936928,38.28127533399597
pt.ine.add.PTCONT.365281,R BEJA,46,7920-046,ALVITO,-7.990866894869552,38.255197944507174
pt.ine.add.PTCONT.365288,R FIGUEIRAS,4,7920-041,ALVITO,-7.988328922281296,38.256014650337114
pt.ine.add.PTCONT.365289,R JOÃO DE DEUS,11,7920-379,VILA NOVA DA BARONIA,-8.036226850321425,38.287604034937196
pt.ine.add.PTCONT.365293,MTE JOSE ALMEIDA,,7920-201,ALVITO,-7.9469367052818605,38.26455976877944
pt.ine.add.PTCONT.365294,TAPADA D MARIA JOSE PAVANITO,FRACCAO F,7920-201,ALVITO,-7.990334380326222,38.252918046725924
pt.ine.add.PTCONT.365298,R DR LUIS CERQUEIRA,324,7920-072,ALVITO,-7.995251777240021,38.26247335226023
pt.ine.add.PTCONT.365308,MTE MONFORTE,,7920-201,ALVITO,-8.018361150004523,38.18614740910562
pt.ine.add.PTCONT.365314,AV 1 DE MAIO,43,7920-351,VILA NOVA DA BARONIA,-8.039367492095792,38.289651594893705
pt.ine.add.PTCONT.365318,AV 1 MAIO,58,7920-351,VILA NOVA DA BARONIA,-8.040762697493754,38.28910316169784
pt.ine.add.PTCONT.365319,AV 1 MAIO,59,7920-351,VILA NOVA DA BARONIA,-8.040762697493754,38.28910316169784
pt.ine.add.PTCONT.365320,R ALMEIDA GARRETT,2,7920-363,VILA NOVA DA BARONIA,-8.03797404151974,38.28883967698606
pt.ine.add.PTCONT.365323,R MISERICÓRDIA,6,7920-038,ALVITO,-7.993103961751985,38.2563627821561
pt.ine.add.PTCONT.365329,MTE SERRA,,7920-201,ALVITO,-8.005766283540035,38.2610708380464
pt.ine.add.PTCONT.365839,R JOAQUIM CORREIA,24,7920-381,VILA NOVA DA BARONIA,-8.038206224888407,38.28609216577459
pt.ine.add.PTCONT.365874,SIT DO PORTO DE BEJA,,7920-998,VILA NOVA DA BARONIA,-8.039458814180716,38.28085001795481
pt.ine.add.PTCONT.365889,R STA ÁGUEDA,,7920-353,VILA NOVA DA BARONIA,-8.037983707971327,38.29019101185104
pt.ine.add.PTCONT.366086,R BEJA,60,7920-046,ALVITO,-7.990764702699435,38.25487350033286
pt.ine.add.PTCONT.366089,R CRUZ,49,7920-035,ALVITO,-7.99238822448912,38.25426285331891
pt.ine.add.PTCONT.366094,MTE POMBAL,2,7920-201,ALVITO,-8.000868625904841,38.2399125141063
pt.ine.add.PTCONT.366101,R INF D HENRIQUE,42,7920-378,VILA NOVA DA BARONIA,-8.038598827845528,38.29183111869586
pt.ine.add.PTCONT.366102,R CAMPO DA FEIRA,7A,7920-360,VILA NOVA DA BARONIA,-8.037487633926858,38.28495646684495
pt.ine.add.PTCONT.366122,R ALEXANDRE HERCULANO,11,7920-031,ALVITO,-7.99118106420763,38.25814423315541
pt.ine.add.PTCONT.366123,R PINTO DE MELO,85A,7920-390,VILA NOVA DA BARONIA,-8.039906886940429,38.287958361200104
pt.ine.add.PTCONT.366128,R D JOÃO DE CASTRO,10,7920-372,VILA NOVA DA BARONIA,-8.03821627072425,38.287155218354926
pt.ine.add.PTCONT.366715,MTE PRIVANES,,7920-301,VILA NOVA DA BARONIA,-8.031542846818578,38.244897971701825
pt.ine.add.PTCONT.367035,,,7920-201,ALVITO,-7.960269438205867,38.29912911122302
pt.ine.add.PTCONT.367070,LG GEN HUMBERTO DELGADO,49,7920-027,ALVITO,-7.9906243138578485,38.256557993374
pt.ine.add.PTCONT.367071,AV BOMBEIROS VOLUNTARIOS,10A,7920-011,ALVITO,-7.993900560772214,38.258021366164776
pt.ine.add.PTCONT.367072,R ABRANTES,5,7920-045,ALVITO,-7.992701792577318,38.25755147561647
pt.ine.add.PTCONT.367101,R LOBOS,21,7920-053,ALVITO,-7.9932311583717395,38.255570151067595
pt.ine.add.PTCONT.367102,VALE DOS LAMEIROS,,7920-201,ALVITO,-8.000391144209088,38.232380512854895
pt.ine.add.PTCONT.367103,HRD HERDADE DOS PATOS,,7920-201,ALVITO,-8.066134987031251,38.15539150814329
pt.ine.add.PTCONT.367104,R LIBERDADE,11,7920-370,VILA NOVA DA BARONIA,-8.038715749167677,38.28981323157331
pt.ine.add.PTCONT.367131,TV S SEBASTIÃO,11,7920-395,VILA NOVA DA BARONIA,-8.039241850503727,38.28957942366353
pt.ine.add.PTCONT.367486,PROPRIEDADE DO BACALHAU,,7920-201,ALVITO,-7.993904319820266,38.26203933506772
pt.ine.add.PTCONT.367730,R FÁBRICAS,18,7920-040,ALVITO,-7.9890221891486455,38.25787133556969
pt.ine.add.PTCONT.367911,HORTA DA PARREIRA,,7920-201,ALVITO,-7.98832077019274,38.26012269475462
pt.ine.add.PTCONT.367912,LG GEN HUMBERTO DELGADO,5B,7920-027,ALVITO,-7.990523018721863,38.25577409651964
pt.ine.add.PTCONT.367913,R 1 MAIO,4,7920-013,ALVITO,-7.996074082208172,38.25659151032933
pt.ine.add.PTCONT.367935,R MANHAS,29,7920-043,ALVITO,-7.993596501347116,38.255705719393596
pt.ine.add.PTCONT.367936,R SANTA LUZIA,16,7920-047,ALVITO,-7.9901124223172175,38.25541324111154
pt.ine.add.PTCONT.367937,,,7920-301,VILA NOVA DA BARONIA,-8.116191345240152,38.289525665796496
pt.ine.add.PTCONT.367938,R JOSE DIAS COELHO,4,7920-383,VILA NOVA DA BARONIA,-8.034535649412543,38.287269298771
pt.ine.add.PTCONT.368513,R FÁBRICAS,16,7920-040,ALVITO,-7.989068033033766,38.2577993207138
pt.ine.add.PTCONT.368523,R NOVA,47,7920-055,ALVITO,-7.991508249837753,38.25439692831056
pt.ine.add.PTCONT.368527,R D JOÃO DE CASTRO,9,7920-372,VILA NOVA DA BARONIA,-8.0381018414486,38.287254223102735
pt.ine.add.PTCONT.368533,R HORTAS,13,7920-042,ALVITO,-7.988466541489683,38.255753562089005
pt.ine.add.PTCONT.368540,R JOSE DIAS COELHO,10,7920-383,VILA NOVA DA BARONIA,-8.034490270619457,38.287017012828166
pt.ine.add.PTCONT.368546,BARRANCO DO MANUEL VELHO,,7920-201,ALVITO,-7.98346144433298,38.26176522488506
pt.ine.add.PTCONT.368547,VALE LAMEIROS,,7920-201,ALVITO,-8.00593115874615,38.23858478841867
pt.ine.add.PTCONT.368557,MTE CORTES,,7920-201,ALVITO,-8.082035270568632,38.17813830991235
pt.ine.add.PTCONT.368573,R 5 DE OUTUBRO,46,7920-368,VILA NOVA DA BARONIA,-8.036899464966474,38.28893789803714
pt.ine.add.PTCONT.368580,R 25 DE ABRIL,,7920-392,VILA NOVA DA BARONIA,-8.038294698641263,38.288371476452525
pt.ine.add.PTCONT.368581,R D PEDRO V,2,7920-374,VILA NOVA DA BARONIA,-8.040843416828835,38.28854467662409
pt.ine.add.PTCONT.368585,R CONDE FERREIRA,3,7920-033,ALVITO,-7.993367706773775,38.25585859839857
pt.ine.add.PTCONT.369171,MTE SERRA,,7920-301,VILA NOVA DA BARONIA,-8.015128551797503,38.28658473341758
pt.ine.add.PTCONT.369338,R ESPÍRITO SANTO,2,7920-048,ALVITO,-7.9926553801300955,38.25792078466146
pt.ine.add.PTCONT.369722,R BEJA,10,7920-046,ALVITO,-7.991367599103025,38.25622556438936
pt.ine.add.PTCONT.369723,R S SEBASTIÃO,2,7920-046,ALVITO,-7.990877424267356,38.25565741094935
pt.ine.add.PTCONT.369724,R DR LUIS CERQUEIRA,306,7920-072,ALVITO,-7.995241066208464,38.26209496648404
pt.ine.add.PTCONT.369725,R ALMEIDA GARRETT,18,7920-032,ALVITO,-7.993487107654737,38.25913797747506
pt.ine.add.PTCONT.369762,R NSA SRA ASSUNÇAO,19,7920-013,ALVITO,-7.995502312341377,38.256861108100196
pt.ine.add.PTCONT.369763,R NOVA,34,7920-055,ALVITO,-7.99223839721593,38.254938340848284
pt.ine.add.PTCONT.369764,R CRUZ,28,7920-035,ALVITO,-7.993050311714001,38.25455193007363
pt.ine.add.PTCONT.369765,R NOVA,56,7920-055,ALVITO,-7.991622603220522,38.254343012848395
pt.ine.add.PTCONT.369766,R NOVA,76,7920-055,ALVITO,-7.991041163691861,38.25371168756426
pt.ine.add.PTCONT.369767,BR CARDOSA,7,7920-352,VILA NOVA DA BARONIA,-8.035351989342947,38.29220682959529
pt.ine.add.PTCONT.369789,MTE DAS SESMARIAS,,7920-301,VILA NOVA DA BARONIA,-8.000335756990944,38.28793827023933
pt.ine.add.PTCONT.369790,R JOÃO DE DEUS,10,7920-379,VILA NOVA DA BARONIA,-8.036386739926021,38.28770326420513
pt.ine.add.PTCONT.369791,R JOAQUIM CORREIA,42,7920-381,VILA NOVA DA BARONIA,-8.038252811847267,38.28542554835295
pt.ine.add.PTCONT.369904,TV ABILIO PAIS CABRAL,2,7920-393,VILA NOVA DA BARONIA,-8.039930737718308,38.28718361904833
pt.ine.add.PTCONT.369929,R PENEDO,65,7920-050,ALVITO,-7.99086861587823,38.25431507471416
pt.ine.add.PTCONT.369946,R S MIGUEL,68,7920-030,ALVITO,-7.995014352602362,38.26113975793475
pt.ine.add.PTCONT.370151,R FÁBRICAS,10,7920-040,ALVITO,-7.989479666267278,38.25763766518199
pt.ine.add.PTCONT.370287,R VASCO DA GAMA,,7920-058,ALVITO,-7.988990030542729,38.25679923786315
pt.ine.add.PTCONT.370288,LG CADEIROES,8,7920-025,ALVITO,-7.989946208176095,38.25278244034795
pt.ine.add.PTCONT.370321,R DR LUIS CERQUEIRA,123,7920-072,ALVITO,-7.995358337816781,38.260500531192
pt.ine.add.PTCONT.370322,R NOVA,1,7920-055,ALVITO,-7.992991128692351,38.255623918099154
pt.ine.add.PTCONT.370351,R INF D HENRIQUE,48,7920-378,VILA NOVA DA BARONIA,-8.038587280249152,38.29192119782533
pt.ine.add.PTCONT.370352,AV 1 MAIO,15 A,7920-351,VILA NOVA DA BARONIA,-8.035969624899002,38.29192806848928
pt.ine.add.PTCONT.370353,BR CARDOSA,3,7920-352,VILA NOVA DA BARONIA,-8.03568326578143,38.29236926432836
pt.ine.add.PTCONT.370354,HORTA DAS ALMOINHAS,,7920-301,VILA NOVA DA BARONIA,-8.039698181382631,38.30810194769329
pt.ine.add.PTCONT.370374,AV 1 DE MAIO,67,7920-351,VILA NOVA DA BARONIA,-8.040488495845484,38.289003848224986
pt.ine.add.PTCONT.370375,R 25 DE ABRIL,81,7920-392,VILA NOVA DA BARONIA,-8.039483566844227,38.288273333869235
pt.ine.add.PTCONT.370673,MTE DA CAVALEIRA,,7920-201,ALVITO,-7.93864206268193,38.277050622464316
pt.ine.add.PTCONT.370676,R MATADOURO,,7920-049,ALVITO,-7.990745578937251,38.25881937248761
pt.ine.add.PTCONT.370693,R DR LUIS CERQUEIRA,123,7920-072,ALVITO,-7.995358337816781,38.260500531192
pt.ine.add.PTCONT.370702,AV 1 DE MAIO,15,7920-351,VILA NOVA DA BARONIA,-8.035969624899002,38.29192806848928
pt.ine.add.PTCONT.370729,R NOVA,21,7920-055,ALVITO,-7.992181028912476,38.255064396521306
pt.ine.add.PTCONT.370905,R CRUZ,24,7920-035,ALVITO,-7.993118688176352,38.254642100629574
pt.ine.add.PTCONT.370906,R CRUZ,30,7920-035,ALVITO,-7.992993239197719,38.25452483525459
pt.ine.add.PTCONT.370910,R MESTRE DE AVIZ,31,7920-387,VILA NOVA DA BARONIA,-8.03983888256674,38.28750786467257
pt.ine.add.PTCONT.370913,R D DINIS,,7920-371,VILA NOVA DA BARONIA,-8.036422488233265,38.28660421392358
pt.ine.add.PTCONT.370926,HORTA DA LAMEIRA,,7920-301,VILA NOVA DA BARONIA,-8.048074525788877,38.262775766970236
pt.ine.add.PTCONT.370937,AV 1 DE MAIO,37,7920-351,VILA NOVA DA BARONIA,-8.038017752573692,38.29038022520865
pt.ine.add.PTCONT.370946,ESTR S ROMÃO,24,7920-015,ALVITO,-7.987171382522376,38.25781499518361
pt.ine.add.PTCONT.370947,HORTA DA BOAVISTA,,7920-301,VILA NOVA DA BARONIA,-8.05015701430132,38.29034439203784
pt.ine.add.PTCONT.370948,HORTA ACAMINHO DE VIANA,,7920-301,VILA NOVA DA BARONIA,-8.031561413993613,38.297212524028645
pt.ine.add.PTCONT.371529,HORTA DA LAMEIRA,,7920-301,VILA NOVA DA BARONIA,-8.048074525788877,38.262775766970236
pt.ine.add.PTCONT.371735,LG D DINIS,3,7920-024,ALVITO,-7.9884996918659334,38.25632116329864
pt.ine.add.PTCONT.371736,R SALVADOR,12,7920-051,ALVITO,-7.991802033721252,38.256081945984604
pt.ine.add.PTCONT.371737,R SALVADOR,12,7920-051,ALVITO,-7.991802033721252,38.256081945984604
pt.ine.add.PTCONT.371738,R MACEIRA,12A,7920-037,ALVITO,-7.994694196122335,38.255238556620476
pt.ine.add.PTCONT.371772,LG TRINDADE,4,7920-018,ALVITO,-7.994565425146845,38.256869014677335
pt.ine.add.PTCONT.371773,R PROF EGAS MONIZ,49,7920-391,VILA NOVA DA BARONIA,-8.035974440051326,38.288315525314594
pt.ine.add.PTCONT.371801,AV 1 DE MAIO,44,7920-351,VILA NOVA DA BARONIA,-8.040316605463047,38.28934604860579
pt.ine.add.PTCONT.371802,R DR ERNESTO GOIS,17,7920-375,VILA NOVA DA BARONIA,-8.036521990824347,38.28914479137814
pt.ine.add.PTCONT.371803,LG GEN HUMBERTO DELGADO,B,7920-356,VILA NOVA DA BARONIA,-8.03561062629099,38.286855789895036
pt.ine.add.PTCONT.371804,QTA COSTA,,7920-301,VILA NOVA DA BARONIA,-8.025924919321744,38.289928367105375
pt.ine.add.PTCONT.371805,R 25 DE ABRIL,58,7920-392,VILA NOVA DA BARONIA,-8.037814606658342,38.28838910518394
pt.ine.add.PTCONT.371850,R MESTRE DE AVIZ,2,7920-387,VILA NOVA DA BARONIA,-8.038993383446009,38.287254941668614
pt.ine.add.PTCONT.372529,R 1 MAIO,15,7920-013,ALVITO,-7.995388944113114,38.25639251261057
pt.ine.add.PTCONT.372657,LG GEN HUMBERTO DELGADO,22,7920-027,ALVITO,-7.990074827197691,38.25710686743159
pt.ine.add.PTCONT.372658,R BEJA,27,7920-046,ALVITO,-7.991059593763965,38.25598195181757
pt.ine.add.PTCONT.372659,R BEJA,21,7920-046,ALVITO,-7.9911735644293,38.256126232031924
pt.ine.add.PTCONT.372660,R TAPADINHA D ANTÓNIO,9,7920-071,ALVITO,-7.992892526253456,38.25937149968962
pt.ine.add.PTCONT.372661,LG JOÃO FERREIRA DA SILVEIRA,3,7920-062,ALVITO,-7.992689448298992,38.25802893213433
pt.ine.add.PTCONT.372662,R NSA SRA ASSUNÇAO,18,7920-013,ALVITO,-7.995399638161642,38.256779907615794
pt.ine.add.PTCONT.372663,R CRUZ,3,7920-035,ALVITO,-7.99358602372479,38.255210217663134
pt.ine.add.PTCONT.372664,R NOVA,78,7920-055,ALVITO,-7.990995517326591,38.253684605602366
pt.ine.add.PTCONT.372665,R 25 DE ABRIL,2,7920-392,VILA NOVA DA BARONIA,-8.033129373087313,38.287547383165645
pt.ine.add.PTCONT.372666,BR CARDOSA,12,7920-352,VILA NOVA DA BARONIA,-8.034734981477209,38.292017128153795
pt.ine.add.PTCONT.372667,R 5 DE OUTUBRO,6,7920-368,VILA NOVA DA BARONIA,-8.036817286582124,38.290577440664016
pt.ine.add.PTCONT.372668,R D PEDRO V,9,7920-374,VILA NOVA DA BARONIA,-8.040490178805584,38.28767954877922
pt.ine.add.PTCONT.372669,MTE SERRA,,7920-301,VILA NOVA DA BARONIA,-8.00517759289394,38.27750238687852
pt.ine.add.PTCONT.372670,MTE FONTE DA BATA NOVA,,7920-301,VILA NOVA DA BARONIA,-8.031838185832164,38.27902389793456
pt.ine.add.PTCONT.372671,MTE PRIVANES,,7920-301,VILA NOVA DA BARONIA,-8.030744649911501,38.24387026183532
pt.ine.add.PTCONT.372672,R DR ERNESTO GÓIS,2,7920-375,VILA NOVA DA BARONIA,-8.037322290941614,38.289010314790616
pt.ine.add.PTCONT.372673,R LUIS DE CAMÕES,48,7920-385,VILA NOVA DA BARONIA,-8.040112031643984,38.288426984136294
pt.ine.add.PTCONT.372674,R PINTO DE MELO,6,7920-390,VILA NOVA DA BARONIA,-8.03611192606883,38.28807240014486
pt.ine.add.PTCONT.372675,MTE PULO DO LOBO B,,7920-301,VILA NOVA DA BARONIA,-8.129577596677203,38.263590296445315
pt.ine.add.PTCONT.373425,LG GEN HUMBERTO DELGADO,15 18,7920-027,ALVITO,-7.991239908125861,38.25726143286936
pt.ine.add.PTCONT.373426,LG GEN HUMBERTO DELGADO,15 18,7920-027,ALVITO,-7.991239908125861,38.25726143286936
pt.ine.add.PTCONT.373429,R MESTRE DE AVIZ,7,7920-387,VILA NOVA DA BARONIA,-8.038970732841495,38.287092764187314
pt.ine.add.PTCONT.373442,R MANUEL MARQUES BAIRRO DR TEÓFILO CASACA SIM SIM,19,7920-360,VILA NOVA DA BARONIA,-8.037144483046438,38.28515438145562
pt.ine.add.PTCONT.373445,R ALMEIDA GARRETT,7,7920-032,ALVITO,-7.9932253897528645,38.25857911457842
pt.ine.add.PTCONT.373446,AV BOMBEIROS VOLUNTARIOS,12,7920-011,ALVITO,-7.993877606769415,38.25807539228512
pt.ine.add.PTCONT.373450,R ABRANTES,7,7920-045,ALVITO,-7.992747424661584,38.2575875657745
pt.ine.add.PTCONT.373451,R PROF EGAS MONIZ,41,7920-391,VILA NOVA DA BARONIA,-8.03597397178258,38.28866687001056
pt.ine.add.PTCONT.373463,,,7920-201,ALVITO,-7.9598592840774645,38.298542932541125
pt.ine.add.PTCONT.373464,R CONDE FERREIRA,3,7920-033,ALVITO,-7.993230933860744,38.2556872664428
pt.ine.add.PTCONT.373465,R PINTO DE MELO,,7920-390,VILA NOVA DA BARONIA,-8.037678022231992,38.28794756056943
pt.ine.add.PTCONT.373467,MOINHOS S MIGUEL,,7920-201,ALVITO,-8.010929588213745,38.26179703850305
pt.ine.add.PTCONT.373471,R SANTA LUZIA,10,7920-047,ALVITO,-7.9903295505060585,38.25538647879352
pt.ine.add.PTCONT.373989,R PINTO DE MELO,75,7920-390,VILA NOVA DA BARONIA,-8.0390953705089,38.28793969602631
pt.ine.add.PTCONT.374194,R CRATO,24,7920-023,ALVITO,-7.990865068410662,38.25613486740711
pt.ine.add.PTCONT.374240,MTE AZINHAL,,7920-301,VILA NOVA DA BARONIA,-8.05966127464025,38.28489136335179
pt.ine.add.PTCONT.374241,MTE SUMARIAS,,7920-301,VILA NOVA DA BARONIA,-8.101708336330422,38.26460415291757
pt.ine.add.PTCONT.374243,R PENEDO,41,7920-050,ALVITO,-7.9913244893549455,38.25489219577439
pt.ine.add.PTCONT.374244,R AVIADORES,,7920-052,ALVITO,-7.989116881491456,38.25620480658113
pt.ine.add.PTCONT.374251,R NOVA,60,7920-055,ALVITO,-7.991576973718033,38.254306922238
pt.ine.add.PTCONT.374252,R PENEDO,75,7920-050,ALVITO,-7.990629292222218,38.2540084818809
pt.ine.add.PTCONT.374258,QTA SANTO ANTÓNIO,,7920-201,ALVITO,-7.939428175470428,38.269367362788806
pt.ine.add.PTCONT.374273,R PROF EGAS MONIZ,39,7920-391,VILA NOVA DA BARONIA,-8.036031087014013,38.28869394382794
pt.ine.add.PTCONT.374276,AV 1 DE MAIO QTA DOS SOBREIROS,78,7920-351,VILA NOVA DA BARONIA,-8.042020043571593,38.28909513578572
pt.ine.add.PTCONT.374287,,,7920-201,ALVITO,-7.959355964380406,38.298677320542154
pt.ine.add.PTCONT.374288,R MANHAS,17,7920-043,ALVITO,-7.9931617441854295,38.256020513077544
pt.ine.add.PTCONT.374294,TV FELICIANO CASTILHO,2,7920-396,VILA NOVA DA BARONIA,-8.038030605244764,38.28929016521598
pt.ine.add.PTCONT.374296,MTE ACAMINHO DE VIANA,,7920-301,VILA NOVA DA BARONIA,-8.030257259487163,38.29788705045501
pt.ine.add.PTCONT.375066,R MESTRE DE AVIZ,47,7920-387,VILA NOVA DA BARONIA,-8.04038725066449,38.2877245117288
pt.ine.add.PTCONT.375076,R JOSE DIAS COELHO,3,7920-383,VILA NOVA DA BARONIA,-8.034409858122004,38.28731423726687
pt.ine.add.PTCONT.375080,R JOAQUIM CORREIA,20,7920-381,VILA NOVA DA BARONIA,-8.03818325960655,38.28617322686471
pt.ine.add.PTCONT.375085,MTE CORTES,,7920-201,ALVITO,-8.081966754963883,38.17819233421495
pt.ine.add.PTCONT.375086,MTE RUIVO,,7920-201,ALVITO,-8.004696673656785,38.206592672012896
pt.ine.add.PTCONT.375092,R INF D HENRIQUE,29,7920-378,VILA NOVA DA BARONIA,-8.038758963230428,38.29175016799705
pt.ine.add.PTCONT.375102,R PARREIRA,16,7920-039,ALVITO,-7.993126103458284,38.25673217323058
pt.ine.add.PTCONT.375116,R PENEDO,36,7920-050,ALVITO,-7.991803551562869,38.25529817391468
pt.ine.add.PTCONT.375117,FAZENDA DOS MARMELOS,,7920-301,VILA NOVA DA BARONIA,-8.122055470964069,38.28733721392165
pt.ine.add.PTCONT.375123,ETAR CÂMARA MUNICIPAL DE ALVITO,,7920-301,VILA NOVA DA BARONIA,-8.041532105739138,38.28625696822231
pt.ine.add.PTCONT.375124,HORTA DOS POÇOS,,7920-301,VILA NOVA DA BARONIA,-8.045121899506361,38.27611573881084
pt.ine.add.PTCONT.375679,R D JOÃO DE CASTRO,25,7920-372,VILA NOVA DA BARONIA,-8.03801100072704,38.28679469812171
pt.ine.add.PTCONT.375889,R RAINHA SANTA ISABEL,,7920-024,ALVITO,-7.98812210673749,38.25659997312199
pt.ine.add.PTCONT.375899,R PENEDO,29,7920-050,ALVITO,-7.991598023886725,38.255234863989955
pt.ine.add.PTCONT.375900,R PENEDO,60,7920-050,ALVITO,-7.991165328872369,38.254486603016225
pt.ine.add.PTCONT.375913,R DR ALBERTO LANCA,77,7920-072,ALVITO,-7.994914727633664,38.25944596960365
pt.ine.add.PTCONT.375914,R CATARINA EUFEMIA,19,7920-367,VILA NOVA DA BARONIA,-8.03841182161193,38.286200438122854
pt.ine.add.PTCONT.375917,R IRMA MARIA PIA BAIRRO DR TEÓFILO CASACA SIM SIM,13,7920-360,VILA NOVA DA BARONIA,-8.03741794419584,38.28580324222582
pt.ine.add.PTCONT.375930,R PROF EGAS MONIZ,,7920-391,VILA NOVA DA BARONIA,-8.03598558211195,38.288531746900496
pt.ine.add.PTCONT.375931,R LUIS DE CAMÕES,9,7920-385,VILA NOVA DA BARONIA,-8.038910916463939,38.2891557426083
pt.ine.add.PTCONT.375932,R LUIS DE CAMÕES,12,7920-385,VILA NOVA DA BARONIA,-8.038933509359733,38.28936296423375
pt.ine.add.PTCONT.375934,R NSA SRA ASSUNÇÃO,21,7920-013,ALVITO,-7.995490207417442,38.257221449650714
pt.ine.add.PTCONT.375936,R 5 DE OUTUBRO,2,7920-368,VILA NOVA DA BARONIA,-8.036817048509736,38.29075761736864
pt.ine.add.PTCONT.375944,R 5 OUTUBRO,16,7920-368,VILA NOVA DA BARONIA,-8.036817881753803,38.29012699887814
pt.ine.add.PTCONT.375945,R 5 OUTUBRO,14,7920-368,VILA NOVA DA BARONIA,-8.036817881753803,38.29012699887814
pt.ine.add.PTCONT.375947,,,7920-301,VILA NOVA DA BARONIA,-8.114830795879536,38.290849762472426
pt.ine.add.PTCONT.376703,MTE MARMELOS,,7920-301,VILA NOVA DA BARONIA,-8.130525276123752,38.283526960014754
pt.ine.add.PTCONT.376712,R PENEDO,79,7920-050,ALVITO,-7.990515290720719,38.25388221884769
pt.ine.add.PTCONT.376719,HRD SESMARIAS,,7920-201,ALVITO,-7.997584387111122,38.29231342195033
pt.ine.add.PTCONT.376720,TAPADA D MARIA JOSE PAVANITO,FRACCAO A,7920-201,ALVITO,-7.990746158948558,38.252666297772514
pt.ine.add.PTCONT.376734,LG TRINDADE,7A,7920-018,ALVITO,-7.994484866477358,38.25717522192621
pt.ine.add.PTCONT.376735,R ABRANTES,13,7920-045,ALVITO,-7.992861470435792,38.25769580883477
pt.ine.add.PTCONT.376743,ESTR AGUA DE PEIXES,,7920-201,ALVITO,-7.988415088578087,38.25865436212036
pt.ine.add.PTCONT.376744,R 5 DE OUTUBRO,30,7920-368,VILA NOVA DA BARONIA,-8.036876080979706,38.28933426814296
pt.ine.add.PTCONT.376747,R OUTEIRO DAS PELES,5,7920-056,ALVITO,-7.991363241230683,38.25846877342916
pt.ine.add.PTCONT.377503,R VASCO DA GAMA,2,7920-058,ALVITO,-7.989342473143224,38.25768254165026
pt.ine.add.PTCONT.377504,R IGREJAS,7,7920-036,ALVITO,-7.995147141748341,38.257383206917616
pt.ine.add.PTCONT.377540,R PROF EGAS MONIZ,23,7920-391,VILA NOVA DA BARONIA,-8.036030211003613,38.28935158896944
pt.ine.add.PTCONT.377541,R CUSTÓDIO SANTOS COELHO,4,7920-369,VILA NOVA DA BARONIA,-8.038177110872807,38.29089385843573
pt.ine.add.PTCONT.377591,LG GEN HUMBERTO DELGADO,1,7920-356,VILA NOVA DA BARONIA,-8.035747075810763,38.28738742537999
pt.ine.add.PTCONT.377592,R MESTRE DE AVIZ,29,7920-387,VILA NOVA DA BARONIA,-8.039747522821246,38.287444730057516
pt.ine.add.PTCONT.377628,R D JOÃO DE CASTRO,8,7920-372,VILA NOVA DA BARONIA,-8.038204699946789,38.28726331520079
pt.ine.add.PTCONT.378004,R MESTRE DE AVIZ,19,7920-387,VILA NOVA DA BARONIA,-8.039336295813456,38.28724620739499
pt.ine.add.PTCONT.378381,R BEJA,26,7920-046,ALVITO,-7.991162770225937,38.255801898760076
pt.ine.add.PTCONT.378411,R 1 MAIO,18,7920-013,ALVITO,-7.995572001586214,38.2562575938726
pt.ine.add.PTCONT.378412,R PENEDO,58,7920-050,ALVITO,-7.991222400677271,38.254513698723
pt.ine.add.PTCONT.378413,TAPADA D MARIA JOSE PAVANITO,FRACCAO B,7920-201,ALVITO,-7.9906546567414845,38.252720240137656
pt.ine.add.PTCONT.378414,VALE DOS LAMEIROS,,7920-201,ALVITO,-8.000400208126939,38.233677809166466
pt.ine.add.PTCONT.378443,R 5 DE OUTUBRO,7,7920-368,VILA NOVA DA BARONIA,-8.036669154433637,38.29022597402011
pt.ine.add.PTCONT.378444,R MQ DE POMBAL,9,7920-386,VILA NOVA DA BARONIA,-8.036581600391337,38.287289017592734
pt.ine.add.PTCONT.378445,R MANUEL MARQUES,29,7920-360,VILA NOVA DA BARONIA,-8.036948276578237,38.28659563719104
pt.ine.add.PTCONT.378495,MTE CABREIROS A,,7920-301,VILA NOVA DA BARONIA,-8.080398367099898,38.26400192915157
pt.ine.add.PTCONT.378496,MTE CABREIROS A,,7920-301,VILA NOVA DA BARONIA,-8.080398367099898,38.26400192915157
pt.ine.add.PTCONT.378497,MTE PULO DO LOBO,,7920-301,VILA NOVA DA BARONIA,-8.128343694611196,38.26141911002001
pt.ine.add.PTCONT.378760,R ALMEIDA GARRETT,9,7920-032,ALVITO,-7.993270953669904,38.2586512400099
pt.ine.add.PTCONT.378764,R FRADES FRANCISCANOS,,7920-020,ALVITO,-7.992686622484692,38.25356051668746
pt.ine.add.PTCONT.379030,R OUTEIRO DAS PELES,34,7920-056,ALVITO,-7.992561981106161,38.25895669532917
pt.ine.add.PTCONT.379031,LG GEN HUMBERTO DELGADO,44,7920-027,ALVITO,-7.990407816578658,38.25626043680843
pt.ine.add.PTCONT.379032,QTA FREIXOS,,7920-201,ALVITO,-7.983112092827705,38.25384596340529
pt.ine.add.PTCONT.379033,R S MIGUEL,77,7920-030,ALVITO,-7.996383638960538,38.26211432105504
pt.ine.add.PTCONT.379034,R OUTEIRO DAS PELES,46,7920-056,ALVITO,-7.993189575544481,38.25938086313146
pt.ine.add.PTCONT.379035,R PEREIRAS,1,7920-044,ALVITO,-7.9926107887609374,38.25734416216629
pt.ine.add.PTCONT.379077,R PROF EGAS MONIZ,27,7920-391,VILA NOVA DA BARONIA,-8.036030559011163,38.289090332689206
pt.ine.add.PTCONT.379122,R CATARINA EUFEMIA,18,7920-367,VILA NOVA DA BARONIA,-8.038548956559977,38.28621856643256
pt.ine.add.PTCONT.379123,R MANUEL MARQUES-BAIRRO DR TEÓFILO CASACA SIM SIM,37,7920-360,VILA NOVA DA BARONIA,-8.036823939845581,38.285541499524214
pt.ine.add.PTCONT.379124,R LUIS DE CAMÕES,46A,7920-385,VILA NOVA DA BARONIA,-8.040043450384148,38.288426929755026
pt.ine.add.PTCONT.379125,R 25 DE ABRIL,51,7920-392,VILA NOVA DA BARONIA,-8.038340560015879,38.28826340732164
pt.ine.add.PTCONT.379126,R PINTO DE MELO,,7920-390,VILA NOVA DA BARONIA,-8.038638176861085,38.28793031992928
pt.ine.add.PTCONT.379562,R 1 MAIO,6,7920-013,ALVITO,-7.99600559870057,38.25655539476311
pt.ine.add.PTCONT.379566,R JOÃO DE DEUS,29,7920-379,VILA NOVA DA BARONIA,-8.036855492811897,38.28761356121318
pt.ine.add.PTCONT.379610,HRD HERDADE LOIZANDAS,,7920-201,ALVITO,-8.054320447771286,38.203158996323296
pt.ine.add.PTCONT.379787,AV BOMBEIROS VOLUNTARIOS,10,7920-011,ALVITO,-7.993877899028163,38.2579222414677
pt.ine.add.PTCONT.379829,ESTR CIRCUNVALAÇÃO,,7920-068,ALVITO,-7.9936678234912595,38.254255371802266
pt.ine.add.PTCONT.379834,R JOÃO DE DEUS,33,7920-379,VILA NOVA DA BARONIA,-8.03710699020217,38.28758674072437
pt.ine.add.PTCONT.379837,TV CATURRA,6,7920-042,ALVITO,-7.988523381209082,38.255897774449394
pt.ine.add.PTCONT.379843,HRD BENTO DA SERRA,,7920-201,ALVITO,-7.970954319025981,38.23408226068588
pt.ine.add.PTCONT.379849,MTE NOVO DO CHOURICO,,7920-201,ALVITO,-7.978392240804558,38.189804246494674
pt.ine.add.PTCONT.379851,MTE PORTO DA SARDINHA,,7920-301,VILA NOVA DA BARONIA,-8.0314716500325,38.279609157039964
pt.ine.add.PTCONT.379856,R 5 DE OUTUBRO,52,7920-368,VILA NOVA DA BARONIA,-8.03692261090026,38.288721704667374
pt.ine.add.PTCONT.379867,,,7920-201,ALVITO,-7.960178539379919,38.298894747800645
pt.ine.add.PTCONT.379868,R MATADOURO,416,7920-049,ALVITO,-7.990768834285547,38.2586121962128
pt.ine.add.PTCONT.379869,R MATADOURO,416,7920-049,ALVITO,-7.990768834285547,38.2586121962128
pt.ine.add.PTCONT.379875,MTE SERRA,,7920-201,ALVITO,-8.006166739028695,38.260755960819715
pt.ine.add.PTCONT.379876,R BEJA,59,7920-046,ALVITO,-7.990661632097902,38.254999499819895
pt.ine.add.PTCONT.380390,R PROF EGAS MONIZ,45,7920-391,VILA NOVA DA BARONIA,-8.035928479036999,38.288495664222104
pt.ine.add.PTCONT.380648,BR PADRE AMERICO,7,7920-012,ALVITO,-7.995224837658541,38.25859048978031
pt.ine.add.PTCONT.380640,R PENEDO,1,7920-050,ALVITO,-7.992042257364971,38.25592908377982
pt.ine.add.PTCONT.380641,R PENEDO,3,7920-050,ALVITO,-7.992042257364971,38.25592908377982
pt.ine.add.PTCONT.380644,QTA CAVALEIRA,,7920-201,ALVITO,-7.9413770351165045,38.27134350531064
pt.ine.add.PTCONT.380645,R NOVA,72,7920-055,ALVITO,-7.99116662565689,38.25381994615638
pt.ine.add.PTCONT.380646,R JOAQUIM CORREIA,60,7920-381,VILA NOVA DA BARONIA,-8.038276339419765,38.28491206271954
pt.ine.add.PTCONT.380647,BR PADRE AMERICO,5,7920-012,ALVITO,-7.995224837658541,38.25859048978031
pt.ine.add.PTCONT.380652,AV BOMBEIROS VOLUNTARIOS,20,7920-011,ALVITO,-7.993911212754156,38.258426778925134
pt.ine.add.PTCONT.380658,LG ADRO,9,7920-021,ALVITO,-7.9941786135381045,38.25600370351705
pt.ine.add.PTCONT.380682,R 5 DE OUTUBRO,18,7920-368,VILA NOVA DA BARONIA,-8.036829478855246,38.290000884552775
pt.ine.add.PTCONT.380687,R OUTEIRO DAS PELES,14,7920-056,ALVITO,-7.991397202746291,38.25863097448216
pt.ine.add.PTCONT.380688,R PINTO DE MELO,69,7920-390,VILA NOVA DA BARONIA,-8.038878174683004,38.287957539481255
pt.ine.add.PTCONT.381246,R PENEDO,5,7920-050,ALVITO,-7.992042257364971,38.25592908377982
pt.ine.add.PTCONT.381408,R ALMEIDA GARRETT,12,7920-032,ALVITO,-7.993281878488543,38.25891251085935
pt.ine.add.PTCONT.381602,ESTR HORTAS,8,7920-014,ALVITO,-7.988863124080578,38.257420695555304
pt.ine.add.PTCONT.381603,LG GEN HUMBERTO DELGADO,35,7920-027,ALVITO,-7.989802159849395,38.25632276103428
pt.ine.add.PTCONT.381604,R BEJA,23,7920-046,ALVITO,-7.9911394292739475,38.25605411958424
pt.ine.add.PTCONT.381605,BR PADRE AMERICO,1,7920-012,ALVITO,-7.995122263590483,38.25845523584502
pt.ine.add.PTCONT.381606,R PULA,3,7920-201,ALVITO,-7.995122263590483,38.25845523584502
pt.ine.add.PTCONT.381607,R ALMEIDA GARRETT,8,7920-032,ALVITO,-7.9930880069612655,38.25872309299257
pt.ine.add.PTCONT.381624,R 1 MAIO,3B,7920-013,ALVITO,-7.995845815411911,38.25646511903632
pt.ine.add.PTCONT.381625,R FRADES FRANCISCANOS,,7920-201,ALVITO,-7.992607031002484,38.25336222565059
pt.ine.add.PTCONT.381626,R NOVA,80,7920-055,ALVITO,-7.990915631880277,38.253639464345525
pt.ine.add.PTCONT.381627,MTE GREGA DE BAIXO,,7920-201,ALVITO,-8.031561588489364,38.16566404357694
pt.ine.add.PTCONT.381628,R PROF EGAS MONIZ,,7920-391,VILA NOVA DA BARONIA,-8.035974067838369,38.288594799305415
pt.ine.add.PTCONT.381662,BR CASA DO POVO,3,7920-353,VILA NOVA DA BARONIA,-8.038212259036817,38.29023624116816
pt.ine.add.PTCONT.381663,R LIBERDADE,10,7920-370,VILA NOVA DA BARONIA,-8.038167687228688,38.28935333815741
pt.ine.add.PTCONT.381664,MTE PEDRAGOSA,,7920-301,VILA NOVA DA BARONIA,-8.027730016421314,38.266840285659136
pt.ine.add.PTCONT.381665,MTE PEDRAGOSA,,7920-301,VILA NOVA DA BARONIA,-8.027730016421314,38.266840285659136
pt.ine.add.PTCONT.381666,R PINTO DE MELO,24,7920-390,VILA NOVA DA BARONIA,-8.037060593173157,38.28810020716399
pt.ine.add.PTCONT.382001,R MQ DE POMBAL,20,7920-386,VILA NOVA DA BARONIA,-8.036147462985733,38.28713550915324
pt.ine.add.PTCONT.382025,R SANTA LUZIA,14,7920-047,ALVITO,-7.990215282745576,38.25539534861018
pt.ine.add.PTCONT.382257,R SALVADOR,21,7920-051,ALVITO,-7.990864242963922,38.256558284437645
pt.ine.add.PTCONT.382258,HORTA DO ESCRIVAO,,7920-201,ALVITO,-7.982993100530259,38.24504411190323
pt.ine.add.PTCONT.382259,LG ADRO,15,7920-021,ALVITO,-7.994429058477037,38.25648147116219
pt.ine.add.PTCONT.382260,R PEREIRAS,,7920-044,ALVITO,-7.9928394510283916,38.25726335566712
pt.ine.add.PTCONT.382306,R CRUZ,43,7920-035,ALVITO,-7.992639328111558,38.25438927871236
pt.ine.add.PTCONT.382307,R CRUZ,47,7920-035,ALVITO,-7.992445296575231,38.25428994843256
pt.ine.add.PTCONT.382308,HORTA DA FONTE DA TELHA,,7920-201,ALVITO,-7.9897814607383415,38.243593154396166
pt.ine.add.PTCONT.382309,VALE DOS LAMEIROS,,7920-201,ALVITO,-8.000446058268519,38.23358777169628
pt.ine.add.PTCONT.382310,HRD HERDADE PARREIRAS,,7920-201,ALVITO,-7.9623278324593,38.20609724526623
pt.ine.add.PTCONT.382336,R JOAQUIM HENRIQUE DA SILVA,3,7920-382,VILA NOVA DA BARONIA,-8.037080034821459,38.290694771006706
pt.ine.add.PTCONT.382366,R 25 DE ABRIL,75,7920-392,VILA NOVA DA BARONIA,-8.03924354454864,38.288264133234655
pt.ine.add.PTCONT.382367,R PINTO DE MELO,89,7920-390,VILA NOVA DA BARONIA,-8.040066920351657,38.28794947937211
pt.ine.add.PTCONT.382841,AV 1 DE MAIO,,7920-351,VILA NOVA DA BARONIA,-8.038246304253613,38.290425454458756
pt.ine.add.PTCONT.382859,MOINHO DA PONTE,,7920-201,ALVITO,-7.9795080645025775,38.24003965511083
pt.ine.add.PTCONT.382867,MTE CHOURICO,,7920-201,ALVITO,-7.977553368788283,38.19243376420284
pt.ine.add.PTCONT.382876,AV BOMBEIROS VOLUNTARIOS,24,7920-011,ALVITO,-7.993967841957227,38.25868810392613
pt.ine.add.PTCONT.383100,R IGREJAS,4,7920-036,ALVITO,-7.994850100323341,38.25737384844276
pt.ine.add.PTCONT.383101,LG RELOGIO,21,7920-022,ALVITO,-7.992498705734333,38.25621791620412
pt.ine.add.PTCONT.383102,LG RELOGIO,10,7920-022,ALVITO,-7.99238509717205,38.2558844509165
pt.ine.add.PTCONT.383103,R NOVA,2,7920-055,ALVITO,-7.993116925235749,38.25556100595929
pt.ine.add.PTCONT.383104,R CRUZ,59,7920-035,ALVITO,-7.992262829502971,38.25411856052823
pt.ine.add.PTCONT.383144,R PROF EGAS MONIZ,11,7920-391,VILA NOVA DA BARONIA,-8.0360755605804,38.28963090073503
pt.ine.add.PTCONT.383145,R MESTRE DE AVIZ,3,7920-387,VILA NOVA DA BARONIA,-8.038810736148179,38.28707461799985
pt.ine.add.PTCONT.383146,R D JOÃO DE CASTRO,11,7920-372,VILA NOVA DA BARONIA,-8.038101900165387,38.287209178898436
pt.ine.add.PTCONT.383181,R PINTO DE MELO,18,7920-390,VILA NOVA DA BARONIA,-8.036751955095164,38.2881179717859
pt.ine.add.PTCONT.383631,ESTR S ROMÃO,14,7920-015,ALVITO,-7.98800477313134,38.25814935759944
pt.ine.add.PTCONT.383632,R ABRANTES,6,7920-045,ALVITO,-7.992712940565086,38.2576956312337
pt.ine.add.PTCONT.383633,R VASCO DA GAMA,,7920-058,ALVITO,-7.988853551147576,38.2564837588996
pt.ine.add.PTCONT.383634,PC REPUBLICA,20,7920-028,ALVITO,-7.991651603396862,38.257063734200464
pt.ine.add.PTCONT.383635,PC REPUBLICA,20,7920-028,ALVITO,-7.991651603396862,38.257063734200464
pt.ine.add.PTCONT.383636,PC REPUBLICA,20,7920-028,ALVITO,-7.991651603396862,38.257063734200464
pt.ine.add.PTCONT.383637,R BEJA,25,7920-046,ALVITO,-7.991116649165929,38.256018056444645
pt.ine.add.PTCONT.383638,R S LUZIA,1,7920-047,ALVITO,-7.990729461083555,38.25536894687013
pt.ine.add.PTCONT.383639,HORTA GRANDE,,7920-201,ALVITO,-7.985655847466983,38.255813126443016
pt.ine.add.PTCONT.383878,R CALÇADA,7,7920-034,ALVITO,-7.992497143225347,38.25702871479213
pt.ine.add.PTCONT.384217,MTE NOVO DA CAVALEIRA,,7920-201,ALVITO,-7.944444409084135,38.273906994752814
pt.ine.add.PTCONT.384218,MTE DO ESTACAL,,7920-201,ALVITO,-7.949662421392844,38.27571704102529
pt.ine.add.PTCONT.384219,MTE DO ESTACAL,,7920-201,ALVITO,-7.949593580261567,38.27582503969663
pt.ine.add.PTCONT.384258,R PENEDO,31,7920-050,ALVITO,-7.991575296228964,38.25517177430924
pt.ine.add.PTCONT.384259,HORTA DAS ALMAS,,7920-201,ALVITO,-7.996080088205668,38.25339335896692
pt.ine.add.PTCONT.384260,HORTA NOVA,,7920-201,ALVITO,-8.02968904153071,38.24716659894435
pt.ine.add.PTCONT.384261,R CUSTÓDIO SANTOS COELHO,14,7920-369,VILA NOVA DA BARONIA,-8.038200347511351,38.290605594196926
pt.ine.add.PTCONT.384304,QTA JOSÉ SALDANHA DA SILVA,,7920-301,VILA NOVA DA BARONIA,-8.03331944737853,38.29898877277399
pt.ine.add.PTCONT.384305,R CATARINA EUFEMIA,29,7920-367,VILA NOVA DA BARONIA,-8.0384701406421,38.28529959991221
pt.ine.add.PTCONT.384306,R 25 DE ABRIL,71,7920-392,VILA NOVA DA BARONIA,-8.039083568460605,38.28822796974029
pt.ine.add.PTCONT.384548,R STA ÁGUEDA,,7920-353,VILA NOVA DA BARONIA,-8.037835276539854,38.290064767565404
pt.ine.add.PTCONT.384738,R FÁBRICAS,8,7920-040,ALVITO,-7.989559679264328,38.2576197452991
pt.ine.add.PTCONT.384744,SANTO ANTÓNIO,6,7920-020,ALVITO,-7.992297608091555,38.2538573442198
pt.ine.add.PTCONT.384752,R AVIADORES,6,7920-052,ALVITO,-7.98870545167415,38.25626736330041
pt.ine.add.PTCONT.384757,R S MIGUEL,70,7920-030,ALVITO,-7.995892334971069,38.26210473871147
pt.ine.add.PTCONT.384762,R ALMEIDA GARRETT,25,7920-032,ALVITO,-7.993635778244767,38.25906608314332
pt.ine.add.PTCONT.384763,MOINHO DA AZINHEIRA,,7920-201,ALVITO,-8.035442768012564,38.23296445682685
pt.ine.add.PTCONT.384770,R IGREJAS,5,7920-036,ALVITO,-7.995067266726952,38.25732905962967
pt.ine.add.PTCONT.384771,R CALÇADA,26,7920-034,ALVITO,-7.9931944302231965,38.25684937033231
pt.ine.add.PTCONT.384772,R CALÇADA,26,7920-034,ALVITO,-7.9931944302231965,38.25684937033231
pt.ine.add.PTCONT.384776,LG TRINDADE,2,7920-018,ALVITO,-7.994508572725815,38.256724805242925
pt.ine.add.PTCONT.384777,R CALÇADA,17,7920-034,ALVITO,-7.992931666959271,38.2568400478655
pt.ine.add.PTCONT.384778,BR CARDOSA,,7920-352,VILA NOVA DA BARONIA,-8.035043284969102,38.2922606250153
pt.ine.add.PTCONT.384782,R 25 DE ABRIL,54,7920-392,VILA NOVA DA BARONIA,-8.037540269967577,38.288397890885534
pt.ine.add.PTCONT.384791,R NOVA,22,7920-055,ALVITO,-7.992580694398843,38.25517298254121
pt.ine.add.PTCONT.384794,QTA DOMICILIAS,,7920-301,VILA NOVA DA BARONIA,-8.03993966206584,38.28020176279119
pt.ine.add.PTCONT.385632,,,7920-201,ALVITO,-7.959848473629331,38.298281660609774
pt.ine.add.PTCONT.385633,LG GEN HUMBERTO DELGADO,47,7920-027,ALVITO,-7.990476068090208,38.256413670983946
pt.ine.add.PTCONT.385634,TV OLIVEIRA,5,7920-060,ALVITO,-7.992790180669361,38.25911912843797
pt.ine.add.PTCONT.385686,R PENEDO,22,7920-050,ALVITO,-7.991974421218158,38.25555963750976
pt.ine.add.PTCONT.385687,R CRUZ,9,7920-035,ALVITO,-7.993346513155788,38.254993719151734
pt.ine.add.PTCONT.385688,R PENEDO,67,7920-050,ALVITO,-7.9907773928452155,38.254224875137936
pt.ine.add.PTCONT.385689,HRD BENTO DA SERRA,,7920-201,ALVITO,-7.9715031970715575,38.233794732020556
pt.ine.add.PTCONT.385690,R INF D HENRIQUE,1,7920-378,VILA NOVA DA BARONIA,-8.03894367092111,38.29034493664597
pt.ine.add.PTCONT.385717,LG S PEDRO,,7920-301,VILA NOVA DA BARONIA,-8.03486095073612,38.291846065696966
pt.ine.add.PTCONT.385718,AV 1 DE MAIO,28,7920-351,VILA NOVA DA BARONIA,-8.038658083300538,38.29020957439271
pt.ine.add.PTCONT.385719,R LIBERDADE,15,7920-370,VILA NOVA DA BARONIA,-8.03881852976355,38.289885384993006
pt.ine.add.PTCONT.385720,R PINTO DE MELO,7,7920-390,VILA NOVA DA BARONIA,-8.035894969458534,38.28791006129288
pt.ine.add.PTCONT.386090,AV BOMBEIROS VOLUNTARIOS,22,7920-011,ALVITO,-7.993933874698092,38.258525903607634
pt.ine.add.PTCONT.386094,R PROF EGAS MONIZ,38,7920-391,VILA NOVA DA BARONIA,-8.03612267288155,38.28858591339705
pt.ine.add.PTCONT.386125,AV 1 DE MAIO,,7920-301,VILA NOVA DA BARONIA,-8.036606800518518,38.29415377814122
pt.ine.add.PTCONT.386131,R MQ DE POMBAL,5,7920-386,VILA NOVA DA BARONIA,-8.03676444515156,38.28731619443416
pt.ine.add.PTCONT.386456,R BEJA,22,7920-046,ALVITO,-7.9912083303758,38.255874025019246
pt.ine.add.PTCONT.386490,R 1 MAIO,5,7920-013,ALVITO,-7.995776925185543,38.2566452163266
pt.ine.add.PTCONT.386491,ESTR CIRCUNVALAÇÃO,3,7920-068,ALVITO,-7.993884259404454,38.25458895797732
pt.ine.add.PTCONT.386492,TAPADA D MARIA JOSE PAVANITO,FRACACO E,7920-201,ALVITO,-7.990414440784673,38.25287309960083
pt.ine.add.PTCONT.386493,HORTA DO TRANCOSO,,7920-201,ALVITO,-7.9936035385819535,38.24604818380577
pt.ine.add.PTCONT.386513,R INF D HENRIQUE,37,7920-378,VILA NOVA DA BARONIA,-8.038769985766598,38.292065486373396
pt.ine.add.PTCONT.386514,R CATARINA EUFEMIA,26,7920-367,VILA NOVA DA BARONIA,-8.038560596774923,38.28605641647609
pt.ine.add.PTCONT.386515,R IRMA MARIA PIA BAIRRO DR TEÓFILO CASACA SIM SIM,14,7920-360,VILA NOVA DA BARONIA,-8.03740664451361,38.285704135630645
pt.ine.add.PTCONT.386546,R 5 DE OUTUBRO,45,7920-368,VILA NOVA DA BARONIA,-8.036773755603656,38.28891977718773
pt.ine.add.PTCONT.386880,R PROF EGAS MONIZ,5,7920-391,VILA NOVA DA BARONIA,-8.03614362754628,38.29001833740031
pt.ine.add.PTCONT.387096,R CRUZ,69,7920-035,ALVITO,-7.992023343859467,38.253893050413296
pt.ine.add.PTCONT.387097,R CRUZ,53,7920-035,ALVITO,-7.992376886525558,38.25421779523481
pt.ine.add.PTCONT.387101,R MANUEL MARQUES-BAIRRO DR TEÓFILO CASACA SIM SIM,33,7920-360,VILA NOVA DA BARONIA,-8.036719952163592,38.28638824624952
pt.ine.add.PTCONT.387103,MTE ASSENTES DDE BAIXO,,7920-201,ALVITO,-7.957222784073259,38.187738411438474
pt.ine.add.PTCONT.387112,HORTA DA FONTINHA,,7920-301,VILA NOVA DA BARONIA,-8.03340090934748,38.289583613897975
pt.ine.add.PTCONT.387124,R CUSTÓDIO SANTOS COELHO,1 A,7920-369,VILA NOVA DA BARONIA,-8.038028630661158,38.290803649749094
pt.ine.add.PTCONT.387131,R 25 DE ABRIL,97,7920-392,VILA NOVA DA BARONIA,-8.039986575595123,38.288210672254486
pt.ine.add.PTCONT.387137,R RAINHA SANTA ISABEL,4,7920-024,ALVITO,-7.9883730322632704,38.256816496308026
pt.ine.add.PTCONT.387138,MTE BOAVISTA,,7920-301,VILA NOVA DA BARONIA,-8.04876335706034,38.289595664097156
pt.ine.add.PTCONT.387907,ESTR HORTAS,2,7920-014,ALVITO,-7.989034254974631,38.25754703027119
pt.ine.add.PTCONT.387910,R CRUZ,63,7920-035,ALVITO,-7.992148720582404,38.254046352340815
pt.ine.add.PTCONT.387916,R MANUEL MARQUES-BAIRRO DR TEÓFILO CASACA SIM SIM,35,7920-360,VILA NOVA DA BARONIA,-8.036777446902773,38.286127036768576
pt.ine.add.PTCONT.387926,R DR LUIS CERQUEIRA,341,7920-072,ALVITO,-7.995720299235559,38.26244687507508
pt.ine.add.PTCONT.387927,R DR ERNESTO GOIS,3,7920-201,ALVITO,-7.995773601592466,38.2584109554464
pt.ine.add.PTCONT.387938,R 1 MAIO,3,7920-013,ALVITO,-7.9958453408719325,38.25671736752312
pt.ine.add.PTCONT.387947,R 1 MAIO,16,7920-013,ALVITO,-7.995594733037418,38.25632068277484
pt.ine.add.PTCONT.387948,R 25 DE ABRIL,13,7920-392,VILA NOVA DA BARONIA,-8.036648857107819,38.28828905519394
pt.ine.add.PTCONT.387949,,,7920-201,ALVITO,-7.960224159747975,38.29893985916903
pt.ine.add.PTCONT.387950,R 5 DE OUTUBRO,32,7920-368,VILA NOVA DA BARONIA,-8.036910479056928,38.28925321672859
pt.ine.add.PTCONT.387952,R PINTO DE MELO,61,7920-390,VILA NOVA DA BARONIA,-8.038695315848914,38.287939374773764
pt.ine.add.PTCONT.387954,MTE BARÃO,,7920-301,VILA NOVA DA BARONIA,-8.059449211179247,38.268531126619926
pt.ine.add.PTCONT.388639,R ESPÍRITO SANTO,16,7920-048,ALVITO,-7.993501532763292,38.25757044752806
pt.ine.add.PTCONT.388686,R CRUZ,61,7920-035,ALVITO,-7.99219435020583,38.25408244273074
pt.ine.add.PTCONT.388679,MTE DA SERRA,,7920-301,VILA NOVA DA BARONIA,-8.014555267468028,38.29471013236088
pt.ine.add.PTCONT.388683,R SALVADOR,24,7920-051,ALVITO,-7.99063551036841,38.25667512258761
pt.ine.add.PTCONT.388684,R MIGUEL BOMBARDA,7,7920-388,VILA NOVA DA BARONIA,-8.03592946404768,38.28775693943162
pt.ine.add.PTCONT.388701,MTE MONTAL VERDE,,7920-201,ALVITO,-8.013545795967497,38.21318757284316
pt.ine.add.PTCONT.388703,R DR LUIS CERQUEIRA,291,7920-072,ALVITO,-7.995606785190538,38.26205035115281
pt.ine.add.PTCONT.388704,MTE TERRUJO,,7920-201,ALVITO,-8.040663275211394,38.19617608239986
pt.ine.add.PTCONT.388710,AV BOMBEIROS VOLUNTARIOS,16,7920-011,ALVITO,-7.9939001654257495,38.258228570207635
pt.ine.add.PTCONT.388714,AV 1 DE MAIO,47,7920-351,VILA NOVA DA BARONIA,-8.03950477262734,38.28956161603369
pt.ine.add.PTCONT.388724,PC REPUBLICA,3,7920-028,ALVITO,-7.992109310784927,38.25670392928437
pt.ine.add.PTCONT.388729,ESTR S ROMÃO,4,7920-015,ALVITO,-7.988598592852752,38.25830324149558
pt.ine.add.PTCONT.388730,MTE FLORES,,7920-301,VILA NOVA DA BARONIA,-8.053095922544166,38.28919330071839
pt.ine.add.PTCONT.389243,BR CASA DO POVO,,7920-353,VILA NOVA DA BARONIA,-8.037618180315015,38.29000152914474
pt.ine.add.PTCONT.389246,AV 1 DE MAIO,16 A,7920-351,VILA NOVA DA BARONIA,-8.037880280311501,38.29061434368291
pt.ine.add.PTCONT.389432,R ESPÍRITO SANTO,22,7920-048,ALVITO,-7.993718769416688,38.257489625725505
pt.ine.add.PTCONT.389639,ESTR HORTAS,4,7920-014,ALVITO,-7.988954402123308,38.25748386996214
pt.ine.add.PTCONT.389640,R ALMEIDA GARRETT,14,7920-032,ALVITO,-7.9933388509866266,38.25899365874401
pt.ine.add.PTCONT.389641,R MACEIRA,16,7920-037,ALVITO,-7.995665507033014,38.25514060035423
pt.ine.add.PTCONT.389678,R PROF EGAS MONIZ,7,7920-391,VILA NOVA DA BARONIA,-8.036086787088633,38.28978406040894
pt.ine.add.PTCONT.389679,R JOÃO DE DEUS,39,7920-379,VILA NOVA DA BARONIA,-8.037529843991837,38.28763213021641
pt.ine.add.PTCONT.389710,MTE DU FREIXO,,7920-301,VILA NOVA DA BARONIA,-8.046440937134744,38.25285577720429
pt.ine.add.PTCONT.389711,AV 1 DE MAIO,65,7920-351,VILA NOVA DA BARONIA,-8.040465566532783,38.28905788320767
pt.ine.add.PTCONT.389712,R LUIS DE CAMÕES,36,7920-385,VILA NOVA DA BARONIA,-8.039734430743742,38.28874199391516
pt.ine.add.PTCONT.389713,R 25 DE ABRIL,47,7920-392,VILA NOVA DA BARONIA,-8.038191944162207,38.28828130488022
pt.ine.add.PTCONT.390065,R MANHAS,33,7920-043,ALVITO,-7.9937222975118125,38.25564280660498
pt.ine.add.PTCONT.390090,MTE PEDRAS,,7920-301,VILA NOVA DA BARONIA,-8.10532489135735,38.27941565782781
pt.ine.add.PTCONT.390342,,,7920-201,ALVITO,-7.959721373989601,38.29884902887496
pt.ine.add.PTCONT.390378,R BEJA,29,7920-046,ALVITO,-7.991071159165084,38.25590989465682
pt.ine.add.PTCONT.390379,MTE DA FONTE,,7920-201,ALVITO,-7.949509148718764,38.25942875953273
pt.ine.add.PTCONT.390380,R S MIGUEL,118,7920-030,ALVITO,-7.99618848271496,38.26260057332948
pt.ine.add.PTCONT.390381,PC REPUBLICA,31,7920-028,ALVITO,-7.991698352103836,38.2565232569219
pt.ine.add.PTCONT.390382,R CALÇADA,11,7920-034,ALVITO,-7.992657235741449,38.256956835356824
pt.ine.add.PTCONT.390383,R 1 MAIO,7,7920-013,ALVITO,-7.995719850017767,38.25661812283825
pt.ine.add.PTCONT.390384,MTE TAPADINHA,,7920-201,ALVITO,-8.007375086710143,38.255748317334586
pt.ine.add.PTCONT.390432,R NOVA,32,7920-055,ALVITO,-7.992295452388545,38.25497444490823
pt.ine.add.PTCONT.390433,TV CALDEIROES,1,7920-064,ALVITO,-7.990467742530218,38.25482809528173
pt.ine.add.PTCONT.390434,MTE POMBAL,1,7920-201,ALVITO,-8.000891356889047,38.23997560215782
pt.ine.add.PTCONT.390435,BR CARDOSA,5,7920-352,VILA NOVA DA BARONIA,-8.034974566658374,38.29235966482055
pt.ine.add.PTCONT.390436,AV 1 DE MAIO,46,7920-351,VILA NOVA DA BARONIA,-8.040511070288618,38.289229087234546
pt.ine.add.PTCONT.390462,R MANUEL MARQUES BAIRRO DR TEÓFILO CASACA SIM SIM,23,7920-360,VILA NOVA DA BARONIA,-8.037120923690965,38.28568588451619
pt.ine.add.PTCONT.390463,MTE PRIVANES,,7920-301,VILA NOVA DA BARONIA,-8.03127950565963,38.24533017142351
pt.ine.add.PTCONT.390502,R JOÃO DE DEUS,,7920-379,VILA NOVA DA BARONIA,-8.038627178840471,38.28759698363844
pt.ine.add.PTCONT.390503,MTE SUMARIAS NOVAS,,7920-301,VILA NOVA DA BARONIA,-8.12600184976284,38.25645508942038
pt.ine.add.PTCONT.390862,LG GEN HUMBERTO DELGADO,7,7920-027,ALVITO,-7.9901919033628594,38.25566558700479
pt.ine.add.PTCONT.390867,R GIL VICENTE,2,7920-377,VILA NOVA DA BARONIA,-8.038236421815444,38.28923627874595
pt.ine.add.PTCONT.391138,R LOBOS,25,7920-053,ALVITO,-7.993368414154486,38.25548923452372
pt.ine.add.PTCONT.391139,R NOVA,62,7920-055,ALVITO,-7.991531344260683,38.25427083160973
pt.ine.add.PTCONT.391176,R PINTO DE MELO,27,7920-390,VILA NOVA DA BARONIA,-8.037175060766508,38.28797417693132
pt.ine.add.PTCONT.391210,MTE VALE MARIANAS,,7920-301,VILA NOVA DA BARONIA,-8.050852372091859,38.28190358655206
pt.ine.add.PTCONT.391672,,,7920-201,ALVITO,-7.960030246820802,38.29875939672235
pt.ine.add.PTCONT.391673,LG GEN HUMBERTO DELGADO,34,7920-027,ALVITO,-7.989847612846351,38.25644894104812
pt.ine.add.PTCONT.391949,MTE GREGA DE BAIXO,,7920-201,ALVITO,-8.03197207376485,38.16588962370779
pt.ine.add.PTCONT.391975,R 25 DE ABRIL,69,7920-392,VILA NOVA DA BARONIA,-8.039026359420937,38.28827296812224
pt.ine.add.PTCONT.391981,R OUTEIRO DAS PELES,18,7920-056,ALVITO,-7.991682631202039,38.2587394255019
pt.ine.add.PTCONT.392667,R 1 MAIO,2,7920-013,ALVITO,-7.996142515049974,38.25665465247918
pt.ine.add.PTCONT.392718,R 25 DE ABRIL,3,7920-392,VILA NOVA DA BARONIA,-8.035334820702532,38.28796364891387
pt.ine.add.PTCONT.392719,HRD HERDADE DO OLIVALAO,,7920-301,VILA NOVA DA BARONIA,-8.04308415050124,38.27896099458132
pt.ine.add.PTCONT.392725,R CATARINA EUFEMIA,32,7920-367,VILA NOVA DA BARONIA,-8.038549318875269,38.28593929230726
pt.ine.add.PTCONT.392733,R NOVA,82,7920-055,ALVITO,-7.990881463017894,38.25358536954948
pt.ine.add.PTCONT.392734,R MQ DE POMBAL,10,7920-386,VILA NOVA DA BARONIA,-8.036627535173533,38.28712689607036
pt.ine.add.PTCONT.392740,R MANUEL MARQUES,27,7920-360,VILA NOVA DA BARONIA,-8.03702867792865,38.28629841096123
pt.ine.add.PTCONT.392751,R CALÇADA,14,7920-034,ALVITO,-7.992748516499489,38.25702000682279
pt.ine.add.PTCONT.392759,R D PEDRO V,8,7920-374,VILA NOVA DA BARONIA,-8.040512169118095,38.288364238683585
pt.ine.add.PTCONT.392767,R OUTEIRO DAS PELES,22,7920-056,ALVITO,-7.9919224628911545,38.25879376763372
pt.ine.add.PTCONT.392768,R OUTEIRO DAS PELES,12A,7920-056,ALVITO,-7.9912258900185815,38.258594731919914
pt.ine.add.PTCONT.392769,R ALEXANDRE HERCULANO,7,7920-031,ALVITO,-7.991386669704831,38.25817150831276
pt.ine.add.PTCONT.392772,ESTR HORTAS,3,7920-014,ALVITO,-7.988954117333831,38.257628011888144
pt.ine.add.PTCONT.392773,R CRUZ,21,7920-035,ALVITO,-7.9931412441998395,38.25479527878268
pt.ine.add.PTCONT.392774,R BEJA,61,7920-046,ALVITO,-7.990638940502355,38.25491839220683
pt.ine.add.PTCONT.393478,R ESPÍRITO SANTO,17,7920-048,ALVITO,-7.993456055506904,38.25745327781237
pt.ine.add.PTCONT.393531,R HORTAS,11,7920-042,ALVITO,-7.98856942064275,38.255726662160015
pt.ine.add.PTCONT.393532,TV CANO,,7920-054,ALVITO,-7.993420054691797,38.25835412417656
pt.ine.add.PTCONT.393533,R IGREJAS,9,7920-036,ALVITO,-7.995238408177046,38.25745538532037
pt.ine.add.PTCONT.393561,PC REPUBLICA,33,7920-028,ALVITO,-7.99183554160547,38.256478377683486
pt.ine.add.PTCONT.393562,R NSA SRA ASSUNÇÃO,17,7920-013,ALVITO,-7.995285538990674,38.256698693623306
pt.ine.add.PTCONT.393563,R PENEDO,34,7920-050,ALVITO,-7.991803464332189,38.25534321828936
pt.ine.add.PTCONT.393564,R PENEDO,51,7920-050,ALVITO,-7.991142233747702,38.25461269963898
pt.ine.add.PTCONT.393565,R NOVA,35,7920-055,ALVITO,-7.9918731478007805,38.25475772390989
pt.ine.add.PTCONT.393566,R FRADES FRANCISCANOS,,7920-201,ALVITO,-7.992767098029516,38.25329935488305
pt.ine.add.PTCONT.393567,R INF D HENRIQUE,23,7920-378,VILA NOVA DA BARONIA,-8.038713520378119,38.29153391919586
pt.ine.add.PTCONT.393600,R 5 DE OUTUBRO,19,7920-368,VILA NOVA DA BARONIA,-8.036704363537591,38.2895323217991
pt.ine.add.PTCONT.393601,R PROF EGAS MONIZ,28,7920-391,VILA NOVA DA BARONIA,-8.036190319818967,38.28928865941331
pt.ine.add.PTCONT.393602,R JOAQUIM CORREIA,25,7920-381,VILA NOVA DA BARONIA,-8.038058670761286,38.285299267287414
pt.ine.add.PTCONT.393603,R MANUEL MARQUES BAIRRO DR TEÓFILO CASACA SIM SIM,20,7920-360,VILA NOVA DA BARONIA,-8.037121516881898,38.28523544234972
pt.ine.add.PTCONT.393604,R ALMEIDA GARRETT,3,7920-363,VILA NOVA DA BARONIA,-8.038225789037778,38.28862366849944
pt.ine.add.PTCONT.393638,R ALMEIDA GARRETT,3,7920-363,VILA NOVA DA BARONIA,-8.038225789037778,38.28862366849944
pt.ine.add.PTCONT.394068,R LUIS DE CAMÕES,32,7920-385,VILA NOVA DA BARONIA,-8.039665756782723,38.28881401002385
pt.ine.add.PTCONT.394331,R CRATO,28 30,7920-023,ALVITO,-7.990785443951851,38.25595459297337
pt.ine.add.PTCONT.394332,R CRATO,28 30,7920-023,ALVITO,-7.990785443951851,38.25595459297337
pt.ine.add.PTCONT.394333,R RAUL CARVALHO,3,7920-201,ALVITO,-7.995385339069987,38.25830239372716
pt.ine.add.PTCONT.394334,R NOVA,12,7920-055,ALVITO,-7.992877345659033,38.255380542005106
pt.ine.add.PTCONT.394335,R PENEDO,47,7920-050,ALVITO,-7.991153465853173,38.25471181109192
pt.ine.add.PTCONT.394336,R NOVA,84,7920-055,ALVITO,-7.990835851919948,38.25354026977061
pt.ine.add.PTCONT.394378,R D JOÃO DE CASTRO,13,7920-372,VILA NOVA DA BARONIA,-8.0380905406155,38.28715511659649
pt.ine.add.PTCONT.394379,R JOSE DIAS COELHO,20,7920-383,VILA NOVA DA BARONIA,-8.034410626695296,38.286746680335156
pt.ine.add.PTCONT.394380,R 25 DE ABRIL,105,7920-392,VILA NOVA DA BARONIA,-8.04031799335273,38.28825597908485
pt.ine.add.PTCONT.394874,,,7920-201,ALVITO,-7.959275812944659,38.29873125475727
pt.ine.add.PTCONT.394875,AV BOMBEIROS VOLUNTARIOS,29,7920-011,ALVITO,-7.994035433467765,38.25919268192052
pt.ine.add.PTCONT.394899,R JOSE DIAS COELHO,8,7920-383,VILA NOVA DA BARONIA,-8.034501603100146,38.28708909315662
pt.ine.add.PTCONT.394905,MTE PALMEIRA,,7920-301,VILA NOVA DA BARONIA,-8.061937346828183,38.27157766291299
pt.ine.add.PTCONT.395152,LG GEN HUMBERTO DELGADO,11,7920-027,ALVITO,-7.990817523193999,38.257080743624925
pt.ine.add.PTCONT.395153,R MESTRE DE AVIZ,17,7920-387,VILA NOVA DA BARONIA,-8.039267727265486,38.28723714372054
pt.ine.add.PTCONT.395155,TV IRIA,4,7920-059,ALVITO,-7.991278071671896,38.25526150443213
pt.ine.add.PTCONT.395156,R PENEDO,44,7920-050,ALVITO,-7.9915186433262475,38.25492846576958
pt.ine.add.PTCONT.395160,R PENEDO,68A,7920-050,ALVITO,-7.990971772892968,38.25414403064606
pt.ine.add.PTCONT.395167,R JOAQUIM CORREIA,8,7920-381,VILA NOVA DA BARONIA,-8.038148383177774,38.28662364122447
pt.ine.add.PTCONT.395170,QTA BEIRA B,,7920-301,VILA NOVA DA BARONIA,-8.015156684198042,38.2691976557851
pt.ine.add.PTCONT.395173,HORTA DA VALADA,,7920-301,VILA NOVA DA BARONIA,-8.03849221120914,38.27710155540716
pt.ine.add.PTCONT.395183,R LUIS DE CAMÕES,38,7920-385,VILA NOVA DA BARONIA,-8.039768813825006,38.28866995048915
pt.ine.add.PTCONT.395189,R PARREIRA,9,7920-039,ALVITO,-7.992863756211073,38.25650663765091
pt.ine.add.PTCONT.395190,R MISERICÓRDIA,19,7920-038,ALVITO,-7.993252609786932,38.2562998971395
pt.ine.add.PTCONT.395191,R 5 DE OUTUBRO,25,7920-368,VILA NOVA DA BARONIA,-8.036715901160601,38.28945125165784
pt.ine.add.PTCONT.395723,R 25 DE ABRIL,56,7920-392,VILA NOVA DA BARONIA,-8.03766596682506,38.28842501975326
pt.ine.add.PTCONT.395735,MTE DOS CABACOS,,7920-301,VILA NOVA DA BARONIA,-8.015418630325565,38.290981341814756
pt.ine.add.PTCONT.395938,R ESPÍRITO SANTO,9,7920-048,ALVITO,-7.993010190592487,38.257596888657794
pt.ine.add.PTCONT.395963,R OUTEIRO DAS PELES,24,7920-056,ALVITO,-7.9920252405444545,38.258820917912935
pt.ine.add.PTCONT.395964,ESTR HORTAS,18,7920-014,ALVITO,-7.988088547357257,38.25623957589932
pt.ine.add.PTCONT.395965,MTE DA CAVALEIRA,,7920-201,ALVITO,-7.941153771074669,38.27367643607412
pt.ine.add.PTCONT.395966,R DR LUIS CERQUEIRA,233,7920-072,ALVITO,-7.995584867154669,38.26155483672136
pt.ine.add.PTCONT.395967,R CALÇADA,16,7920-034,ALVITO,-7.992862873086585,38.25696609018241
pt.ine.add.PTCONT.395997,BR CARDOSA,6,7920-352,VILA NOVA DA BARONIA,-8.035855100905657,38.292090132780885
pt.ine.add.PTCONT.396034,MTE DA FONTE SANTA,,7920-301,VILA NOVA DA BARONIA,-8.009756554933814,38.28654317302699
pt.ine.add.PTCONT.396035,R MQ DE POMBAL,14,7920-386,VILA NOVA DA BARONIA,-8.036398875306645,38.28717175206202
pt.ine.add.PTCONT.396036,QTA BEIRA C,,7920-301,VILA NOVA DA BARONIA,-8.01562808665039,38.26740536197861
pt.ine.add.PTCONT.396037,MTE BARÃO,,7920-301,VILA NOVA DA BARONIA,-8.051550670423518,38.270688033411304
pt.ine.add.PTCONT.396038,R LUIS CAMOES,26,7920-385,VILA NOVA DA BARONIA,-8.039425524235286,38.28896696885634
pt.ine.add.PTCONT.396064,R JOÃO DE DEUS,42 A,7920-379,VILA NOVA DA BARONIA,-8.03807837058851,38.28772266429274
pt.ine.add.PTCONT.396530,R INF D HENRIQUE,19,7920-378,VILA NOVA DA BARONIA,-8.03870227641606,38.291389768646184
pt.ine.add.PTCONT.396711,R CALÇADA,16,7920-034,ALVITO,-7.992862873086585,38.25696609018241
pt.ine.add.PTCONT.396771,R HORTAS,15,7920-042,ALVITO,-7.9882950760665805,38.25579839510296
pt.ine.add.PTCONT.396772,LG JOÃO FERREIRA DA SILVEIRA,9,7920-062,ALVITO,-7.991991939690745,38.25831637997898
pt.ine.add.PTCONT.396773,R CONDE FERREIRA,8,7920-033,ALVITO,-7.993435739947667,38.256128946241795
pt.ine.add.PTCONT.396774,MOINHO DAS CABRAS,,7920-201,ALVITO,-8.003937807101325,38.267708386427294
pt.ine.add.PTCONT.396775,R 5 DE OUTUBRO,24,7920-368,VILA NOVA DA BARONIA,-8.036875617040703,38.28968561278713
pt.ine.add.PTCONT.396796,QTA ESTRADA VELHA,,7920-301,VILA NOVA DA BARONIA,-8.034418701507924,38.280782824802564
pt.ine.add.PTCONT.396797,R LUIS DE CAMÕES,16,7920-385,VILA NOVA DA BARONIA,-8.039059382790986,38.289254959038786
pt.ine.add.PTCONT.396798,R 5 DE OUTUBRO,50,7920-368,VILA NOVA DA BARONIA,-8.03691108551559,38.28879376600139
pt.ine.add.PTCONT.397309,ESTR S ROMÃO,2,7920-015,ALVITO,-7.988678606794727,38.258285322217354
pt.ine.add.PTCONT.397310,LG GEN HUMBERTO DELGADO,28,7920-027,ALVITO,-7.989949944527531,38.25670131495381
pt.ine.add.PTCONT.397311,LG D DINIS,2A,7920-024,ALVITO,-7.9883511290756966,38.256338997926534
pt.ine.add.PTCONT.397330,LG GEN HUMBERTO DELGADO,43,7920-027,ALVITO,-7.990385089634073,38.25619734690963
pt.ine.add.PTCONT.397608,R VASCO DA GAMA,3,7920-058,ALVITO,-7.988863640581994,38.25715943830359
pt.ine.add.PTCONT.397609,LG GEN HUMBERTO DELGADO,24,7920-027,ALVITO,-7.990052188597123,38.256998733119325
pt.ine.add.PTCONT.397610,LG GEN HUMBERTO DELGADO,5 7,7920-027,ALVITO,-7.990726402258284,38.25693649081307
pt.ine.add.PTCONT.397611,LG GEN HUMBERTO DELGADO,5 7,7920-027,ALVITO,-7.990726402258284,38.25693649081307
pt.ine.add.PTCONT.397612,LG GEN HUMBERTO DELGADO,5 7,7920-027,ALVITO,-7.990726402258284,38.25693649081307
pt.ine.add.PTCONT.397613,R SALVADOR,16A,7920-051,ALVITO,-7.991573269167103,38.256216803724705
pt.ine.add.PTCONT.397614,AV BOMBEIROS VOLUNTARIOS,30,7920-011,ALVITO,-7.994012994464826,38.25897644195735
pt.ine.add.PTCONT.397615,R 5 DE OUTUBRO,20,7920-368,VILA NOVA DA BARONIA,-8.036852470655306,38.28990180611143
pt.ine.add.PTCONT.397616,R 5 DE OUTUBRO,27,7920-368,VILA NOVA DA BARONIA,-8.03672742684359,38.28937919035149
pt.ine.add.PTCONT.397617,R PINTO DE MELO,91,7920-390,VILA NOVA DA BARONIA,-8.040204081973044,38.28794958806599
pt.ine.add.PTCONT.397618,R PINTO DE MELO,53,7920-390,VILA NOVA DA BARONIA,-8.038398155805396,38.287921117566235
pt.ine.add.PTCONT.398110,R ALMEIDA GARRETT,1,7920-032,ALVITO,-7.993042927444236,38.25839871911768
pt.ine.add.PTCONT.398777,ESTR S ROMÃO,16,7920-015,ALVITO,-7.987913423369688,38.25812221793762
pt.ine.add.PTCONT.398778,R RAINHA SANTA ISABEL,2,7920-024,ALVITO,-7.988316281519095,38.256627239539036
pt.ine.add.PTCONT.398808,R PENEDO,19,7920-050,ALVITO,-7.991757450175357,38.255505322999376
pt.ine.add.PTCONT.398809,R ALMEIDA GARRETT,21,7920-032,ALVITO,-7.9935217636562665,38.25893982311452
pt.ine.add.PTCONT.398810,R NOVA,17,7920-055,ALVITO,-7.992375096894698,38.25514570947736
pt.ine.add.PTCONT.398811,MTE CATACUZES,,7920-201,ALVITO,-8.011150989992174,38.25922072638182
pt.ine.add.PTCONT.398844,R CRUZ,65,7920-035,ALVITO,-7.992103143229069,38.253983235301725
pt.ine.add.PTCONT.398845,R INF D HENRIQUE,27,7920-378,VILA NOVA DA BARONIA,-8.03873620677033,38.29166907010225
pt.ine.add.PTCONT.398846,R INF D HENRIQUE,20,7920-378,VILA NOVA DA BARONIA,-8.03857704151138,38.2910022874993
pt.ine.add.PTCONT.398884,R CATARINA EUFEMIA,11,7920-367,VILA NOVA DA BARONIA,-8.038388739449163,38.286371587675255
pt.ine.add.PTCONT.398885,R MANUEL MARQUES,25,7920-360,VILA NOVA DA BARONIA,-8.037074753525788,38.28602818312592
pt.ine.add.PTCONT.398886,MTE TRIGACHEIRO,,7920-301,VILA NOVA DA BARONIA,-8.038063945032537,38.281254295012
pt.ine.add.PTCONT.398887,R LUIS DE CAMÕES,7,7920-385,VILA NOVA DA BARONIA,-8.038762158977901,38.28928174693998
pt.ine.add.PTCONT.398888,R PINTO DE MELO,79,7920-390,VILA NOVA DA BARONIA,-8.039415402660177,38.28794896088628
pt.ine.add.PTCONT.398930,R SALVADOR,16,7920-051,ALVITO,-7.99163046475187,38.25618083711355
pt.ine.add.PTCONT.399099,R PENEDO,15,7920-050,ALVITO,-7.991848571373569,38.25564957504643
pt.ine.add.PTCONT.399573,R OUTEIRO DAS PELES,32,7920-056,ALVITO,-7.992436351925101,38.25892951812985
pt.ine.add.PTCONT.399604,R CALÇADA,4,7920-034,ALVITO,-7.9923940551802355,38.2571637246266
pt.ine.add.PTCONT.399605,R LOBOS,20,7920-053,ALVITO,-7.993516853364396,38.25553445566312
pt.ine.add.PTCONT.399636,R PENEDO,37,7920-050,ALVITO,-7.991427156338778,38.25497339983644
pt.ine.add.PTCONT.399637,R NOVA,57,7920-055,ALVITO,-7.990949414680007,38.25389175442423
pt.ine.add.PTCONT.399638,R CUSTÓDIO SANTOS COELHO,6,7920-369,VILA NOVA DA BARONIA,-8.038188647076522,38.290812788166626
pt.ine.add.PTCONT.399639,R PROF EGAS MONIZ,12,7920-391,VILA NOVA DA BARONIA,-8.03626964989142,38.28980222918163
pt.ine.add.PTCONT.399640,R PROF EGAS MONIZ,14,7920-391,VILA NOVA DA BARONIA,-8.036235550220285,38.289658059487785
pt.ine.add.PTCONT.399641,R PINTO DE MELO,17,7920-390,VILA NOVA DA BARONIA,-8.036614995938113,38.28796470878896
pt.ine.add.PTCONT.399642,R CATARINA EUFEMIA,24,7920-367,VILA NOVA DA BARONIA,-8.038560526657843,38.28611046953259
pt.ine.add.PTCONT.399667,AV 1 DE MAIO,53,7920-351,VILA NOVA DA BARONIA,-8.03968777431476,38.28947167342714
pt.ine.add.PTCONT.399668,R LUIS DE CAMÕES,3,7920-385,VILA NOVA DA BARONIA,-8.038659145781502,38.28938977022105
pt.ine.add.PTCONT.399669,TV S SEBASTIÃO,1,7920-395,VILA NOVA DA BARONIA,-8.039013452065209,38.28941708145961
pt.ine.add.PTCONT.399670,R D PEDRO V,,7920-374,VILA NOVA DA BARONIA,-8.04059280949271,38.28786881559708
pt.ine.add.PTCONT.399671,R JOÃO DE DEUS,67,7920-379,VILA NOVA DA BARONIA,-8.038832943575574,38.28757913146165
pt.ine.add.PTCONT.399672,MTE SOBRAL,,7920-301,VILA NOVA DA BARONIA,-8.039573786361466,38.28031858688535
pt.ine.add.PTCONT.399673,MTE RIO SECO,,7920-301,VILA NOVA DA BARONIA,-8.095858032455732,38.242107205893106
pt.ine.add.PTCONT.399674,MTE RIO SECO,,7920-301,VILA NOVA DA BARONIA,-8.095858032455732,38.242107205893106
pt.ine.add.PTCONT.399675,MTE RIO SECO,,7920-301,VILA NOVA DA BARONIA,-8.095858032455732,38.242107205893106
pt.ine.add.PTCONT.399733,R INF D HENRIQUE,5,7920-378,VILA NOVA DA BARONIA,-8.038886355301178,38.29047101446638
pt.ine.add.PTCONT.399968,,,7920-201,ALVITO,-7.960395380793382,38.29904821728101
pt.ine.add.PTCONT.399997,QTA FREIXOS,,7920-201,ALVITO,-7.983089558150553,38.25369278334324
pt.ine.add.PTCONT.399998,R CALÇADA,32,7920-034,ALVITO,-7.993285918482384,38.25680443490454
pt.ine.add.PTCONT.399999,R PARREIRA,12,7920-039,ALVITO,-7.992874956309667,38.25662376665881
pt.ine.add.PTCONT.400030,SIT MESAS,S N,7920-201,ALVITO,-7.992721504695227,38.25541558406831
pt.ine.add.PTCONT.400031,R NOVA,7,7920-055,ALVITO,-7.992721504695227,38.25541558406831
pt.ine.add.PTCONT.400032,R CRUZ,23,7920-035,ALVITO,-7.9930499140023095,38.254759134231804
pt.ine.add.PTCONT.400033,TAPADA D MARIA JOSE PAVANITO,FRACCAO G,7920-201,ALVITO,-7.990312007050838,38.25267477921333
pt.ine.add.PTCONT.400034,VALE DOS LAMEIROS,,7920-201,ALVITO,-7.9998536472109345,38.23275827900949
pt.ine.add.PTCONT.400035,BR CARDOSA,10,7920-352,VILA NOVA DA BARONIA,-8.034369221211977,38.291998803204244
pt.ine.add.PTCONT.400056,,,7920-301,VILA NOVA DA BARONIA,-8.124064236378405,38.31089548936269
pt.ine.add.PTCONT.400057,MTE DA BOAVISTA,,7920-301,VILA NOVA DA BARONIA,-8.049345799891343,38.29003751488694
pt.ine.add.PTCONT.400058,R PINTO DE MELO,15,7920-390,VILA NOVA DA BARONIA,-8.036466392220428,38.287973595323635
pt.ine.add.PTCONT.400059,R JOÃO DE DEUS,20,7920-379,VILA NOVA DA BARONIA,-8.036741060969632,38.287712564622645
pt.ine.add.PTCONT.400060,R JOÃO DE DEUS,27,7920-379,VILA NOVA DA BARONIA,-8.036752633990329,38.287604467932404
pt.ine.add.PTCONT.400078,R LUIS DE CAMÕES,50,7920-385,VILA NOVA DA BARONIA,-8.040134961019216,38.28837294921696
pt.ine.add.PTCONT.400079,LG FRANCISCO MANUEL FIALHO,3,7920-355,VILA NOVA DA BARONIA,-8.037722716983419,38.28873136674729
pt.ine.add.PTCONT.400080,LG PROF ABEL SALAZAR,1,7920-358,VILA NOVA DA BARONIA,-8.03915187079501,38.28844423682882
pt.ine.add.PTCONT.400081,LG PROF ABEL SALAZAR,1,7920-358,VILA NOVA DA BARONIA,-8.03915187079501,38.28844423682882
pt.ine.add.PTCONT.400522,R MQ DE POMBAL,1,7920-386,VILA NOVA DA BARONIA,-8.036981580165751,38.28734339909064
pt.ine.add.PTCONT.400526,LG PROF ABEL SALAZAR,1,7920-358,VILA NOVA DA BARONIA,-8.03915187079501,38.28844423682882
pt.ine.add.PTCONT.400551,R STA ÁGUEDA,,7920-353,VILA NOVA DA BARONIA,-8.037915442781308,38.28994771763956
pt.ine.add.PTCONT.400816,R S SEBASTIAO,5,7920-046,ALVITO,-7.990706013286209,38.25567522086811
pt.ine.add.PTCONT.400817,ESTR S ROMÃO,,7920-201,ALVITO,-7.98439534338234,38.25764935006838
pt.ine.add.PTCONT.400818,R ALEXANDRE HERCULANO,1,7920-031,ALVITO,-7.991866294385521,38.25829821103937
pt.ine.add.PTCONT.400819,MTE CATACUZES,,7920-201,ALVITO,-8.011025639800948,38.259022400425984
pt.ine.add.PTCONT.400820,TV SANTO ANTÓNIO,3,7920-035,ALVITO,-7.991280575660919,38.253973235190706
pt.ine.add.PTCONT.400821,BR CARDOSA,,7920-352,VILA NOVA DA BARONIA,-8.035523765030394,38.291972742691044
pt.ine.add.PTCONT.400822,R 5 DE OUTUBRO,D8,7920-368,VILA NOVA DA BARONIA,-8.036887309126115,38.28948742775021
pt.ine.add.PTCONT.400823,R MQ DE POMBAL,12,7920-386,VILA NOVA DA BARONIA,-8.036467503159521,38.28713577320998
pt.ine.add.PTCONT.400824,R JOAQUIM CORREIA,36,7920-381,VILA NOVA DA BARONIA,-8.038229612291467,38.28568678632998
pt.ine.add.PTCONT.400825,MTE PEREIRAS,,7920-301,VILA NOVA DA BARONIA,-8.049258033221246,38.247083113539595
pt.ine.add.PTCONT.400826,AV 1 DE MAIO,57,7920-351,VILA NOVA DA BARONIA,-8.039790716891403,38.28941770227044
pt.ine.add.PTCONT.400827,R JOÃO DE DEUS,53,7920-379,VILA NOVA DA BARONIA,-8.038307136621224,38.28759672547031
pt.ine.add.PTCONT.400828,R D JOÃO DE CASTRO,16,7920-372,VILA NOVA DA BARONIA,-8.038216446661435,38.287020085738256
pt.ine.add.PTCONT.401563,LG GEN HUMBERTO DELGADO,31,7920-027,ALVITO,-7.989904508879037,38.256566126112155
pt.ine.add.PTCONT.401564,LG GEN HUMBERTO DELGADO,30,7920-027,ALVITO,-7.989904508879037,38.256566126112155
pt.ine.add.PTCONT.401565,MTE CABREIROS B,,7920-301,VILA NOVA DA BARONIA,-8.076529592670886,38.25784705384534
pt.ine.add.PTCONT.401572,R CRUZ,73,7920-035,ALVITO,-7.991909200664247,38.25383885974595
pt.ine.add.PTCONT.401573,R D JOÃO DE CASTRO,33,7920-372,VILA NOVA DA BARONIA,-8.038067375157684,38.28738932794098
pt.ine.add.PTCONT.401574,R D JOÃO DE CASTRO,33,7920-372,VILA NOVA DA BARONIA,-8.038067375157684,38.28738932794098
pt.ine.add.PTCONT.401583,HORTA DA CANCELA,,7920-201,ALVITO,-8.005764346965702,38.24253952337012
pt.ine.add.PTCONT.401589,R CATARINA EUFEMIA,1,7920-367,VILA NOVA DA BARONIA,-8.038388329682128,38.28668689714582
pt.ine.add.PTCONT.401592,R DR ERNESTO GOIS,1,7920-201,ALVITO,-7.99597963289205,38.25821300076313
pt.ine.add.PTCONT.401601,BR CARDOSA,13,7920-352,VILA NOVA DA BARONIA,-8.034266649784216,38.291773495758285
pt.ine.add.PTCONT.401604,LG S PEDRO,,7920-301,VILA NOVA DA BARONIA,-8.034929668715272,38.291747025949135
pt.ine.add.PTCONT.401610,R LIBERDADE,12,7920-370,VILA NOVA DA BARONIA,-8.038224721711188,38.28944347276816
pt.ine.add.PTCONT.401614,HORTA DA PARREIRA,,7920-201,ALVITO,-7.987201965364643,38.259661855714576
pt.ine.add.PTCONT.402561,MTE BARRANCO DAS VINHAS,,7920-201,ALVITO,-8.010948584336097,38.24362610377545
pt.ine.add.PTCONT.402562,R NOVA,33,7920-055,ALVITO,-7.9918843983568175,38.25484782641669
pt.ine.add.PTCONT.402563,TAPADA D MARIA JOSE PAVANITO,,7920-201,ALVITO,-7.9890528406248915,38.2481327531053
pt.ine.add.PTCONT.402585,R INF D HENRIQUE,28,7920-378,VILA NOVA DA BARONIA,-8.038542235286693,38.29139864859751
pt.ine.add.PTCONT.402586,AV 1 DE MAIO,76,7920-351,VILA NOVA DA BARONIA,-8.041745828940481,38.28900483408831
pt.ine.add.PTCONT.402587,R D JOÃO DE CASTRO,17,7920-372,VILA NOVA DA BARONIA,-8.038090646317817,38.28707403702715
pt.ine.add.PTCONT.402588,LG GEN HUMBERTO DELGADO,16,7920-356,VILA NOVA DA BARONIA,-8.03597568872813,38.28737860602216
pt.ine.add.PTCONT.402589,R MANUEL MARQUES,28,7920-360,VILA NOVA DA BARONIA,-8.036994257624526,38.28639748013694
pt.ine.add.PTCONT.402619,R 25 DE ABRIL,83,7920-392,VILA NOVA DA BARONIA,-8.039563566581036,38.28828240653137
pt.ine.add.PTCONT.402620,R PINTO DE MELO,73,7920-390,VILA NOVA DA BARONIA,-8.039015371207132,38.28793062304493
pt.ine.add.PTCONT.403245,R BEJA,44,7920-046,ALVITO,-7.990901064472477,38.25525203929402
pt.ine.add.PTCONT.403246,R JOÃO DE DEUS,18,7920-379,VILA NOVA DA BARONIA,-8.036661062213607,38.28770349003627
pt.ine.add.PTCONT.403250,R JOSE DIAS COELHO,95,7920-383,VILA NOVA DA BARONIA,-8.034273357413511,38.28682764443594
pt.ine.add.PTCONT.403257,MTE DA CAVALEIRA,,7920-201,ALVITO,-7.943409572287766,38.26315774384492
pt.ine.add.PTCONT.403258,TAPADA D MARIA JOSE PAVANITO,FRACCAO C,7920-201,ALVITO,-7.990586003605207,38.2527742101818
pt.ine.add.PTCONT.403262,MTE CHOURICO,,7920-201,ALVITO,-7.977781212841313,38.19265028162186
pt.ine.add.PTCONT.403266,HRD MELHEIRAS,,7920-201,ALVITO,-8.05505999350755,38.216240515637885
pt.ine.add.PTCONT.403280,R 1 MAIO,20,7920-013,ALVITO,-7.995480651357985,38.25623046009166
pt.ine.add.PTCONT.403286,R 25 DE ABRIL,45,7920-392,VILA NOVA DA BARONIA,-8.03805479367407,38.28827218499393
pt.ine.add.PTCONT.403863,R JOSE DIAS COELHO,95,7920-383,VILA NOVA DA BARONIA,-8.034273357413511,38.28682764443594
pt.ine.add.PTCONT.404110,HORTA DA FONTE DA TELHA,,7920-201,ALVITO,-7.993382413806528,38.242210123689624
pt.ine.add.PTCONT.404111,AV 1 DE MAIO,26,7920-351,VILA NOVA DA BARONIA,-8.038589430259973,38.29026357217752
pt.ine.add.PTCONT.404112,,,7920-301,VILA NOVA DA BARONIA,-8.113460131319345,38.28711086798654
pt.ine.add.PTCONT.404113,R CATARINA EUFEMIA,43,7920-367,VILA NOVA DA BARONIA,-8.038470573428535,38.28496627267728
pt.ine.add.PTCONT.404114,R CATARINA EUFEMIA,25,7920-367,VILA NOVA DA BARONIA,-8.038458605636922,38.2853806702869
pt.ine.add.PTCONT.404115,R JOAQUIM CORREIA,48,7920-381,VILA NOVA DA BARONIA,-8.038264464313057,38.28525438956065
pt.ine.add.PTCONT.404116,QTA BICA,,7920-301,VILA NOVA DA BARONIA,-8.038076724655921,38.28021828642153
pt.ine.add.PTCONT.404158,R LATINO COELHO,3,7920-384,VILA NOVA DA BARONIA,-8.03805378318783,38.28904694511775
pt.ine.add.PTCONT.404641,R RAINHA SANTA ISABEL,11,7920-024,ALVITO,-7.988156221264279,38.25668109530661
pt.ine.add.PTCONT.404691,MTE GUARDA SOBRAL,,7920-301,VILA NOVA DA BARONIA,-8.04183078024611,38.27593304736381
pt.ine.add.PTCONT.404982,ESTR HORTAS,16,7920-014,ALVITO,-7.988133943637703,38.25639278318824
pt.ine.add.PTCONT.404983,R CALÇADA,19,7920-034,ALVITO,-7.993011712836311,38.25680410787697
pt.ine.add.PTCONT.405031,R CRUZ,8,7920-035,ALVITO,-7.993666136354731,38.255138241710576
pt.ine.add.PTCONT.405032,R PENEDO,71,7920-050,ALVITO,-7.9907319220348745,38.25410770431226
pt.ine.add.PTCONT.405033,HRD BENTO DA SERRA,,7920-201,ALVITO,-7.965688683134335,38.22920103708348
pt.ine.add.PTCONT.405034,HORTA DOS MOINHOS,,7920-201,ALVITO,-8.026112521581911,38.23218155426034
pt.ine.add.PTCONT.405035,HORTA DOS MOINHOS,,7920-201,ALVITO,-8.026112521581911,38.23218155426034
pt.ine.add.PTCONT.405036,R CUSTÓDIO SANTOS COELHO,3,7920-369,VILA NOVA DA BARONIA,-8.038063039903884,38.290713589180854
pt.ine.add.PTCONT.405071,HORTA DA COSTA,,7920-301,VILA NOVA DA BARONIA,-8.025499891227392,38.29135137543381
pt.ine.add.PTCONT.405072,LG GEN HUMBERTO DELGADO,3,7920-356,VILA NOVA DA BARONIA,-8.035507117241249,38.28733317290443
pt.ine.add.PTCONT.405717,R NSA SRA ASSUNÇAO,25,7920-013,ALVITO,-7.995159299494294,38.256995838794886
pt.ine.add.PTCONT.405749,MTE DOS CABACOS,,7920-301,VILA NOVA DA BARONIA,-8.017759693492776,38.29238003742746
pt.ine.add.PTCONT.405753,R MESTRE DE AVIZ,43,7920-387,VILA NOVA DA BARONIA,-8.040238693804428,38.28769736768037
pt.ine.add.PTCONT.405755,R D JOÃO DE CASTRO,19,7920-372,VILA NOVA DA BARONIA,-8.03806788030341,38.287001947782
pt.ine.add.PTCONT.405759,R S LUZIA,3,7920-047,ALVITO,-7.990603715604352,38.2554048298265
pt.ine.add.PTCONT.405760,R NOVA,66,7920-055,ALVITO,-7.991440137952258,38.25417162366994
pt.ine.add.PTCONT.405763,HRD SESMARIAS,,7920-201,ALVITO,-7.99765337383167,38.292097289468806
pt.ine.add.PTCONT.405764,R 5 OUTUBRO,69A,7920-368,VILA NOVA DA BARONIA,-8.037118942337285,38.28719036110077
pt.ine.add.PTCONT.405798,R PARREIRA,13,7920-039,ALVITO,-7.9930350129757075,38.256569904447716
pt.ine.add.PTCONT.405782,R INF D HENRIQUE,7,7920-378,VILA NOVA DA BARONIA,-8.038863424337324,38.29052504912025
pt.ine.add.PTCONT.405794,R 25 DE ABRIL,14,7920-392,VILA NOVA DA BARONIA,-8.036180219436652,38.28828866895728
pt.ine.add.PTCONT.405804,R 5 DE OUTUBRO,33,7920-368,VILA NOVA DA BARONIA,-8.036750549608163,38.28918101470784
pt.ine.add.PTCONT.405805,R 25 DE ABRIL,55,7920-392,VILA NOVA DA BARONIA,-8.038512001079662,38.2882725545271
pt.ine.add.PTCONT.406309,R MQ DE POMBAL,13,7920-386,VILA NOVA DA BARONIA,-8.03647874206239,38.28727992407194
pt.ine.add.PTCONT.406332,TV OLIVEIRA,3,7920-060,ALVITO,-7.992881706657767,38.25905617560959
pt.ine.add.PTCONT.406732,TV NORTE,5,7920-063,ALVITO,-7.991671799456721,38.258433110156716
pt.ine.add.PTCONT.406733,R CRUZ,25,7920-035,ALVITO,-7.99303859284707,38.25470506733816
pt.ine.add.PTCONT.406734,R NOVA,43,7920-055,ALVITO,-7.991542437021317,38.254442014042084
pt.ine.add.PTCONT.406735,BR CARDOSA,11,7920-352,VILA NOVA DA BARONIA,-8.034277836156289,38.29195368204229
pt.ine.add.PTCONT.406736,R INF D HENRIQUE,6,7920-378,VILA NOVA DA BARONIA,-8.038760654459354,38.29044388691048
pt.ine.add.PTCONT.406779,R CATARINA EUFEMIA,46,7920-367,VILA NOVA DA BARONIA,-8.038630542055097,38.285002437017944
pt.ine.add.PTCONT.406780,R LATINO COELHO,3,7920-384,VILA NOVA DA BARONIA,-8.03500448665174,38.2871165412864
pt.ine.add.PTCONT.406781,MTE LINHA,,7920-301,VILA NOVA DA BARONIA,-8.030851094308765,38.282032001129956
pt.ine.add.PTCONT.406782,R PINTO DE MELO,81,7920-390,VILA NOVA DA BARONIA,-8.039575436109272,38.28794007972872
pt.ine.add.PTCONT.407379,R VASCO DA GAMA,,7920-058,ALVITO,-7.9885793289144695,38.25649243038968
pt.ine.add.PTCONT.407380,R PULA,13,7920-201,ALVITO,-7.995350314211751,38.258698743837336
pt.ine.add.PTCONT.407381,R PULA,11,7920-201,ALVITO,-7.995350314211751,38.258698743837336
pt.ine.add.PTCONT.407382,R PULA,13,7920-201,ALVITO,-7.995350314211751,38.258698743837336
pt.ine.add.PTCONT.407383,R OUTEIRO DAS PELES,44,7920-056,ALVITO,-7.993086952277985,38.25927263404866
pt.ine.add.PTCONT.407384,R MANHAS,11,7920-043,ALVITO,-7.992898724239942,38.256146323654875
pt.ine.add.PTCONT.407412,R MANHAS,11,7920-043,ALVITO,-7.992898724239942,38.256146323654875
pt.ine.add.PTCONT.407413,MTE ZAMBUJEIRINHO,,7920-201,ALVITO,-8.015249630520474,38.26117984355342
pt.ine.add.PTCONT.407414,R PROF EGAS MONIZ,45 A,7920-391,VILA NOVA DA BARONIA,-8.035962829736599,38.288450648428565
pt.ine.add.PTCONT.407415,R PROF EGAS MONIZ,29,7920-391,VILA NOVA DA BARONIA,-8.036030739013299,38.288955200125876
pt.ine.add.PTCONT.407416,HORTA DA FONTINHA,,7920-301,VILA NOVA DA BARONIA,-8.034245890460795,38.29022395704189
pt.ine.add.PTCONT.407444,R CATARINA EUFEMIA,4,7920-367,VILA NOVA DA BARONIA,-8.03853704744003,38.286587919752186
pt.ine.add.PTCONT.407445,R CATARINA EUFEMIA,19,7920-367,VILA NOVA DA BARONIA,-8.038548711117745,38.28640775212278
pt.ine.add.PTCONT.407446,R TULIO ESPANCA,,7920-360,VILA NOVA DA BARONIA,-8.037497680977797,38.28601051083659
pt.ine.add.PTCONT.407447,R LUIS DE CAMÕES,22,7920-385,VILA NOVA DA BARONIA,-8.039231011953301,38.28911996378528
pt.ine.add.PTCONT.407478,R ALMEIDA GARRETT,5,7920-363,VILA NOVA DA BARONIA,-8.038328708063537,38.28858771629523
pt.ine.add.PTCONT.407479,R PINTO DE MELO,12,7920-390,VILA NOVA DA BARONIA,-8.036420492396955,38.28810869024113
pt.ine.add.PTCONT.407899,SIT SITIO DAS MESAS,,7920-201,ALVITO,-7.983130682801721,38.26147651828545
pt.ine.add.PTCONT.407909,R CRUZ,20,7920-035,ALVITO,-7.9932784123033835,38.25475940671265
pt.ine.add.PTCONT.407927,R OUTEIRO DAS PELES,44,7920-056,ALVITO,-7.993086952277985,38.25927263404866
pt.ine.add.PTCONT.408081,R ESPÍRITO SANTO,13,7920-048,ALVITO,-7.9932616866389905,38.25752511748961
pt.ine.add.PTCONT.408585,ESTR S ROMÃO HORTA SRA DA GRAÇA,,7920-015,ALVITO,-7.987536833252998,38.25789652910743
pt.ine.add.PTCONT.408613,AV BOMBEIROS VOLUNTARIOS,14,7920-011,ALVITO,-7.993900320127022,38.25814749036565
pt.ine.add.PTCONT.408614,R CALÇADA,8,7920-034,ALVITO,-7.99251982017775,38.25711883089437
pt.ine.add.PTCONT.408615,TV VIDROS,8,7920-065,ALVITO,-7.992087104587955,38.2563705735201
pt.ine.add.PTCONT.408616,TV VIDROS,8,7920-065,ALVITO,-7.992087104587955,38.2563705735201
pt.ine.add.PTCONT.408617,R LOBOS,4,7920-053,ALVITO,-7.992842187403409,38.25583995366317
pt.ine.add.PTCONT.408618,R LOBOS,6,7920-053,ALVITO,-7.992945082382706,38.25580404102111
pt.ine.add.PTCONT.408654,R 5 DE OUTUBRO,38,7920-368,VILA NOVA DA BARONIA,-8.036910621754325,38.28914511067837
pt.ine.add.PTCONT.408655,R LUIS DE CAMÕES,4,7920-385,VILA NOVA DA BARONIA,-8.038761774109313,38.289579038582296
pt.ine.add.PTCONT.408704,R LOBOS,6,7920-053,ALVITO,-7.992945082382706,38.25580404102111
pt.ine.add.PTCONT.408885,R PARREIRA,18,7920-039,ALVITO,-7.9935141646527335,38.25693984003622
pt.ine.add.PTCONT.408913,R FÁBRICAS,2,7920-040,ALVITO,-7.989731130496638,38.257583919328944
pt.ine.add.PTCONT.408917,R CRATO,12 14,7920-023,ALVITO,-7.991138184724559,38.25669374957118
pt.ine.add.PTCONT.408923,HORTA DA FUNCHEIRA,,7920-201,ALVITO,-7.993726875220914,38.247264533120884
pt.ine.add.PTCONT.408928,R JOAQUIM CORREIA,30,7920-381,VILA NOVA DA BARONIA,-8.03821791275882,38.285893980477894
pt.ine.add.PTCONT.408931,R JOAQUIM CORREIA,27,7920-381,VILA NOVA DA BARONIA,-8.038058799987688,38.28520017000452
pt.ine.add.PTCONT.408932,R C BR DR TEÓFILO CASACA SIM-SIM,9,7920-360,VILA NOVA DA BARONIA,-8.037692565966772,38.28556923571513
pt.ine.add.PTCONT.408949,,,7920-201,ALVITO,-7.959207114691617,38.298776197069785
pt.ine.add.PTCONT.408951,R LOBOS,28,7920-053,ALVITO,-7.993688418263101,38.255435561757565
pt.ine.add.PTCONT.408952,R 5 OUTUBRO,13,7920-368,VILA NOVA DA BARONIA,-8.036738976329042,38.28928911136842
pt.ine.add.PTCONT.408960,R CRUZ,35,7920-035,ALVITO,-7.992844629195389,38.25456970221531
pt.ine.add.PTCONT.408966,R BEJA,55,7920-046,ALVITO,-7.9907071033465,38.2551166706558
pt.ine.add.PTCONT.408967,MTE DE CADEMA,,7920-301,VILA NOVA DA BARONIA,-8.051123062845466,38.315587804043005
pt.ine.add.PTCONT.408968,R D JOÃO DE CASTRO,12,7920-372,VILA NOVA DA BARONIA,-8.038227782828447,38.28709216571159
pt.ine.add.PTCONT.409556,R BEJA,31,7920-046,ALVITO,-7.991037041752661,38.255828773303215
pt.ine.add.PTCONT.409785,R VASCO DA GAMA,7,7920-058,ALVITO,-7.988795605589865,38.256898096760246
pt.ine.add.PTCONT.409786,SANTO ANTÓNIO,3,7920-020,ALVITO,-7.992457850115074,38.25370438510617
pt.ine.add.PTCONT.409800,R PENEDO,73,7920-050,ALVITO,-7.990663425922356,38.254080594499335
pt.ine.add.PTCONT.409802,MTE MALK ABRAÃO,,7920-201,ALVITO,-7.98149808443189,38.2223396910302
pt.ine.add.PTCONT.409809,LG TRINDADE,7,7920-018,ALVITO,-7.99427924547,38.25715696106859
pt.ine.add.PTCONT.409814,R CAMILO CASTELO BRANCO,7,7920-366,VILA NOVA DA BARONIA,-8.039905504437753,38.28903942192521
pt.ine.add.PTCONT.409818,R 25 DE ABRIL,99,7920-392,VILA NOVA DA BARONIA,-8.040043680460315,38.288246752961804
pt.ine.add.PTCONT.409822,R OUTEIRO DAS PELES,20,7920-056,ALVITO,-7.9918082423249945,38.25877561237746
pt.ine.add.PTCONT.409823,TV JOAQUIM LOPES,2B,7920-066,ALVITO,-7.992158979480183,38.2546499607932
pt.ine.add.PTCONT.409824,,,7920-301,VILA NOVA DA BARONIA,-8.126718771112882,38.28918437516018
pt.ine.add.PTCONT.410375,R PENEDO,69,7920-050,ALVITO,-7.990743241388998,38.25416177143042
pt.ine.add.PTCONT.410553,LG TRINDADE,7,7920-018,ALVITO,-7.99427924547,38.25715696106859
pt.ine.add.PTCONT.410636,LG GEN HUMBERTO DELGADO,41,7920-027,ALVITO,-7.990362397977781,38.2561162392596
pt.ine.add.PTCONT.410637,TV OLIVEIRA,7,7920-060,ALVITO,-7.992698567832876,38.25922712554055
pt.ine.add.PTCONT.410670,R LOBOS,16,7920-053,ALVITO,-7.993379632163947,38.25559735462995
pt.ine.add.PTCONT.410671,R PENEDO,46,7920-050,ALVITO,-7.991450251087367,38.254847303164624
pt.ine.add.PTCONT.410672,R INF D HENRIQUE,21,7920-378,VILA NOVA DA BARONIA,-8.038713602064858,38.29147085735476
pt.ine.add.PTCONT.410696,R JOÃO DE DEUS,24,7920-379,VILA NOVA DA BARONIA,-8.036901070433787,38.287721704791984
pt.ine.add.PTCONT.410697,R PINTO DE MELO,3,7920-390,VILA NOVA DA BARONIA,-8.035392297502392,38.28772045786919
pt.ine.add.PTCONT.410698,R JOÃO DE DEUS,23,7920-379,VILA NOVA DA BARONIA,-8.036535462473546,38.287604289372176
pt.ine.add.PTCONT.410699,R LUIS DE CAMÕES,40,7920-385,VILA NOVA DA BARONIA,-8.039848894729024,38.288615961082876
pt.ine.add.PTCONT.410727,R 25 DE ABRIL,101,7920-392,VILA NOVA DA BARONIA,-8.040135121914075,38.2882468254608
pt.ine.add.PTCONT.410728,R PINTO DE MELO,71,7920-390,VILA NOVA DA BARONIA,-8.038935383566011,38.287912541168964
pt.ine.add.PTCONT.411365,R ESPÍRITO SANTO,20,7920-048,ALVITO,-7.993627332229525,38.25750753486758
pt.ine.add.PTCONT.411400,R FÁBRICAS HORTA DO ANSELMO,24,7920-040,ALVITO,-7.988565066057258,38.25792482676853
pt.ine.add.PTCONT.411406,R VASCO DA GAMA,9,7920-058,ALVITO,-7.988738604129796,38.25683496439688
pt.ine.add.PTCONT.411407,R PENEDO,57,7920-050,ALVITO,-7.9910396552876755,38.254486450944846
pt.ine.add.PTCONT.411413,R BEJA,68A,7920-046,ALVITO,-7.990628254381884,38.2545400055701
pt.ine.add.PTCONT.411414,R NOVA,55,7920-055,ALVITO,-7.9912117115837376,38.25413531210742
pt.ine.add.PTCONT.411417,R BEJA,30,7920-046,ALVITO,-7.991106013022299,38.25561264329474
pt.ine.add.PTCONT.411418,R JOÃO DE DEUS,45,7920-379,VILA NOVA DA BARONIA,-8.037804201361826,38.28760532685389
pt.ine.add.PTCONT.411431,TAPADA DOS COELHOS,,7920-201,ALVITO,-7.984985798531303,38.23693861814255
pt.ine.add.PTCONT.411443,AV 1 DE MAIO,59,7920-351,VILA NOVA DA BARONIA,-8.040019508313117,38.28927374247224
pt.ine.add.PTCONT.411451,R 25 DE ABRIL,76,7920-392,VILA NOVA DA BARONIA,-8.038523302656047,38.2883716609748
pt.ine.add.PTCONT.411452,R 25 DE ABRIL,29,7920-392,VILA NOVA DA BARONIA,-8.037323238162509,38.28828960771289
pt.ine.add.PTCONT.411461,R CRUZ,15,7920-035,ALVITO,-7.99324391307438,38.25487648126034
pt.ine.add.PTCONT.411462,R CRUZ,11,7920-035,ALVITO,-7.993300847870566,38.25497564696535
pt.ine.add.PTCONT.411463,HORTA ACAMINHO DE VIANA,,7920-301,VILA NOVA DA BARONIA,-8.034708908334338,38.294395440302154
pt.ine.add.PTCONT.412170,HRD HERDADE PARREIRAS,,7920-201,ALVITO,-7.962510677280205,38.20602543935119
pt.ine.add.PTCONT.412171,BR CARDOSA,,7920-352,VILA NOVA DA BARONIA,-8.035100572298745,38.29216157561918
pt.ine.add.PTCONT.412172,MTE COSTA,,7920-301,VILA NOVA DA BARONIA,-8.028518349466458,38.29082258341864
pt.ine.add.PTCONT.412206,R 25 DE ABRIL,31,7920-392,VILA NOVA DA BARONIA,-8.037391807456169,38.28829867252315
pt.ine.add.PTCONT.412207,R PINTO DE MELO,60,7920-390,VILA NOVA DA BARONIA,-8.039038068679476,38.288056765135586
pt.ine.add.PTCONT.412208,LG GEN TEÓFILO DA TRINDADE,1,7920-357,VILA NOVA DA BARONIA,-8.038089248663951,38.28814608901979
pt.ine.add.PTCONT.412209,R JOÃO DE DEUS,79,7920-379,VILA NOVA DA BARONIA,-8.039621537983635,38.2876428244364
pt.ine.add.PTCONT.412733,PC REPUBLICA,4A,7920-028,ALVITO,-7.992188800132967,38.256956273785704
pt.ine.add.PTCONT.412734,PC REPUBLICA,6,7920-028,ALVITO,-7.992188800132967,38.256956273785704
pt.ine.add.PTCONT.412762,LG GEN HUMBERTO DELGADO,2A-A,7920-027,ALVITO,-7.9899612636982535,38.256755382123096
pt.ine.add.PTCONT.412764,LG JOÃO FERREIRA DA SILVEIRA,7,7920-062,ALVITO,-7.992231770222561,38.25837072148034
pt.ine.add.PTCONT.412793,R 25 ABRIL,7,7920-392,VILA NOVA DA BARONIA,-8.039689310187407,38.288273497874094
pt.ine.add.PTCONT.412814,TV FELICIANO CASTILHO,6,7920-396,VILA NOVA DA BARONIA,-8.037767353750104,38.28956021699051
pt.ine.add.PTCONT.413063,R PENEDO,17,7920-050,ALVITO,-7.991814400882097,38.2555954805374
pt.ine.add.PTCONT.413064,LG ADRO,8,7920-021,ALVITO,-7.994144492624565,38.255922583061455
pt.ine.add.PTCONT.413097,R PENEDO,28,7920-050,ALVITO,-7.991894672594926,38.255442425930724
pt.ine.add.PTCONT.413098,R PENEDO,28,7920-050,ALVITO,-7.991894672594926,38.255442425930724
pt.ine.add.PTCONT.413099,R NOVA,14,7920-055,ALVITO,-7.992820272560088,38.25535344710467
pt.ine.add.PTCONT.413100,R BEJA,64,7920-046,ALVITO,-7.9907078065952,38.25475631565184
pt.ine.add.PTCONT.413101,BR CARDOSA,9,7920-352,VILA NOVA DA BARONIA,-8.034460618576464,38.29203491546234
pt.ine.add.PTCONT.413136,AV 1 DE MAIO,41,7920-351,VILA NOVA DA BARONIA,-8.039241676451764,38.289714556225114
pt.ine.add.PTCONT.413137,AV 1 DE MAIO,41,7920-351,VILA NOVA DA BARONIA,-8.039241676451764,38.289714556225114
pt.ine.add.PTCONT.413138,R D JOÃO DE CASTRO,23,7920-372,VILA NOVA DA BARONIA,-8.038045161334834,38.28689382316625
pt.ine.add.PTCONT.413139,R JOSE DIAS COELHO,11,7920-383,VILA NOVA DA BARONIA,-8.034353110776053,38.28701689745666
pt.ine.add.PTCONT.413140,R MANUEL MARQUES-BAIRRO DR TEÓFILO CASACA SIM SIM,38,7920-360,VILA NOVA DA BARONIA,-8.036847025415062,38.28537035025989
pt.ine.add.PTCONT.413141,R MQ DE POMBAL,8,7920-386,VILA NOVA DA BARONIA,-8.036673207513717,38.287162969021594
pt.ine.add.PTCONT.413142,LG GEN TEÓFILO DA TRINDADE,6,7920-357,VILA NOVA DA BARONIA,-8.037872063752607,38.28815492177101
pt.ine.add.PTCONT.413540,R NOVA,16,7920-055,ALVITO,-7.992786084160541,38.25530836175007
pt.ine.add.PTCONT.413779,MTE VALE MARIANAS,,7920-301,VILA NOVA DA BARONIA,-8.04363868527433,38.283420804442514
pt.ine.add.PTCONT.413782,R BEJA,54,7920-046,ALVITO,-7.990775846467007,38.25501765619176
pt.ine.add.PTCONT.413786,R HORTAS,9,7920-042,ALVITO,-7.98864941392846,38.255717751761274
pt.ine.add.PTCONT.413789,HORTA DA FONTE DA TELHA,,7920-201,ALVITO,-7.991270060705682,38.2417481351829
pt.ine.add.PTCONT.413793,R S MIGUEL,127,7920-030,ALVITO,-7.9965427269284355,38.26258296835304
pt.ine.add.PTCONT.413796,MTE RUIVO,,7920-201,ALVITO,-8.004959700023011,38.20634971716045
pt.ine.add.PTCONT.413805,AV 1 DE MAIO,9,7920-351,VILA NOVA DA BARONIA,-8.035225076711,38.293080581436804
pt.ine.add.PTCONT.413808,R PARREIRA,27,7920-039,ALVITO,-7.993560227513794,38.25675070805119
pt.ine.add.PTCONT.413809,R LUIS DE CAMÕES,46,7920-385,VILA NOVA DA BARONIA,-8.040043392864783,38.288471973952454
pt.ine.add.PTCONT.414433,R STA ÁGUEDA,,7920-353,VILA NOVA DA BARONIA,-8.037858196345418,38.29001974194552
pt.ine.add.PTCONT.414603,TAPADA DO LUCAS,,7920-301,VILA NOVA DA BARONIA,-8.0199176980085,38.29394066866908
pt.ine.add.PTCONT.414607,R PENEDO,39,7920-050,ALVITO,-7.991347251713849,38.25493726775544
pt.ine.add.PTCONT.414611,R MESTRE DE AVIZ,15,7920-387,VILA NOVA DA BARONIA,-8.039210611968926,38.28721007147201
pt.ine.add.PTCONT.414612,R CATARINA EUFEMIA,40,7920-367,VILA NOVA DA BARONIA,-8.038630331866846,38.28516459621544
pt.ine.add.PTCONT.414615,R JOÃO DE DEUS,7,7920-379,VILA NOVA DA BARONIA,-8.03597540057709,38.28759481817989
pt.ine.add.PTCONT.414620,HORTA DO TRANCOSO,,7920-201,ALVITO,-7.99706761190909,38.24458379764978
pt.ine.add.PTCONT.414621,R MQ DE POMBAL,6,7920-386,VILA NOVA DA BARONIA,-8.036753181858044,38.287190061280896
pt.ine.add.PTCONT.414625,AV BOMBEIROS VOLUNTARIOS,26,7920-011,ALVITO,-7.993990504058213,38.258787228593555
pt.ine.add.PTCONT.414626,HRD ZAMBUJAL,,7920-301,VILA NOVA DA BARONIA,-8.027722546806814,38.25619177182661
pt.ine.add.PTCONT.414630,R 25 DE ABRIL,4,7920-392,VILA NOVA DA BARONIA,-8.034226610912583,38.28758434846097
pt.ine.add.PTCONT.414634,AV 1 DE MAIO,71,7920-351,VILA NOVA DA BARONIA,-8.04060283315642,38.28897691188933
pt.ine.add.PTCONT.414639,R PENEDO,18,7920-050,ALVITO,-7.992008609232702,38.25560472309815
pt.ine.add.PTCONT.414640,R MANHAS,31,7920-043,ALVITO,-7.993630879862008,38.25565170688477
pt.ine.add.PTCONT.414641,R 25 DE ABRIL,53,7920-392,VILA NOVA DA BARONIA,-8.038420559597878,38.28827248076302
pt.ine.add.PTCONT.415353,R BEJA,62,7920-046,ALVITO,-7.990730550952398,38.254810396628045
pt.ine.add.PTCONT.415362,MONTE STA LUZIA,,7920-201,ALVITO,-7.970206859102421,38.25681971199416
pt.ine.add.PTCONT.415363,MONTE STA LUZIA,,7920-201,ALVITO,-7.970206859102421,38.25681971199416
pt.ine.add.PTCONT.415364,R JOAQUIM CORREIA,6,7920-381,VILA NOVA DA BARONIA,-8.038148336228321,38.2866596765916
pt.ine.add.PTCONT.415365,R ALMEIDA GARRETT,3,7920-032,ALVITO,-7.9931341584858275,38.25848891688399
pt.ine.add.PTCONT.415366,R INF D HENRIQUE,,7920-378,VILA NOVA DA BARONIA,-8.03801175679989,38.29497472975926
pt.ine.add.PTCONT.415367,MTE SERRA,,7920-301,VILA NOVA DA BARONIA,-8.028043473141018,38.287209611472605
pt.ine.add.PTCONT.415370,LG ADRO,7,7920-021,ALVITO,-7.994156072126544,38.25584151671502
pt.ine.add.PTCONT.415376,MTE COVAS RUIVAS,,7920-301,VILA NOVA DA BARONIA,-8.081916079872583,38.20167878078056
pt.ine.add.PTCONT.415377,TV S SEBASTIÃO,3,7920-395,VILA NOVA DA BARONIA,-8.039070545767153,38.28946217147141
pt.ine.add.PTCONT.415382,BR CARDOSA,1HS,7920-352,VILA NOVA DA BARONIA,-8.035580171308565,38.29253133782957
pt.ine.add.PTCONT.415385,R 1 MAIO,17,7920-013,ALVITO,-7.99533190330965,38.25634740118364
pt.ine.add.PTCONT.415396,R NOVA,10,7920-055,ALVITO,-7.992980032361622,38.255452735831376
pt.ine.add.PTCONT.415397,R CRUZ,41,7920-035,ALVITO,-7.99269636571934,38.25443439145697
pt.ine.add.PTCONT.415402,ESTR HORTAS,19,7920-014,ALVITO,-7.987825033582179,38.256608614615104
pt.ine.add.PTCONT.415403,R SANTA LUZIA,12,7920-047,ALVITO,-7.990272390176413,38.25540442702711
pt.ine.add.PTCONT.416640,R OUTEIRO DAS PELES,20,7920-056,ALVITO,-7.99211661012938,38.258839045505816
pt.ine.add.PTCONT.416641,R VASCO DA GAMA,1,7920-058,ALVITO,-7.98898878491226,38.257429858838016
pt.ine.add.PTCONT.416642,R PENEDO,27,7920-050,ALVITO,-7.99164360158093,38.25529798121239
pt.ine.add.PTCONT.416675,R CALÇADA,6,7920-034,ALVITO,-7.9924512337381035,38.25713676649427
pt.ine.add.PTCONT.416676,R NSA SRA ASSUNÇAO,20,7920-013,ALVITO,-7.995616412007703,38.25694232188064
pt.ine.add.PTCONT.416677,R MANHAS,13,7920-043,ALVITO,-7.993013062047896,38.25610141573143
pt.ine.add.PTCONT.416706,R BEJA,52,7920-046,ALVITO,-7.990832900975623,38.255053760961
pt.ine.add.PTCONT.416707,R PENEDO,64,7920-050,ALVITO,-7.991097007570855,38.254369404696426
pt.ine.add.PTCONT.416708,HORTA DA FUNCHEIRA,,7920-201,ALVITO,-7.993498262525439,38.24733633266143
pt.ine.add.PTCONT.416709,R INF D HENRIQUE,34,7920-378,VILA NOVA DA BARONIA,-8.038553537380112,38.291497754990026
pt.ine.add.PTCONT.416710,R CATARINA EUFEMIA,23,7920-367,VILA NOVA DA BARONIA,-8.038423824922738,38.28575901404699
pt.ine.add.PTCONT.416739,MTE FONTES,,7920-301,VILA NOVA DA BARONIA,-8.080703973682924,38.283947710407375
pt.ine.add.PTCONT.416755,MARKADIA REBOLADO LDA,,7920-999,ALVITO,-8.10330647617824,38.184469963966045
pt.ine.add.PTCONT.416977,R FÁBRICAS,11,7920-040,ALVITO,-7.989547863928362,38.25781792647064
pt.ine.add.PTCONT.416979,MTE CONDE,,7920-301,VILA NOVA DA BARONIA,-8.021464689707061,38.29892403685574
pt.ine.add.PTCONT.416980,MTE CONDE,,7920-301,VILA NOVA DA BARONIA,-8.021464689707061,38.29892403685574
pt.ine.add.PTCONT.416981,R JOÃO DE DEUS,8,7920-379,VILA NOVA DA BARONIA,-8.036283845132406,38.28772119703236
pt.ine.add.PTCONT.416983,R CRATO,15,7920-023,ALVITO,-7.990773526785805,38.25620682757104
pt.ine.add.PTCONT.416988,R BEJA,49,7920-046,ALVITO,-7.990855030806806,38.25542315252334
pt.ine.add.PTCONT.416989,R BEJA,45,7920-046,ALVITO,-7.990855030806806,38.25542315252334
pt.ine.add.PTCONT.416990,R BEJA,47,7920-046,ALVITO,-7.990855030806806,38.25542315252334
pt.ine.add.PTCONT.416992,R MANUEL MARQUES-BAIRRO DR TEÓFILO CASACA SIM SIM,31,7920-360,VILA NOVA DA BARONIA,-8.036685293034134,38.286667492162415
pt.ine.add.PTCONT.417002,AV 1 DE MAIO,8,7920-301,VILA NOVA DA BARONIA,-8.037331223082937,38.29091118861444
pt.ine.add.PTCONT.417008,R LUIS DE CAMÕES,24,7920-385,VILA NOVA DA BARONIA,-8.039288244727738,38.289056947634116
pt.ine.add.PTCONT.417013,AV 1 DE MAIO,15,7920-351,VILA NOVA DA BARONIA,-8.035282352346409,38.2929905407976
pt.ine.add.PTCONT.417016,TV VIDROS,7,7920-065,ALVITO,-7.992041090405919,38.25653267831284
pt.ine.add.PTCONT.417017,R JOAQUIM ANTÓNIO GIAO,7,7920-380,VILA NOVA DA BARONIA,-8.039160780937443,38.290399163776705
pt.ine.add.PTCONT.417020,R PARREIRA,15,7920-039,ALVITO,-7.993149161276398,38.25662409400462
pt.ine.add.PTCONT.417024,,,7920-201,ALVITO,-7.959961292074417,38.29891244500706
pt.ine.add.PTCONT.417025,LG PORTA NOVA,S,7920-017,ALVITO,-7.993790572617457,38.25578703000634
pt.ine.add.PTCONT.417028,HRD ALBARDEIROS,,7920-301,VILA NOVA DA BARONIA,-8.101053161358633,38.299387188120264
pt.ine.add.PTCONT.417029,HRD ALBARDEIROS,,7920-301,VILA NOVA DA BARONIA,-8.101053161358633,38.299387188120264
pt.ine.add.PTCONT.417032,R BEJA,53,7920-046,ALVITO,-7.990752697771239,38.25517077934916
pt.ine.add.PTCONT.417033,MTE FREIXO DA CRUZ,,7920-301,VILA NOVA DA BARONIA,-8.03893611651851,38.27849828659174
pt.ine.add.PTCONT.417774,R PINTO DE MELO,1,7920-390,VILA NOVA DA BARONIA,-8.035140702150656,38.28781934539401
pt.ine.add.PTCONT.417776,R CRATO,20,7920-023,ALVITO,-7.990956083316493,38.256333173368176
pt.ine.add.PTCONT.417788,MTE MONTAL VERDE,,7920-201,ALVITO,-8.013866011584408,38.212881593795885
pt.ine.add.PTCONT.417798,R PROF EGAS MONIZ,3,7920-391,VILA NOVA DA BARONIA,-8.03629170886508,38.29040584005838
pt.ine.add.PTCONT.417799,MTE BULARINA,,7920-301,VILA NOVA DA BARONIA,-8.058217418406196,38.22172001794172
pt.ine.add.PTCONT.417811,R BENTO JESUS CARAÇA,6,7920-364,VILA NOVA DA BARONIA,-8.037928732212569,38.28852433055245
pt.ine.add.PTCONT.417816,QTA DO POMBAL,,7920-301,VILA NOVA DA BARONIA,-8.040103983619009,38.29473316841476
pt.ine.add.PTCONT.418359,MTE SITIO DO BARÃO,,7920-301,VILA NOVA DA BARONIA,-8.068211879643265,38.27068942212579
pt.ine.add.PTCONT.418581,LG GEN HUMBERTO DELGADO,38,7920-027,ALVITO,-7.990271349684299,38.255935950581225
pt.ine.add.PTCONT.418589,R DR LUIS CERQUEIRA,383,7920-072,ALVITO,-7.995948177966139,38.262789479282645
pt.ine.add.PTCONT.418590,R DR ERNESTO GOIS,5,7920-011,ALVITO,-7.995544803067365,38.258563838617825
pt.ine.add.PTCONT.418591,MOINHO DA AZINHEIRA,,7920-201,ALVITO,-8.03546527377298,38.23321672568978
pt.ine.add.PTCONT.418593,R ALMEIDA GARRETT,17,7920-032,ALVITO,-7.9934763027623585,38.25881364456221
pt.ine.add.PTCONT.418594,R INF D HENRIQUE QTA DO POHBAL,,7920-378,VILA NOVA DA BARONIA,-8.038264428367874,38.29406504154746
pt.ine.add.PTCONT.418597,R INF D HENRIQUE,9,7920-378,VILA NOVA DA BARONIA,-8.03882908610201,38.29056105691224
pt.ine.add.PTCONT.418600,R PROF EGAS MONIZ,17,7920-391,VILA NOVA DA BARONIA,-8.03606431012631,38.28949575872979
pt.ine.add.PTCONT.418602,AV 1 MAIO,3A,7920-351,VILA NOVA DA BARONIA,-8.035053297445742,38.2933146678546
pt.ine.add.PTCONT.418603,AV 1 MAIO,1A,7920-351,VILA NOVA DA BARONIA,-8.035053297445742,38.2933146678546
pt.ine.add.PTCONT.418604,AV 1 MAIO,,7920-351,VILA NOVA DA BARONIA,-8.035053297445742,38.2933146678546
pt.ine.add.PTCONT.418607,R JOAQUIM ANTÓNIO GIAO,2,7920-380,VILA NOVA DA BARONIA,-8.038783911963225,38.290137604857655
pt.ine.add.PTCONT.418614,AV BOMBEIROS VOLUNTARIOS,32,7920-011,ALVITO,-7.994035553678264,38.25912961983132
pt.ine.add.PTCONT.418615,R LUIS DE CAMÕES,2,7920-385,VILA NOVA DA BARONIA,-8.038658853895427,38.289614991158764
pt.ine.add.PTCONT.418616,R PINTO DE MELO,37,7920-390,VILA NOVA DA BARONIA,-8.037540848811387,38.28795645776195
pt.ine.add.PTCONT.418622,LG DR JOÃO FERNANDES DA SILVEIRA,1,7920-026,ALVITO,-7.992518379369355,38.25786656725956
pt.ine.add.PTCONT.419383,R PINTO DE MELO,66,7920-390,VILA NOVA DA BARONIA,-8.039666738574189,38.28804825867327
pt.ine.add.PTCONT.419390,PC DA REPÚBLICA,17-18,7920-028,ALVITO,-7.991742778686577,38.25718095967863
pt.ine.add.PTCONT.419391,R CRATO,17 A,7920-023,ALVITO,-7.99067099949165,38.256053551965806
pt.ine.add.PTCONT.419392,R BEJA,50,7920-046,ALVITO,-7.990844238113581,38.25509881918622
pt.ine.add.PTCONT.419393,LG GEN HUMBERTO DELGADO,2,7920-356,VILA NOVA DA BARONIA,-8.035598509325382,38.28736928429773
pt.ine.add.PTCONT.419396,R FRADES FRANCISCANOS,,7920-201,ALVITO,-7.992630331307153,38.25312802216436
pt.ine.add.PTCONT.419402,R MQ DE POMBAL,16,7920-386,VILA NOVA DA BARONIA,-8.036318913078315,38.28713565072078
pt.ine.add.PTCONT.419407,MTE CORTES,,7920-201,ALVITO,-8.081898251868328,38.17822834044219
pt.ine.add.PTCONT.419420,R 5 DE OUTUBRO,57,7920-368,VILA NOVA DA BARONIA,-8.036808498810423,38.288577469488345
pt.ine.add.PTCONT.419432,R CRUZ,13,7920-035,ALVITO,-7.9932895092338025,38.25493058897362
pt.ine.add.PTCONT.420209,MTE ROLAO,,7920-301,VILA NOVA DA BARONIA,-8.0490907816481,38.2831996139092
pt.ine.add.PTCONT.420230,LG CADEIROES,7,7920-025,ALVITO,-7.9900029778587,38.25296268757762
pt.ine.add.PTCONT.420238,R JOAQUIM CORREIA,1,7920-381,VILA NOVA DA BARONIA,-8.037908366488827,38.28661443786305
pt.ine.add.PTCONT.420243,R INF D HENRIQUE,11,7920-378,VILA NOVA DA BARONIA,-8.038817585619999,38.290615100741306
pt.ine.add.PTCONT.420246,R LUIS DE CAMÕES,14,7920-385,VILA NOVA DA BARONIA,-8.038990730948026,38.28930895706878
pt.ine.add.PTCONT.420251,R JOAQUIM ANTÓNIO GIAO,3,7920-380,VILA NOVA DA BARONIA,-8.038955322575239,38.29017377792783
pt.ine.add.PTCONT.420252,R 25 DE ABRIL,34,7920-392,VILA NOVA DA BARONIA,-8.036808653559373,38.28846035458735
pt.ine.add.PTCONT.420257,MTE DA ESTEBAINHA,,7920-301,VILA NOVA DA BARONIA,-8.03966729896845,38.296525580084214
pt.ine.add.PTCONT.420258,R PINTO DE MELO,51,7920-390,VILA NOVA DA BARONIA,-8.038260970796726,38.28793902444078
pt.ine.add.PTCONT.420259,ACSS AO,,7920-301,VILA NOVA DA BARONIA,-8.032211592095106,38.29824009207806
pt.ine.add.PTCONT.420976,R PINTO DE MELO,11,7920-390,VILA NOVA DA BARONIA,-8.036260697628144,38.28793739031098
pt.ine.add.PTCONT.420988,HRD MARKADIA REBOLADO LDA,,7920-201,ALVITO,-8.105282804830447,38.17996594160101
pt.ine.add.PTCONT.420994,R INF D HENRIQUE,40,7920-378,VILA NOVA DA BARONIA,-8.038598944683827,38.291741030356086
pt.ine.add.PTCONT.420995,R 25 DE ABRIL,6,7920-392,VILA NOVA DA BARONIA,-8.035266082663513,38.28808070664623
pt.ine.add.PTCONT.421002,AV 1 DE MAIO,63,7920-351,VILA NOVA DA BARONIA,-8.04035120611211,38.289102837086084
pt.ine.add.PTCONT.421006,R CUSTÓDIO SANTOS COELHO,10,7920-369,VILA NOVA DA BARONIA,-8.038200253650349,38.290677664882
pt.ine.add.PTCONT.421011,R ALMEIDA GARRETT,11,7920-363,VILA NOVA DA BARONIA,-8.038534522430043,38.28853382929291
pt.ine.add.PTCONT.421012,R PINTO DE MELO,26,7920-390,VILA NOVA DA BARONIA,-8.037197766921796,38.28809131053364
pt.ine.add.PTCONT.421020,R DR ERNESTO GOIS,1,7920-375,VILA NOVA DA BARONIA,-8.037276356508332,38.28917243653329
pt.ine.add.PTCONT.421021,R 5 DE OUTUBRO,13,7920-368,VILA NOVA DA BARONIA,-8.03670391068472,38.289874657593174
pt.ine.add.PTCONT.421024,R MATADOURO,3,7920-049,ALVITO,-7.990963559531087,38.25836018329243
pt.ine.add.PTCONT.421025,R MATADOURO,1,7920-049,ALVITO,-7.990963559531087,38.25836018329243
pt.ine.add.PTCONT.421026,HORTA ABAIXC,,7920-301,VILA NOVA DA BARONIA,-8.042572217031354,38.304662831428736
pt.ine.add.PTCONT.421030,MTE SENHORA DA OLIVEIRA,,7920-301,VILA NOVA DA BARONIA,-8.041238585389028,38.2833558876699
pt.ine.add.PTCONT.421601,R INF D HENRIQUE,58,7920-378,VILA NOVA DA BARONIA,-8.038449467525666,38.29241657306581
pt.ine.add.PTCONT.421605,R 5 DE OUTUBRO,47,7920-368,VILA NOVA DA BARONIA,-8.03683376282192,38.2887230308665
pt.ine.add.PTCONT.421610,R 5 DE OUTUBRO,55,7920-368,VILA NOVA DA BARONIA,-8.036785507372237,38.28867654794396
pt.ine.add.PTCONT.421827,R DR LUIS CERQUEIRA,380,7920-072,ALVITO,-7.995742269334448,38.26291536281377
pt.ine.add.PTCONT.421835,R INF D HENRIQUE,31,7920-378,VILA NOVA DA BARONIA,-8.038758846589916,38.291840256337096
pt.ine.add.PTCONT.421854,R 25 DE ABRIL,32,7920-392,VILA NOVA DA BARONIA,-8.036705829298159,38.28842423474933
pt.ine.add.PTCONT.421858,TV OLIVEIRA,6,7920-060,ALVITO,-7.992458751504807,38.25916377612575
pt.ine.add.PTCONT.421859,R 25 DE ABRIL,57,7920-392,VILA NOVA DA BARONIA,-8.038614942829277,38.28821858438994
pt.ine.add.PTCONT.421860,R 25 DE ABRIL,91,7920-392,VILA NOVA DA BARONIA,-8.039826530070144,38.28822856281153
pt.ine.add.PTCONT.422627,R FRADES FRANCISCANOS,,7920-201,ALVITO,-7.992458596774627,38.25331700335322
pt.ine.add.PTCONT.422629,HRD SESMARIAS,,7920-201,ALVITO,-7.99752688110154,38.292502541133835
pt.ine.add.PTCONT.422630,R MQ DE POMBAL,4,7920-386,VILA NOVA DA BARONIA,-8.036970316492308,38.28721726595827
pt.ine.add.PTCONT.422633,QTA OUVIDOR,,7920-201,ALVITO,-7.984239229970534,38.255766293474416
pt.ine.add.PTCONT.422647,LG ADRO,17,7920-021,ALVITO,-7.994474553813334,38.256589631648076
pt.ine.add.PTCONT.422648,R JOAO DEUS,19C,7920-054,ALVITO,-7.994449597596252,38.25769769604914
pt.ine.add.PTCONT.422652,,,7920-301,VILA NOVA DA BARONIA,-8.046009762273316,38.288647723132215
pt.ine.add.PTCONT.422653,R GIL VICENTE,8A,7920-377,VILA NOVA DA BARONIA,-8.03886576600282,38.28871427280652
pt.ine.add.PTCONT.422661,R ALMEIDA GARRETT,1,7920-363,VILA NOVA DA BARONIA,-8.038065753926848,38.288632547812796
pt.ine.add.PTCONT.422664,R DR ERNESTO GOIS,13,7920-375,VILA NOVA DA BARONIA,-8.036659166603785,38.2891358953818
pt.ine.add.PTCONT.422665,R PINTO DE MELO,64,7920-390,VILA NOVA DA BARONIA,-8.039541006919592,38.288048158467234
pt.ine.add.PTCONT.422666,R LIBERDADE,2,7920-370,VILA NOVA DA BARONIA,-8.037939386008906,38.28911892315722
pt.ine.add.PTCONT.422667,R PINTO DE MELO,23,7920-390,VILA NOVA DA BARONIA,-8.037072177653732,38.287983101609434
pt.ine.add.PTCONT.423528,,,7920-201,ALVITO,-7.959778597327963,38.298822086959525
pt.ine.add.PTCONT.423288,VIVENDA GRILO JUNTO DA ESTAÇÃO DA CP,,7920-301,VILA NOVA DA BARONIA,-8.034413162856838,38.29331413107976
pt.ine.add.PTCONT.423435,R PENEDO,16,7920-050,ALVITO,-7.992088549738691,38.255622836977665
pt.ine.add.PTCONT.423529,R MANHAS,19,7920-043,ALVITO,-7.993253317761473,38.255930533294304
pt.ine.add.PTCONT.423530,R CRUZ,36,7920-035,ALVITO,-7.992833567997795,38.254380502150305
pt.ine.add.PTCONT.423531,R CRUZ,48,7920-035,ALVITO,-7.992457016617715,38.254136811218686
pt.ine.add.PTCONT.423532,R PENEDO,48,7920-050,ALVITO,-7.991404656345888,38.25479319473873
pt.ine.add.PTCONT.423533,HORTA DO LOUREIRO,,7920-201,ALVITO,-7.997425739680678,38.248575159301105
pt.ine.add.PTCONT.423534,R INF D HENRIQUE,33,7920-378,VILA NOVA DA BARONIA,-8.038770149045208,38.29193936270177
pt.ine.add.PTCONT.423535,AV 1 DE MAIO,72,7920-351,VILA NOVA DA BARONIA,-8.041620140864996,38.28896870075211
pt.ine.add.PTCONT.423536,R CATARINA EUFEMIA,34,7920-367,VILA NOVA DA BARONIA,-8.038560865555317,38.28584921308828
pt.ine.add.PTCONT.423537,R CATARINA EUFEMIA,45,7920-367,VILA NOVA DA BARONIA,-8.038470690396617,38.28487618423213
pt.ine.add.PTCONT.423538,R CAMPO DA FEIRA,46,7920-360,VILA NOVA DA BARONIA,-8.038001921832437,38.28499292027787
pt.ine.add.PTCONT.423539,R D JOÃO DE CASTRO,,7920-372,VILA NOVA DA BARONIA,-8.038215766364463,38.28754259850543
pt.ine.add.PTCONT.424015,LG JOÃO FERREIRA DA SILVEIRA,8,7920-062,ALVITO,-7.992083326049319,38.25832549872771
pt.ine.add.PTCONT.424023,R S NEUTEL,,7920-301,VILA NOVA DA BARONIA,-8.035260966314782,38.29189144421759
pt.ine.add.PTCONT.424039,R INF D HENRIQUE,50,7920-378,VILA NOVA DA BARONIA,-8.038587163395677,38.2920112861623
pt.ine.add.PTCONT.424057,R ALBERTO ARAÚJO,28,7920-361,VILA NOVA DA BARONIA,-8.040431836952285,38.28861642301452
pt.ine.add.PTCONT.424246,R NOVA,41,7920-055,ALVITO,-7.991530907281221,38.25449605351653
pt.ine.add.PTCONT.424255,R MQ DE POMBAL,17,7920-386,VILA NOVA DA BARONIA,-8.03630731556,38.287261765056854
pt.ine.add.PTCONT.424259,HORTA DO TRANCOSO,,7920-201,ALVITO,-7.993102250149812,38.24534489182835
pt.ine.add.PTCONT.424260,HORTA DA CANCELA,,7920-201,ALVITO,-8.005810258932843,38.24241344833907
pt.ine.add.PTCONT.424264,R IRMA MARIA PIA BAIRRO DR TEÓFILO CASACA SIM SIM,16,7920-360,VILA NOVA DA BARONIA,-8.037441276765454,38.28544290714134
pt.ine.add.PTCONT.424269,R INF D HENRIQUE,35,7920-378,VILA NOVA DA BARONIA,-8.03877005574327,38.29201143337159
pt.ine.add.PTCONT.424275,R PROF EGAS MONIZ,1 B,7920-391,VILA NOVA DA BARONIA,-8.03634875380779,38.290486966727556
pt.ine.add.PTCONT.424281,AV 1 DE MAIO,36,7920-351,VILA NOVA DA BARONIA,-8.03952735576718,38.28977784637008
pt.ine.add.PTCONT.424283,R NSA SRA ASSUNÇAO,21,7920-013,ALVITO,-7.995719137548441,38.25699649555252
pt.ine.add.PTCONT.424288,R MANHAS,20,7920-043,ALVITO,-7.99324165089729,38.25605664392042
pt.ine.add.PTCONT.424297,TV NORTE,5,7920-063,ALVITO,-7.991557806737081,38.258297839344415
pt.ine.add.PTCONT.424298,R PINTO DE MELO,57,7920-390,VILA NOVA DA BARONIA,-8.03858101451866,38.28793928273679
pt.ine.add.PTCONT.424763,LG D DINIS,3,7920-024,ALVITO,-7.988613443900127,38.256573552443804
pt.ine.add.PTCONT.424764,R MESTRE DE AVIZ,25,7920-387,VILA NOVA DA BARONIA,-8.039530455863252,38.28736347747291
pt.ine.add.PTCONT.424772,R CAMPO DA FEIRA,45,7920-360,VILA NOVA DA BARONIA,-8.037773340201301,38.284983725909235
pt.ine.add.PTCONT.424808,HERMIDA DE STA ÁGUEDA,,7920-301,VILA NOVA DA BARONIA,-8.04493625718028,38.2689715628639
pt.ine.add.PTCONT.424809,HERMIDA DE STA ÁGUEDA,,7920-301,VILA NOVA DA BARONIA,-8.04493625718028,38.2689715628639
pt.ine.add.PTCONT.424969,R CRUZ,18,7920-035,ALVITO,-7.993324025673631,38.254804505537194
pt.ine.add.PTCONT.424977,R PENEDO,9,7920-050,ALVITO,-7.99190548743745,38.2557577502871
pt.ine.add.PTCONT.424986,MTE PALHETA,,7920-201,ALVITO,-7.932549897189103,38.206662761616236
pt.ine.add.PTCONT.424991,R ALMEIDA GARRETT,6,7920-032,ALVITO,-7.9929905094797835,38.25859385669162
pt.ine.add.PTCONT.424992,R OUTEIRO DAS PELES,13,7920-056,ALVITO,-7.992002685646383,38.2586677396528
pt.ine.add.PTCONT.424993,R CAMPO DA FEIRA,7C,7920-360,VILA NOVA DA BARONIA,-8.03720191601394,38.28493821592923
pt.ine.add.PTCONT.425000,R CALÇADA,3,7920-034,ALVITO,-7.9924056715735174,38.25706464072927
pt.ine.add.PTCONT.425005,R CUSTÓDIO SANTOS COELHO,5,7920-369,VILA NOVA DA BARONIA,-8.038040261034999,38.29065050880932
pt.ine.add.PTCONT.425013,TV VIDROS,4 A,7920-065,ALVITO,-7.9922014780400605,38.25630764864365
pt.ine.add.PTCONT.425014,TV VIDROS,4,7920-065,ALVITO,-7.9922014780400605,38.25630764864365
pt.ine.add.PTCONT.425019,R 25 DE ABRIL,73,7920-392,VILA NOVA DA BARONIA,-8.039129219473649,38.28828205941016
pt.ine.add.PTCONT.425025,ESTR S ROMÃO,10,7920-015,ALVITO,-7.988084697513531,38.258176483071125
pt.ine.add.PTCONT.425026,R JOÃO DE DEUS,55,7920-379,VILA NOVA DA BARONIA,-8.038398588961712,38.28758779048133
pt.ine.add.PTCONT.425027,MTE ANJOS,,7920-301,VILA NOVA DA BARONIA,-8.040440324391563,38.28194086926247
pt.ine.add.PTCONT.425526,R CAMPO DA FEIRA,7C,7920-360,VILA NOVA DA BARONIA,-8.03720191601394,38.28493821592923
pt.ine.add.PTCONT.425528,R PROF EGAS MONIZ,22,7920-391,VILA NOVA DA BARONIA,-8.03619021199408,38.28936973894745
pt.ine.add.PTCONT.425549,R CATARINA EUFEMIA,5,7920-367,VILA NOVA DA BARONIA,-8.03837709880012,38.28653373760539
pt.ine.add.PTCONT.425776,MTE S FRANCISCO,,7920-201,ALVITO,-8.015743688999423,38.238162582258866
pt.ine.add.PTCONT.425777,MTE S FRANCISCO,,7920-201,ALVITO,-8.018816633830752,38.23794940061037
pt.ine.add.PTCONT.425778,HRD BENTO DA SERRA,,7920-201,ALVITO,-7.971297348347809,38.23391156447298
pt.ine.add.PTCONT.425779,MTE LUZIOS,,7920-201,ALVITO,-7.952209388751006,38.234856661931595
pt.ine.add.PTCONT.425782,R C BR DR TEÓFILO CASACA SIM-SIM,10,7920-360,VILA NOVA DA BARONIA,-8.037681336714206,38.285416076080956
pt.ine.add.PTCONT.425790,TV NORTE,9,7920-063,ALVITO,-7.9916143575223915,38.25859520094966
pt.ine.add.PTCONT.425791,LG ADRO,11,7920-021,ALVITO,-7.994246992751729,38.2560938733985
pt.ine.add.PTCONT.425792,R MACEIRA,14A,7920-037,ALVITO,-7.994808258204747,38.25533778895473
pt.ine.add.PTCONT.425793,R INF D HENRIQUE,13,7920-378,VILA NOVA DA BARONIA,-8.0387832239984,38.29066912619072
pt.ine.add.PTCONT.425794,QTA PONTÃO DA SARDINHA,,7920-301,VILA NOVA DA BARONIA,-8.03140903894288,38.28352795630514
pt.ine.add.PTCONT.425803,R D PEDRO V,12,7920-374,VILA NOVA DA BARONIA,-8.040512283576794,38.288274150285524
pt.ine.add.PTCONT.425814,R JOÃO DE DEUS,61,7920-379,VILA NOVA DA BARONIA,-8.038547168285277,38.28759691917827
pt.ine.add.PTCONT.426502,MTE DO VALONGO,,7920-301,VILA NOVA DA BARONIA,-8.065989961347935,38.313345050735826
pt.ine.add.PTCONT.426503,MTE DO VALONGO,,7920-301,VILA NOVA DA BARONIA,-8.065989961347935,38.313345050735826
pt.ine.add.PTCONT.426504,MTE DO VALONGO,,7920-301,VILA NOVA DA BARONIA,-8.065989961347935,38.313345050735826
pt.ine.add.PTCONT.426505,MTE DO VALONGO,,7920-301,VILA NOVA DA BARONIA,-8.065989961347935,38.313345050735826
pt.ine.add.PTCONT.426716,ESTR S ROMÃO HORTA SRA GRAÇA,,7920-015,ALVITO,-7.987845032165515,38.25804105327791
pt.ine.add.PTCONT.426717,R AVIADORES,4,7920-052,ALVITO,-7.988831181754504,38.25624049126047
pt.ine.add.PTCONT.426718,QTA CAVALEIRA,,7920-201,ALVITO,-7.987565847900411,38.25480651446624
pt.ine.add.PTCONT.426739,AV BOMBEIROS VOLUNTARIOS,ZB,7920-011,ALVITO,-7.993844534165866,38.257444730575614
pt.ine.add.PTCONT.426740,HRD HERDADE DOS PATOS,,7920-201,ALVITO,-8.066431812451038,38.155193477816454
pt.ine.add.PTCONT.426741,R PROF EGAS MONIZ,37,7920-391,VILA NOVA DA BARONIA,-8.036008142493479,38.28875698677605
pt.ine.add.PTCONT.426783,MTE DOS FAMAIS,,7920-301,VILA NOVA DA BARONIA,-8.028301222245958,38.30667793398634
pt.ine.add.PTCONT.426784,MTE DO RASMONIAL,,7920-301,VILA NOVA DA BARONIA,-8.027074870371534,38.30089316676159
pt.ine.add.PTCONT.426785,LG GEN HUMBERTO DELGADO,11,7920-356,VILA NOVA DA BARONIA,-8.035942131224104,38.28682903835858
pt.ine.add.PTCONT.427167,R ALMEIDA GARRETT,15,7920-363,VILA NOVA DA BARONIA,-8.038637429499415,38.28850688565602
pt.ine.add.PTCONT.427370,R FRADES FRANCISCANOS,,7920-020,ALVITO,-7.992800939043978,38.253524617821334
pt.ine.add.PTCONT.427374,R MESTRE DE AVIZ,35,7920-387,VILA NOVA DA BARONIA,-8.039987369828152,38.28758906227247
pt.ine.add.PTCONT.427378,R PENEDO,62,7920-050,ALVITO,-7.991142584292838,38.25443252212085
pt.ine.add.PTCONT.427379,TV JOAQUIM LOPES,46,7920-066,ALVITO,-7.991919056635525,38.254649672388744
pt.ine.add.PTCONT.427380,R NOVA,46,7920-055,ALVITO,-7.991919056635525,38.254649672388744
pt.ine.add.PTCONT.427381,TV JOAQUIM LOPES,14,7920-066,ALVITO,-7.991919056635525,38.254649672388744
pt.ine.add.PTCONT.427382,TV JOAQUIM LOPES,14,7920-066,ALVITO,-7.991919056635525,38.254649672388744
pt.ine.add.PTCONT.427386,ESTR HORTAS,20,7920-014,ALVITO,-7.988146156331126,38.255996406927345
pt.ine.add.PTCONT.427387,R NOVA,68,7920-055,ALVITO,-7.991383083830624,38.254135519191244
pt.ine.add.PTCONT.427388,R PENEDO,81,7920-050,ALVITO,-7.9905040243951655,38.25380112507514
pt.ine.add.PTCONT.427395,R MANUEL MARQUES,26,7920-360,VILA NOVA DA BARONIA,-8.037040285916216,38.286163287689
pt.ine.add.PTCONT.427418,BR CASA DO POVO,,7920-353,VILA NOVA DA BARONIA,-8.037698346835064,38.28988447936635
pt.ine.add.PTCONT.427419,AV 1 DE MAIO,31,7920-351,VILA NOVA DA BARONIA,-8.037903341494323,38.29046121202965
pt.ine.add.PTCONT.427424,R 5 DE OUTUBRO,34,7920-368,VILA NOVA DA BARONIA,-8.036899120075686,38.28919915433089
pt.ine.add.PTCONT.428123,LG GEN HUMBERTO DELGADO,26,7920-027,ALVITO,-7.990006681899743,38.25689957981069
pt.ine.add.PTCONT.428176,R BEJA,32 4,7920-046,ALVITO,-7.991049080718,38.25551347654051
pt.ine.add.PTCONT.428169,LG GEN HUMBERTO DELGADO,36,7920-027,ALVITO,-7.990237233149724,38.2558548289972
pt.ine.add.PTCONT.428174,R BEJA,17,7920-046,ALVITO,-7.9912077171721725,38.25618933559557
pt.ine.add.PTCONT.428175,R BEJA,32,7920-046,ALVITO,-7.991049080718,38.25551347654051
pt.ine.add.PTCONT.428182,HORTA DA FONTE DA TELHA,,7920-201,ALVITO,-7.993304626962163,38.241074907501385
pt.ine.add.PTCONT.428187,R JOAQUIM CORREIA,62,7920-381,VILA NOVA DA BARONIA,-8.038287851113651,38.28484901004562
pt.ine.add.PTCONT.428194,R IRMA MARIA PIA,18,7920-360,VILA NOVA DA BARONIA,-8.037453073012097,38.28516364230717
pt.ine.add.PTCONT.428198,MTE GREGA DE BAIXO,,7920-201,ALVITO,-8.031721080631447,38.16585337114777
pt.ine.add.PTCONT.428210,R INF D HENRIQUE,8,7920-378,VILA NOVA DA BARONIA,-8.038726281209035,38.29050692118084
pt.ine.add.PTCONT.428211,R 25 DE ABRIL,20,7920-392,VILA NOVA DA BARONIA,-8.036454460293868,38.28835195714546
pt.ine.add.PTCONT.428217,LG RELOGIO,23,7920-022,ALVITO,-7.992430015920896,38.25628990503846
pt.ine.add.PTCONT.428218,LG RELOGIO,23,7920-022,ALVITO,-7.992430015920896,38.25628990503846
pt.ine.add.PTCONT.428219,R PINTO DE MELO,47,7920-390,VILA NOVA DA BARONIA,-8.038066670286984,38.287929858352506
pt.ine.add.PTCONT.428229,PC REPUBLICA,11,7920-028,ALVITO,-7.992324686431474,38.25758705939097
pt.ine.add.PTCONT.428230,LG DR JOAO FERNANDES DA SILVEIRA,3,7920-026,ALVITO,-7.992324686431474,38.25758705939097
pt.ine.add.PTCONT.428231,LG DR JOAO FERNANDES DA SILVEIRA,3,7920-026,ALVITO,-7.992324686431474,38.25758705939097
pt.ine.add.PTCONT.428232,LG DR JOAO FERNANDES DA SILVEIRA,3,7920-026,ALVITO,-7.992324686431474,38.25758705939097
pt.ine.add.PTCONT.428233,R BEJA,57,7920-046,ALVITO,-7.990695819038728,38.25504458579294
pt.ine.add.PTCONT.428783,BR TAPADA DO LUCAS,,7920-013,ALVITO,-7.995889720239852,38.25742011312584
pt.ine.add.PTCONT.428794,HORTA DA FIGUEIRA,,7920-201,ALVITO,-8.016993582904126,38.24228991136598
pt.ine.add.PTCONT.429010,R PENEDO,63,7920-050,ALVITO,-7.990937024524647,38.25438722878717
pt.ine.add.PTCONT.429011,HORTA VALE MARIANAS,,7920-301,VILA NOVA DA BARONIA,-8.045170576190527,38.28313367918605
pt.ine.add.PTCONT.429013,R BEJA,66,7920-046,ALVITO,-7.9906850622715995,38.25470223467082
pt.ine.add.PTCONT.429014,R MESTRE DE AVIZ,33,7920-387,VILA NOVA DA BARONIA,-8.03990743992076,38.28752593685412
pt.ine.add.PTCONT.429018,R BEJA,14,7920-046,ALVITO,-7.991333481214258,38.256144443125386
pt.ine.add.PTCONT.429019,R BEJA,28,7920-046,ALVITO,-7.991128670291402,38.255711768557454
pt.ine.add.PTCONT.429028,R MANUEL MARQUES,30,7920-360,VILA NOVA DA BARONIA,-8.03694814583546,38.28669473444709
pt.ine.add.PTCONT.429034,HRD HERDADE MAROTEIRA,,7920-201,ALVITO,-8.049942041001346,38.178092939267955
pt.ine.add.PTCONT.429035,HRD HERDADE MAROTEIRA,,7920-201,ALVITO,-8.049942041001346,38.178092939267955
pt.ine.add.PTCONT.429037,R ALMEIDA GARRETT,5,7920-032,ALVITO,-7.99316833130541,38.25854301098652
pt.ine.add.PTCONT.429040,QTA PONTE CARVALHA,,7920-301,VILA NOVA DA BARONIA,-8.03278623538846,38.28771825839286
pt.ine.add.PTCONT.429041,FTE ARRATEL,,7920-301,VILA NOVA DA BARONIA,-8.032593860871968,38.27802456389162
pt.ine.add.PTCONT.429050,R PEREIRAS,,7920-044,ALVITO,-7.993331153444578,38.25704772891933
pt.ine.add.PTCONT.429052,AV 1 DE MAIO,10,7920-351,VILA NOVA DA BARONIA,-8.03753709200763,38.2908212680523
pt.ine.add.PTCONT.429053,R 25 DE ABRIL,40,7920-392,VILA NOVA DA BARONIA,-8.037163025779728,38.288433618379464
pt.ine.add.PTCONT.429056,,,7920-201,ALVITO,-7.959584063554213,38.298902878804576
pt.ine.add.PTCONT.429058,R NOVA,42,7920-055,ALVITO,-7.9920673191032785,38.25478498412215
pt.ine.add.PTCONT.429608,LG D DINIS,3,7920-024,ALVITO,-7.988350324781092,38.256744397152914
pt.ine.add.PTCONT.429810,HERDADE DAS SESMARIAS,,7920-301,VILA NOVA DA BARONIA,-7.998360598887574,38.29289989058964
pt.ine.add.PTCONT.429821,R JOÃO DE DEUS,13,7920-379,VILA NOVA DA BARONIA,-8.036364011277442,38.28760414811963
pt.ine.add.PTCONT.429830,R DR LUIS CERQUEIRA,376,7920-072,ALVITO,-7.995559671068965,38.26279803342207
pt.ine.add.PTCONT.429839,R PROF EGAS MONIZ,,7920-391,VILA NOVA DA BARONIA,-8.0359400413785,38.288396576466724
pt.ine.add.PTCONT.429842,R IGREJAS,3,7920-036,ALVITO,-7.994976000625597,38.2572568810929
pt.ine.add.PTCONT.429843,R PROF EGAS MONIZ,6,7920-391,VILA NOVA DA BARONIA,-8.03560746871098,38.28921610570295
pt.ine.add.PTCONT.429846,LG TRINDADE,5,7920-018,ALVITO,-7.994610938025875,38.25696816623057
pt.ine.add.PTCONT.429847,AV 1 DE MAIO,46,7920-351,VILA NOVA DA BARONIA,-8.040431012112172,38.289265059410255
pt.ine.add.PTCONT.429850,PC REPUBLICA,4,7920-028,ALVITO,-7.992143447201716,38.256776041444404
pt.ine.add.PTCONT.429852,R PINTO DE MELO,30,7920-390,VILA NOVA DA BARONIA,-8.037312068485885,38.28809140391855
pt.ine.add.PTCONT.429861,R OUTEIRO DAS PELES,36,7920-056,ALVITO,-7.9926990532953965,38.25897487719557
pt.ine.add.PTCONT.429864,R CRUZ,6,7920-035,ALVITO,-7.9937345485417,38.25521039414954
pt.ine.add.PTCONT.430405,LG IGREJA,3,7920-016,ALVITO,-7.99368540578508,38.25701211475528
pt.ine.add.PTCONT.430433,R ALBERTO ARAÚJO,26,7920-361,VILA NOVA DA BARONIA,-8.04038594406884,38.28875151947746
pt.ine.add.PTCONT.430969,LG GEN HUMBERTO DELGADO,27,7920-027,ALVITO,-7.98998397277666,38.25682748096949
pt.ine.add.PTCONT.430970,R CALÇADA,24,7920-034,ALVITO,-7.993091499314037,38.256903300930034
pt.ine.add.PTCONT.430997,R 1 MAIO,3A,7920-013,ALVITO,-7.995754549616595,38.256392941094944
pt.ine.add.PTCONT.430998,R CONDE FERREIRA,6,7920-033,ALVITO,-7.993378769568718,38.25604779836858
pt.ine.add.PTCONT.430999,LG ADRO,1,7920-021,ALVITO,-7.993549474310852,38.25639934839104
pt.ine.add.PTCONT.431000,R PENEDO,35,7920-050,ALVITO,-7.991427033891896,38.255036461963364
pt.ine.add.PTCONT.431001,BR CARDOSA,2,7920-352,VILA NOVA DA BARONIA,-8.035637434022176,38.292450305839544
pt.ine.add.PTCONT.431034,R PINTO DE MELO,36,7920-390,VILA NOVA DA BARONIA,-8.03758642766414,38.288064601069784
pt.ine.add.PTCONT.431035,R 25 DE ABRIL,,7920-392,VILA NOVA DA BARONIA,-8.039380695173264,38.28827325173149
pt.ine.add.PTCONT.431036,R MESTRE DE AVIZ,4,7920-387,VILA NOVA DA BARONIA,-8.039073254147064,38.28736311191593
pt.ine.add.PTCONT.431412,R ESPÍRITO SANTO,18,7920-048,ALVITO,-7.99358152747929,38.25756153377288
pt.ine.add.PTCONT.431452,R FÁBRICAS,6,7920-040,ALVITO,-7.989662542939063,38.257601853295355
pt.ine.add.PTCONT.431453,R CRUZ,52,7920-035,ALVITO,-7.9923771992681365,38.25405563544917
pt.ine.add.PTCONT.431454,SANTO ANTÓNIO,2,7920-020,ALVITO,-7.992480803783171,38.25365035922255
pt.ine.add.PTCONT.431471,TV CARRASCAL,3,7920-062,ALVITO,-7.993361063664792,38.259327014134605
pt.ine.add.PTCONT.431472,MOINHO DA AZINHEIRA,,7920-201,ALVITO,-8.035568452886707,38.232928525603434
pt.ine.add.PTCONT.431480,R NSA SRA ASSUNÇÃO,15,7920-013,ALVITO,-7.995114382191531,38.25658137686249
pt.ine.add.PTCONT.431481,R NSA SRA ASSUNÇÃO,16,7920-013,ALVITO,-7.995182797161912,38.25665352844467
pt.ine.add.PTCONT.431482,R 1 MAIO,1,7920-013,ALVITO,-7.995959491498531,38.25677155434948
pt.ine.add.PTCONT.431483,R LUIS DE CAMÕES,34,7920-385,VILA NOVA DA BARONIA,-8.03967725634894,38.28875996609382
pt.ine.add.PTCONT.431490,R SALVADOR,5,7920-051,ALVITO,-7.991927553176264,38.2561631771086
pt.ine.add.PTCONT.431491,R SALVADOR,5,7920-051,ALVITO,-7.991927553176264,38.2561631771086
pt.ine.add.PTCONT.431492,R 5 DE OUTUBRO,8,7920-368,VILA NOVA DA BARONIA,-8.036817381810486,38.290505369980586
pt.ine.add.PTCONT.431494,R 25 DE ABRIL,103,7920-392,VILA NOVA DA BARONIA,-8.040215121703815,38.28825589767879
pt.ine.add.PTCONT.432066,SIT ACAMINHO VIANA,,7920-301,VILA NOVA DA BARONIA,-8.03438721292171,38.2955933455185
pt.ine.add.PTCONT.432254,R ESPÍRITO SANTO,24,7920-048,ALVITO,-7.9937645740202,38.257435626765684
pt.ine.add.PTCONT.432384,R ALMEIDA GARRETT,4,7920-032,ALVITO,-7.993050405912976,38.258662137209015
pt.ine.add.PTCONT.432385,R PEREIRAS,8,7920-044,ALVITO,-7.992930715019072,38.25733553586136
pt.ine.add.PTCONT.432406,R 1 MAIO,13,7920-013,ALVITO,-7.9954688353450365,38.25643765081215
pt.ine.add.PTCONT.432407,R PENEDO,32,7920-050,ALVITO,-7.991872014367235,38.25534330080947
pt.ine.add.PTCONT.432408,R NOVA,24,7920-055,ALVITO,-7.99250082370186,38.255118833494315
pt.ine.add.PTCONT.432409,R PENEDO,66,7920-050,ALVITO,-7.991028581241436,38.25430625959238
pt.ine.add.PTCONT.432410,QTA PORTA NOVA,,7920-201,ALVITO,-7.99380526549465,38.25407535707075
pt.ine.add.PTCONT.432439,R MANUEL MARQUES BAIRRO DR TEÓFILO CASACA SIM SIM,22,7920-360,VILA NOVA DA BARONIA,-8.03709826586715,38.28553271547925
pt.ine.add.PTCONT.432440,R JOÃO DE DEUS,51,7920-379,VILA NOVA DA BARONIA,-8.038238544419588,38.287605678875316
pt.ine.add.PTCONT.433083,HORTA DA FÁBRICA B,,7920-301,VILA NOVA DA BARONIA,-8.046957477788622,38.27981974448499
pt.ine.add.PTCONT.433087,LG GEN HUMBERTO DELGADO,21 A,7920-027,ALVITO,-7.990108944132579,38.25718798904629
pt.ine.add.PTCONT.433089,R BEJA,48,7920-046,ALVITO,-7.990867000239593,38.25514389125837
pt.ine.add.PTCONT.433090,R JOÃO DE DEUS,1A,7920-379,VILA NOVA DA BARONIA,-8.035449604918568,38.28760339054122
pt.ine.add.PTCONT.433092,R JOÃO DE DEUS,47,7920-379,VILA NOVA DA BARONIA,-8.03791851393194,38.28759641080676
pt.ine.add.PTCONT.433097,R JOÃO DE DEUS,9,7920-379,VILA NOVA DA BARONIA,-8.036101119445753,38.287603931045794
pt.ine.add.PTCONT.433108,R 25 DE ABRIL,10,7920-392,VILA NOVA DA BARONIA,-8.03583743406628,38.28819829677206
pt.ine.add.PTCONT.433113,R PROF EGAS MONIZ,34,7920-391,VILA NOVA DA BARONIA,-8.036133983243207,38.288676011227246
pt.ine.add.PTCONT.433120,R JOAQUIM HENRIQUE DA SILVA,12,7920-382,VILA NOVA DA BARONIA,-8.037388991391085,38.290442775819535
pt.ine.add.PTCONT.433121,BR CASA DO POVO,,7920-353,VILA NOVA DA BARONIA,-8.037652530683715,38.28995651286764
pt.ine.add.PTCONT.433127,R PINTO DE MELO,45,7920-390,VILA NOVA DA BARONIA,-8.03792949694619,38.287938755999555
pt.ine.add.PTCONT.433132,,,7920-301,VILA NOVA DA BARONIA,-8.06729127791902,38.29044534403788
pt.ine.add.PTCONT.433133,,,7920-301,VILA NOVA DA BARONIA,-8.06729127791902,38.29044534403788
pt.ine.add.PTCONT.433134,,,7920-301,VILA NOVA DA BARONIA,-8.06729127791902,38.29044534403788
pt.ine.add.PTCONT.433136,R BEJA,51,7920-046,ALVITO,-7.9907753895709135,38.2552518869371
pt.ine.add.PTCONT.433137,R S LUZIA,2,7920-047,ALVITO,-7.9907753895709135,38.2552518869371
pt.ine.add.PTCONT.433138,R D JOÃO DE CASTRO,4,7920-372,VILA NOVA DA BARONIA,-8.038215965763678,38.28738944821642
pt.ine.add.PTCONT.433976,R ABRANTES,3,7920-045,ALVITO,-7.992485110246561,38.25734401163339
pt.ine.add.PTCONT.433945,R FRADES FRANCISCANOS,,7920-020,ALVITO,-7.992915255491073,38.25348871884342
pt.ine.add.PTCONT.433947,R CRATO,23,7920-023,ALVITO,-7.990659732665355,38.25597245823728
pt.ine.add.PTCONT.433948,R MESTRE DE AVIZ,41,7920-387,VILA NOVA DA BARONIA,-8.04015872909256,38.287661268956256
pt.ine.add.PTCONT.433952,TV SANTO ANTÓNIO,10,7920-035,ALVITO,-7.991646186443514,38.25396466757399
pt.ine.add.PTCONT.433958,R MQ DE POMBAL,4A,7920-386,VILA NOVA DA BARONIA,-8.036833168162092,38.287208144645085
pt.ine.add.PTCONT.433965,VALE DOS LAMEIROS,,7920-201,ALVITO,-8.00001338367452,38.232848549558916
pt.ine.add.PTCONT.433984,R 25 DE ABRIL,74,7920-392,VILA NOVA DA BARONIA,-8.038454721451393,38.28837160566489
pt.ine.add.PTCONT.433986,R CRUZ,27,7920-035,ALVITO,-7.99298155481613,38.25465995476112
pt.ine.add.PTCONT.433987,R CRUZ,27,7920-035,ALVITO,-7.99298155481613,38.25465995476112
pt.ine.add.PTCONT.433988,MTE DA BULETA,,7920-301,VILA NOVA DA BARONIA,-8.120580767926118,38.28865235812389
pt.ine.add.PTCONT.434503,LG CASTELO,,7920-069,ALVITO,-7.992152975386657,38.257758022224124
pt.ine.add.PTCONT.434799,LG PORTA NOVA,3,7920-017,ALVITO,-7.994190964840191,38.25551723778247
pt.ine.add.PTCONT.434800,MTE TAPADINHA,,7920-201,ALVITO,-8.011018827242571,38.25626567177291
pt.ine.add.PTCONT.434801,R CRUZ,17,7920-035,ALVITO,-7.9931868402324495,38.25484938653635
pt.ine.add.PTCONT.434830,MTE ZAMBUJOSA,,7920-201,ALVITO,-8.01935422747353,38.23013917973285
pt.ine.add.PTCONT.434831,MTE ASSENTES DA CONCHA,,7920-201,ALVITO,-7.951857305124208,38.19722572557582
pt.ine.add.PTCONT.434832,MTE PINGUEIRINHA,,7920-201,ALVITO,-8.019288611000222,38.17694110182578
pt.ine.add.PTCONT.434833,AV 1 DE MAIO,6,7920-301,VILA NOVA DA BARONIA,-8.037010453527252,38.29145145696158
pt.ine.add.PTCONT.434834,MTE CONDE,,7920-301,VILA NOVA DA BARONIA,-8.026023676274566,38.29273020754609
pt.ine.add.PTCONT.434835,LG GEN HUMBERTO DELGADO,9,7920-356,VILA NOVA DA BARONIA,-8.035690744396625,38.286774776788995
pt.ine.add.PTCONT.434865,LG PROF ABEL SALAZAR,4,7920-358,VILA NOVA DA BARONIA,-8.038820208156686,38.28858811232681
pt.ine.add.PTCONT.435339,R VASCO DA GAMA,5,7920-058,ALVITO,-7.988806906117751,38.25696117290864
pt.ine.add.PTCONT.435692,HORTA MONTE NOVO,,7920-201,ALVITO,-7.976264161372045,38.23998131150407
pt.ine.add.PTCONT.435726,R CALÇADA,15,7920-034,ALVITO,-7.992794460122386,38.25689393725545
pt.ine.add.PTCONT.435727,R PARREIRA,4,7920-039,ALVITO,-7.992395427731442,38.2564520236694
pt.ine.add.PTCONT.435728,LG ADRO,5,7920-021,ALVITO,-7.993836066576696,38.25589519074991
pt.ine.add.PTCONT.435729,HORTA DA CALÇADA,,7920-201,ALVITO,-7.99945748699693,38.24951441689551
pt.ine.add.PTCONT.435730,R CRUZ,54,7920-035,ALVITO,-7.992297364711708,38.253983468501765
pt.ine.add.PTCONT.435731,HORTA DA FONTE DA TELHA,,7920-201,ALVITO,-7.9895837774452785,38.245367668564775
pt.ine.add.PTCONT.435732,HRD FONTE DA TELHA,,7920-201,ALVITO,-7.988232791258573,38.24113181900394
pt.ine.add.PTCONT.435781,R JOAQUIM HENRIQUE DA SILVA,8,7920-382,VILA NOVA DA BARONIA,-8.037308776387333,38.2905958607159
pt.ine.add.PTCONT.435782,R PINTO DE MELO,13,7920-390,VILA NOVA DA BARONIA,-8.036352102803901,38.287964492275805
pt.ine.add.PTCONT.435783,R MESTRE DE AVIZ,21,7920-387,VILA NOVA DA BARONIA,-8.039359086334743,38.28730027871059
pt.ine.add.PTCONT.435828,R CAMPO DA FEIRA,44,7920-360,VILA NOVA DA BARONIA,-8.037670484974054,38.28497463343376
pt.ine.add.PTCONT.435829,MTE MOINHO,,7920-301,VILA NOVA DA BARONIA,-8.014093137096587,38.28370085503202
pt.ine.add.PTCONT.435830,R 25 DE ABRIL,22,7920-392,VILA NOVA DA BARONIA,-8.036511575457757,38.28837903073027
pt.ine.add.PTCONT.436222,R DR LUIS CERQUEIRA,346,7920-072,ALVITO,-7.995388618603645,38.26261765510014
pt.ine.add.PTCONT.436512,R LATINO COELHO,7,7920-384,VILA NOVA DA BARONIA,-8.03514174355884,38.287044585174165
pt.ine.add.PTCONT.436543,R PROF EGAS MONIZ,30,7920-391,VILA NOVA DA BARONIA,-8.036179045239804,38.289171535085714
pt.ine.add.PTCONT.437342,R CRATO,13,7920-023,ALVITO,-7.990819034097128,38.25630598059525
pt.ine.add.PTCONT.437343,R CRATO,13,7920-023,ALVITO,-7.990819034097128,38.25630598059525
pt.ine.add.PTCONT.437348,R MESTRE DE AVIZ,13,7920-387,VILA NOVA DA BARONIA,-8.039130648301862,38.287173972045515
pt.ine.add.PTCONT.437356,MTE DO SERRANITO,,7920-201,ALVITO,-7.941813904038623,38.27905580249485
pt.ine.add.PTCONT.437357,QTA POÇO NOVO,,7920-201,ALVITO,-7.990870810933113,38.2531889650909
pt.ine.add.PTCONT.437358,MTE POMBAL,3,7920-201,ALVITO,-8.000845927601107,38.23983140824544
pt.ine.add.PTCONT.437376,R ABRANTES,,7920-045,ALVITO,-7.99251928205074,38.2573981059335
pt.ine.add.PTCONT.437377,AV 1 DE MAIO,77,7920-351,VILA NOVA DA BARONIA,-8.040694355493075,38.288913922081456
pt.ine.add.PTCONT.437380,LG ADRO,2,7920-021,ALVITO,-7.9936410134468145,38.25632738605928
pt.ine.add.PTCONT.437387,,,7920-201,ALVITO,-7.960098623644621,38.298849585841175
pt.ine.add.PTCONT.437391,R NOVA,28,7920-055,ALVITO,-7.99240952816096,38.25506467069578
pt.ine.add.PTCONT.437392,TV JOAQUIM LOPES,10,7920-066,ALVITO,-7.99252494069128,38.25446121291922
pt.ine.add.PTCONT.437396,HORTA CRUZ VIEIRA,,7920-301,VILA NOVA DA BARONIA,-8.039668835566017,38.29532740597641
pt.ine.add.PTCONT.437971,BR CARDOSA,12,7920-352,VILA NOVA DA BARONIA,-8.034209398307752,38.29184551825454
pt.ine.add.PTCONT.438204,R 1 MAIO,14,7920-013,ALVITO,-7.995686100388596,38.256338807591995
pt.ine.add.PTCONT.438285,MTE AZINHAIS,,7920-201,ALVITO,-7.9423093890974075,38.22944463955976
pt.ine.add.PTCONT.438262,R RAINHA SANTA ISABEL,,7920-024,ALVITO,-7.988178731694372,38.25685229208311
pt.ine.add.PTCONT.438263,R RAINHA SANTA ISABEL,,7920-024,ALVITO,-7.988167485414271,38.25676218926036
pt.ine.add.PTCONT.438264,MTE DA COVA FUNDA,,7920-301,VILA NOVA DA BARONIA,-8.009166076947105,38.29098391179216
pt.ine.add.PTCONT.438267,R NOVA,39,7920-055,ALVITO,-7.991599473990406,38.2544871273182
pt.ine.add.PTCONT.438272,R PENEDO,13,7920-050,ALVITO,-7.991871316853322,38.25570365579546
pt.ine.add.PTCONT.438273,R CRUZ,67,7920-035,ALVITO,-7.992046106340714,38.253938122266725
pt.ine.add.PTCONT.438277,R NOVA,64,7920-055,ALVITO,-7.991485732333155,38.25422573208709
pt.ine.add.PTCONT.438284,R DR LUIS CERQUEIRA,320,7920-072,ALVITO,-7.99525203261059,38.262338219279926
pt.ine.add.PTCONT.438289,R S MIGUEL,96,7920-030,ALVITO,-7.996120382621327,38.26235725394763
pt.ine.add.PTCONT.438299,BR CARDOSA,15,7920-352,VILA NOVA DA BARONIA,-8.034381189012874,38.29160242417948
pt.ine.add.PTCONT.438305,R ALMEIDA GARRETT,6,7920-363,VILA NOVA DA BARONIA,-8.038145577800863,38.288776754020446
pt.ine.add.PTCONT.438309,R PARREIRA,19,7920-039,ALVITO,-7.993286177441956,38.256669301804614
pt.ine.add.PTCONT.438310,R PARREIRA,19,7920-039,ALVITO,-7.993286177441956,38.256669301804614
pt.ine.add.PTCONT.438311,R PARREIRA,19,7920-039,ALVITO,-7.993286177441956,38.256669301804614
pt.ine.add.PTCONT.438316,R 5 DE OUTUBRO,5,7920-368,VILA NOVA DA BARONIA,-8.036657568941344,38.29034307948869
pt.ine.add.PTCONT.438318,R PINTO DE MELO,65,7920-390,VILA NOVA DA BARONIA,-8.038775326780403,38.287939439133396
pt.ine.add.PTCONT.439068,SANTO ANTÓNIO,8,7920-020,ALVITO,-7.992251822048544,38.25390233376501
pt.ine.add.PTCONT.439069,MTE DO CONDE,,7920-301,VILA NOVA DA BARONIA,-8.014745002312623,38.29753909815639
pt.ine.add.PTCONT.439070,MTE TOSCANOS,,7920-301,VILA NOVA DA BARONIA,-8.094396313102656,38.284376443457944
pt.ine.add.PTCONT.439079,R SALVADOR,10,7920-051,ALVITO,-7.991882061882571,38.25605501563525
pt.ine.add.PTCONT.439089,R INF D HENRIQUE MONTE DA ESTEBAINHA,,7920-378,VILA NOVA DA BARONIA,-8.03777055743081,38.295848391257714
pt.ine.add.PTCONT.439092,R JOÃO DE DEUS,19A,7920-054,ALVITO,-7.994129652756371,38.25771533536379
pt.ine.add.PTCONT.439098,AV 1 DE MAIO,17,7920-351,VILA NOVA DA BARONIA,-8.035351046664339,38.29290951848577
pt.ine.add.PTCONT.439109,,,7920-201,ALVITO,-7.960315486122308,38.298994046675645
pt.ine.add.PTCONT.439119,MTE DA BOAVISTA,,7920-301,VILA NOVA DA BARONIA,-8.051517739697761,38.28990391275619
pt.ine.add.PTCONT.439656,R LOBOS,18,7920-053,ALVITO,-7.9934482686585255,38.25555239185391
pt.ine.add.PTCONT.439842,R ESPÍRITO SANTO,10,7920-048,ALVITO,-7.993135627581866,38.257723162835106
pt.ine.add.PTCONT.439864,R VASCO DA GAMA,,7920-058,ALVITO,-7.98867026670982,38.25672677358623
pt.ine.add.PTCONT.439870,R D JOÃO DE CASTRO,5,7920-372,VILA NOVA DA BARONIA,-8.038067492634301,38.28729923953419
pt.ine.add.PTCONT.439872,R MANUEL MARQUES-BAIRRO DR TEÓFILO CASACA SIM SIM,34,7920-360,VILA NOVA DA BARONIA,-8.036754372836006,38.28628917715461
pt.ine.add.PTCONT.439880,QTA PEGO DA FONTE,,7920-201,ALVITO,-7.976721545343893,38.245089976153594
pt.ine.add.PTCONT.439884,R RAUL CARVALHO,,7920-201,ALVITO,-7.995545397579507,38.25824852811106
pt.ine.add.PTCONT.439886,R CAMPO DA FEIRA,47,7920-360,VILA NOVA DA BARONIA,-8.038093347455217,38.285002003207225
pt.ine.add.PTCONT.439888,MTE GALAZ,,7920-301,VILA NOVA DA BARONIA,-8.038854525585066,38.24435452747749
pt.ine.add.PTCONT.439893,R GIL VICENTE,,7920-377,VILA NOVA DA BARONIA,-8.038316574781435,38.289128237365404
pt.ine.add.PTCONT.439909,MTE RATOEIRA,,7920-201,ALVITO,-8.01037356274119,38.259508200383685
pt.ine.add.PTCONT.439912,QTA DE SANTO ANTÓNIO,,7920-301,VILA NOVA DA BARONIA,-8.03285768275021,38.293943431014355
pt.ine.add.PTCONT.440981,R BEJA,36,7920-046,ALVITO,-7.99096935118257,38.25538725546027
pt.ine.add.PTCONT.440982,R HORTAS,1,7920-042,ALVITO,-7.988923704449755,38.25567304460752
pt.ine.add.PTCONT.440983,R ALMEIDA GARRETT,15,7920-032,ALVITO,-7.9933963239120365,38.25881354937089
pt.ine.add.PTCONT.441011,R NOVA,70,7920-055,ALVITO,-7.991337454576321,38.25409942848694
pt.ine.add.PTCONT.441040,R C BR DR TEÓFILO CASACA SIM-SIM,12,7920-360,VILA NOVA DA BARONIA,-8.037693073071546,38.28518185543986
pt.ine.add.PTCONT.441041,R 25 DE ABRIL,65,7920-392,VILA NOVA DA BARONIA,-8.03885495324215,38.28823679514982
pt.ine.add.PTCONT.441190,TV PRIOR LAMPREIA,3,7920-067,ALVITO,-7.99179006770168,38.25636120730685
pt.ine.add.PTCONT.441208,R OUTEIRO DAS PELES,30,7920-056,ALVITO,-7.9923335913477445,38.25889335934097
pt.ine.add.PTCONT.441218,R CATARINA EUFEMIA,16,7920-367,VILA NOVA DA BARONIA,-8.038537433184008,38.28629062795978
pt.ine.add.PTCONT.441399,R VASCO DA GAMA,,7920-058,ALVITO,-7.98892179959949,38.256636993967184
pt.ine.add.PTCONT.441430,HORTA DA FÁBRICA A,,7920-301,VILA NOVA DA BARONIA,-8.046844201846975,38.27896381927683
pt.ine.add.PTCONT.441434,R AVIADORES,5,7920-052,ALVITO,-7.989413633507746,38.256358321519095
pt.ine.add.PTCONT.441447,R NOVA,50,7920-055,ALVITO,-7.9917251650345955,38.25447826991386
pt.ine.add.PTCONT.441451,R S SEBASTIÃO,10,7920-046,ALVITO,-7.99037458089226,38.255728871597874
pt.ine.add.PTCONT.441452,LG CADEIROES,6,7920-025,ALVITO,-7.990082720741774,38.253079900480515
pt.ine.add.PTCONT.441462,AV BOMBEIROS VOLUNTARIOS,28,7920-011,ALVITO,-7.994001757835582,38.25887733084158
pt.ine.add.PTCONT.441465,R PROF EGAS MONIZ,51,7920-391,VILA NOVA DA BARONIA,-8.035951663736224,38.288252444515095
pt.ine.add.PTCONT.442164,R BEJA,18,7920-046,ALVITO,-7.9912652281505405,38.25599120943847
pt.ine.add.PTCONT.442174,R TULIO ESPANCA,6,7920-360,VILA NOVA DA BARONIA,-8.03740623050784,38.28601944512819
pt.ine.add.PTCONT.442187,R BEJA,2,7920-046,ALVITO,-7.991492751131172,38.256495982311755
pt.ine.add.PTCONT.442195,R ALEXANDRE HERCULANO,9,7920-031,ALVITO,-7.991512297187019,38.25819868663604
pt.ine.add.PTCONT.442200,QTA ROSAS MONTE CONDE,,7920-301,VILA NOVA DA BARONIA,-8.0211085295826,38.300076827650706
pt.ine.add.PTCONT.442760,R PENEDO,50,7920-050,ALVITO,-7.9913819289918,38.254730105016385
pt.ine.add.PTCONT.442783,HORTA DO RIO SECO,,7920-301,VILA NOVA DA BARONIA,-8.093335858744714,38.237881192250725
pt.ine.add.PTCONT.443027,R BEJA,33,7920-046,ALVITO,-7.990980039182215,38.2557656420149
pt.ine.add.PTCONT.443020,LG GEN HUMBERTO DELGADO,12,7920-027,ALVITO,-7.9908745617713635,38.25712585723617
pt.ine.add.PTCONT.443024,R PENEDO,33,7920-050,ALVITO,-7.991495426281549,38.255117624579505
pt.ine.add.PTCONT.443030,R NOVA,48,7920-055,ALVITO,-7.991805051900104,38.254523410615924
pt.ine.add.PTCONT.443033,HRD SESMARIAS,,7920-201,ALVITO,-7.986249528391424,38.30708326598284
pt.ine.add.PTCONT.443034,HORTA DA FONTE DA TELHA,,7920-201,ALVITO,-7.989667618535047,38.243394819210565
pt.ine.add.PTCONT.443039,R JOAQUIM CORREIA,34,7920-381,VILA NOVA DA BARONIA,-8.038218053499866,38.285785874361494
pt.ine.add.PTCONT.443040,HRD MELHEIRAS,,7920-201,ALVITO,-8.055139714417244,38.216438765742346
pt.ine.add.PTCONT.443043,MTE CALCADINHA,,7920-301,VILA NOVA DA BARONIA,-8.030206760445292,38.28507643096329
pt.ine.add.PTCONT.443048,HORTA DE S NEUTEL,,7920-301,VILA NOVA DA BARONIA,-8.041581555769174,38.26507715725075
pt.ine.add.PTCONT.443050,R ABRANTES,9,7920-045,ALVITO,-7.992804499478367,38.257614660703354
pt.ine.add.PTCONT.443051,R PROF EGAS MONIZ,1,7920-391,VILA NOVA DA BARONIA,-8.0366000107621,38.290649332893885
pt.ine.add.PTCONT.443052,BR CARDOSA,4,7920-352,VILA NOVA DA BARONIA,-8.035752007210895,38.29225220644187
pt.ine.add.PTCONT.443055,R CALÇADA,9,7920-034,ALVITO,-7.9925772589293205,38.2569567396112
pt.ine.add.PTCONT.443056,BR CARDOSA,,7920-352,VILA NOVA DA BARONIA,-8.03531760022177,38.29227887167528
pt.ine.add.PTCONT.443065,R D NUNO ÁLVARES PEREIRA,6,7920-373,VILA NOVA DA BARONIA,-8.038154073603339,38.29102897246204
pt.ine.add.PTCONT.443071,R CONDE FERREIRA,10,7920-033,ALVITO,-7.993527020348105,38.25619211711045
pt.ine.add.PTCONT.443080,R OUTEIRO DAS PELES,28,7920-056,ALVITO,-7.992242221640403,38.25887523191696
pt.ine.add.PTCONT.443083,ESTR HORTAS,1,7920-014,ALVITO,-7.989079600694875,38.257727263776154
pt.ine.add.PTCONT.443084,R CRUZ,10,7920-035,ALVITO,-7.993620539786296,38.25508413414477
pt.ine.add.PTCONT.443085,HRD S SEBASTIAO,,7920-301,VILA NOVA DA BARONIA,-8.053120829306332,38.297742708395134
pt.ine.add.PTCONT.443086,QTA DOS SACRIFICIOS,,7920-301,VILA NOVA DA BARONIA,-8.032098523648786,38.29733911140365
pt.ine.add.PTCONT.443087,HORTA DO BARÃO,,7920-301,VILA NOVA DA BARONIA,-8.05713848841592,38.27088097061779
pt.ine.add.PTCONT.443601,GUARDA DO SOBRAL,,7920-301,VILA NOVA DA BARONIA,-8.037223797691487,38.303055010857115
pt.ine.add.PTCONT.443616,R ALMEIDA GARRETT,19,7920-032,ALVITO,-7.993464722023407,38.258894710798025
pt.ine.add.PTCONT.443624,LG GEN HUMBERTO DELGADO,12,7920-027,ALVITO,-7.9908745617713635,38.25712585723617
pt.ine.add.PTCONT.443986,R HORTAS,5,7920-042,ALVITO,-7.9887865503214455,38.255699902701245
pt.ine.add.PTCONT.443987,R PEREIRAS,5,7920-044,ALVITO,-7.992725128624631,38.257299254536534
pt.ine.add.PTCONT.443988,R PEREIRAS,5,7920-044,ALVITO,-7.992725128624631,38.257299254536534
pt.ine.add.PTCONT.444032,R CRUZ,71,7920-035,ALVITO,-7.991966272240637,38.2538659550935
pt.ine.add.PTCONT.444033,HORTA DA ROSA,,7920-201,ALVITO,-8.009304547865387,38.24309285503831
pt.ine.add.PTCONT.444034,MOINHO DA AZINHEIRA,,7920-201,ALVITO,-8.035534633713597,38.23259516693554
pt.ine.add.PTCONT.444035,R INF D HENRIQUE,18,7920-378,VILA NOVA DA BARONIA,-8.03857719343157,38.29088517264083
pt.ine.add.PTCONT.444036,R 5 DE OUTUBRO,9,7920-368,VILA NOVA DA BARONIA,-8.036657795481386,38.290171911608105
pt.ine.add.PTCONT.444037,R 5 DE OUTUBRO,69,7920-368,VILA NOVA DA BARONIA,-8.03698147322862,38.28742447865364
pt.ine.add.PTCONT.444038,R JOAQUIM CORREIA,40,7920-381,VILA NOVA DA BARONIA,-8.038229846828795,38.28550660946179
pt.ine.add.PTCONT.444039,R IRMA MARIA PIA BAIRRO DR TEÓFILO CASACA SIM SIM,15,7920-360,VILA NOVA DA BARONIA,-8.037418287185009,38.285541985776476
pt.ine.add.PTCONT.444356,R CAMPO DA FEIRA,7D,7920-360,VILA NOVA DA BARONIA,-8.037099037190577,38.28494714064118
pt.ine.add.PTCONT.444594,R PENEDO,55,7920-050,ALVITO,-7.991073842223046,38.254531536811704
pt.ine.add.PTCONT.444556,R ESPÍRITO SANTO,4,7920-048,ALVITO,-7.9927354273299756,38.25788484487056
pt.ine.add.PTCONT.444557,R ESPÍRITO SANTO,19,7920-048,ALVITO,-7.993536153500956,38.257390310853545
pt.ine.add.PTCONT.444591,R ALEXANDRE HERCULANO,3,7920-031,ALVITO,-7.991740701510489,38.258253015354164
pt.ine.add.PTCONT.444592,R CALÇADA,22,7920-034,ALVITO,-7.993022895920068,38.256930245738296
pt.ine.add.PTCONT.444593,PC REPUBLICA,29,7920-028,ALVITO,-7.991572587631351,38.256568149779376
pt.ine.add.PTCONT.444595,R PENEDO,55,7920-050,ALVITO,-7.991073842223046,38.254531536811704
pt.ine.add.PTCONT.444661,,,7920-301,VILA NOVA DA BARONIA,-8.045769608341136,38.288746641933635
pt.ine.add.PTCONT.444627,MTE PALHETA,,7920-201,ALVITO,-7.932641754902719,38.20647373025076
pt.ine.add.PTCONT.444628,R CUSTÓDIO SANTOS COELHO,7,7920-369,VILA NOVA DA BARONIA,-8.038051773849924,38.29058745622185
pt.ine.add.PTCONT.444629,BR CASA DO POVO,,7920-353,VILA NOVA DA BARONIA,-8.03758380628666,38.29006456308412
pt.ine.add.PTCONT.444630,QTA FONTE COBERTA,,7920-301,VILA NOVA DA BARONIA,-8.037196093191929,38.28067702174989
pt.ine.add.PTCONT.445156,QTA SACRIFICIO,,7920-201,ALVITO,-7.988121449314452,38.26842863770403
pt.ine.add.PTCONT.445308,R ESPÍRITO SANTO,8,7920-048,ALVITO,-7.9930326953946915,38.25777709337073
pt.ine.add.PTCONT.445336,R PENEDO,45,7920-050,ALVITO,-7.991199042837002,38.25477492849123
pt.ine.add.PTCONT.445337,R PINTO DE MELO,9,7920-390,VILA NOVA DA BARONIA,-8.03612354803359,38.28792826816769
pt.ine.add.PTCONT.445348,LG GEN HUMBERTO DELGADO,12,7920-356,VILA NOVA DA BARONIA,-8.036067740816167,38.286919230827344
pt.ine.add.PTCONT.445362,R ALMEIDA GARRETT,11,7920-032,ALVITO,-7.993327925952692,38.25873238790306
pt.ine.add.PTCONT.445373,R LUIS DE CAMÕES,44,7920-385,VILA NOVA DA BARONIA,-8.039963323776815,38.28851695465386
pt.ine.add.PTCONT.445379,R PARREIRA,1,7920-039,ALVITO,-7.992509818406072,38.2563800896195
pt.ine.add.PTCONT.445383,LG ALCACARIAS,4,7920-019,ALVITO,-7.990266746500614,38.25828726606338
pt.ine.add.PTCONT.445902,R JOAQUIM CORREIA,9,7920-381,VILA NOVA DA BARONIA,-8.038012223156834,38.28585777852972
pt.ine.add.PTCONT.445905,LG ALCACARIAS,4,7920-019,ALVITO,-7.990266746500614,38.25828726606338
pt.ine.add.PTCONT.445922,SANTO ANTÓNIO,5,7920-020,ALVITO,-7.992366295738003,38.253785355428896
pt.ine.add.PTCONT.446103,R ESPÍRITO SANTO,21,7920-048,ALVITO,-7.993764746073003,38.25734553804063
pt.ine.add.PTCONT.446208,R PENEDO,25,7920-050,ALVITO,-7.991666346799853,38.255352062003865
pt.ine.add.PTCONT.446209,R HORTAS,17,7920-042,ALVITO,-7.988192250388871,38.25579826817245
pt.ine.add.PTCONT.446210,LG TRINDADE,3,7920-018,ALVITO,-7.994531269180687,38.25680591209202
pt.ine.add.PTCONT.446211,R NOVA,31,7920-055,ALVITO,-7.991964425132949,38.254820896002805
pt.ine.add.PTCONT.446212,AV 1 DE MAIO,52,7920-351,VILA NOVA DA BARONIA,-8.040648325755276,38.28915712470425
pt.ine.add.PTCONT.446255,R MESTRE DE AVIZ,,7920-387,VILA NOVA DA BARONIA,-8.040067334375752,38.28762516111364
pt.ine.add.PTCONT.446256,R MQ DE POMBAL,25,7920-386,VILA NOVA DA BARONIA,-8.03597585681481,38.28725248225978
pt.ine.add.PTCONT.446257,R JOAQUIM CORREIA,19,7920-381,VILA NOVA DA BARONIA,-8.038047029554287,38.28546141721378
pt.ine.add.PTCONT.446258,QTA FONTE COBERTA,,7920-301,VILA NOVA DA BARONIA,-8.036968594446066,38.27985702920623
pt.ine.add.PTCONT.446259,AV 1 DE MAIO,,7920-351,VILA NOVA DA BARONIA,-8.04090024882748,38.28879696905724
pt.ine.add.PTCONT.446260,R CAMILO CASTELO BRANCO,13,7920-366,VILA NOVA DA BARONIA,-8.040168183190929,38.28921079841209
pt.ine.add.PTCONT.446261,R ALMEIDA GARRETT,4,7920-363,VILA NOVA DA BARONIA,-8.03805408868776,38.28881271532368
pt.ine.add.PTCONT.446262,R PINTO DE MELO,34,7920-390,VILA NOVA DA BARONIA,-8.037483544473305,38.288073526108384
pt.ine.add.PTCONT.446293,R JOÃO DE DEUS,77,7920-379,VILA NOVA DA BARONIA,-8.039472946855055,38.287642705940456
pt.ine.add.PTCONT.447046,MTE CANADA REAL,,7920-301,VILA NOVA DA BARONIA,-8.047092381319013,38.281720713098245
pt.ine.add.PTCONT.447050,R MESTRE DE AVIZ,27,7920-387,VILA NOVA DA BARONIA,-8.039633256925752,38.28741761252376
pt.ine.add.PTCONT.447056,R S LUZIA,11,7920-047,ALVITO,-7.990226513708817,38.255494460136354
pt.ine.add.PTCONT.447057,TV SANTO ANTÓNIO,10,7920-035,ALVITO,-7.991623004979223,38.25413580868821
pt.ine.add.PTCONT.447064,R JOAQUIM CORREIA,22,7920-381,VILA NOVA DA BARONIA,-8.038183341736389,38.2861101649668
pt.ine.add.PTCONT.447066,MTE RUIVO,,7920-201,ALVITO,-8.004799619915264,38.20648467690274
pt.ine.add.PTCONT.447067,R JOAQUIM CORREIA,11,7920-381,VILA NOVA DA BARONIA,-8.038023805744588,38.285740672833846
pt.ine.add.PTCONT.447068,R C BR DR TEÓFILO CASACA SIM-SIM,8,7920-360,VILA NOVA DA BARONIA,-8.037680923901009,38.285731385596534
pt.ine.add.PTCONT.447072,R INF D HENRIQUE,45,7920-378,VILA NOVA DA BARONIA,-8.038861070810063,38.292344833706665
pt.ine.add.PTCONT.447073,QTA CHAFARIZ,,7920-301,VILA NOVA DA BARONIA,-8.034355714965413,38.2935302949115
pt.ine.add.PTCONT.447080,SIT BURAQUINHO,,7920-301,VILA NOVA DA BARONIA,-8.03299146973668,38.28808779651696
pt.ine.add.PTCONT.447081,MTE AIRES,,7920-301,VILA NOVA DA BARONIA,-8.036429626799928,38.263982950649066
pt.ine.add.PTCONT.447086,R NSA SRA DA CONCEIÇÃO,4,7920-389,VILA NOVA DA BARONIA,-8.036934231368225,38.28857757262391
pt.ine.add.PTCONT.447102,R AVIADORES,7,7920-052,ALVITO,-7.989196466557843,38.2564030998762
pt.ine.add.PTCONT.447103,R AVIADORES,9,7920-052,ALVITO,-7.989196466557843,38.2564030998762
pt.ine.add.PTCONT.447104,ROSSIO DE S SEBASTIÃO,3,7920-029,ALVITO,-7.990032765171964,38.25525098389886
pt.ine.add.PTCONT.447638,R JOSE DIAS COELHO,16,7920-383,VILA NOVA DA BARONIA,-8.034421910263568,38.28685479603642
pt.ine.add.PTCONT.447830,R ESPÍRITO SANTO,12,7920-048,ALVITO,-7.993341439727132,38.2576423281066
pt.ine.add.PTCONT.447855,R CRUZ,44,7920-035,ALVITO,-7.992571108634797,38.25421802798299
pt.ine.add.PTCONT.447867,R FRADES FRANCISCANOS,,7920-201,ALVITO,-7.992538708429938,38.25324502814516
pt.ine.add.PTCONT.447868,R 5 DE OUTUBRO,67,7920-368,VILA NOVA DA BARONIA,-8.036946969121612,38.28758660967603
pt.ine.add.PTCONT.447873,QTA ZE DA QUINTA,,7920-201,ALVITO,-7.99261865379604,38.24138940051648
pt.ine.add.PTCONT.447878,R D NUNO ÁLVARES PEREIRA,5,7920-373,VILA NOVA DA BARONIA,-8.037582601782876,38.290983464320924
pt.ine.add.PTCONT.447890,R PROF EGAS MONIZ,42,7920-391,VILA NOVA DA BARONIA,-8.036100136180371,38.28834265585932
pt.ine.add.PTCONT.447893,LG GEN TEÓFILO DA TRINDADE,4,7920-357,VILA NOVA DA BARONIA,-8.037849109219458,38.288226973926584
pt.ine.add.PTCONT.447895,R MANHAS,32,7920-043,ALVITO,-7.993527589062024,38.25589482425232
pt.ine.add.PTCONT.447896,R DR ERNESTO GOIS,15,7920-375,VILA NOVA DA BARONIA,-8.036601991144565,38.289153866059166
pt.ine.add.PTCONT.447902,R PINTO DE MELO,87,7920-390,VILA NOVA DA BARONIA,-8.040009804199752,38.287922407514834
pt.ine.add.PTCONT.447903,R PINTO DE MELO,,7920-390,VILA NOVA DA BARONIA,-8.039209683448211,38.28793077872213
pt.ine.add.PTCONT.448452,VINHA DA MARECA,,7920-201,ALVITO,-7.983820373103538,38.25387389323536
pt.ine.add.PTCONT.448492,R ALBERTO ARAÚJO,,7920-361,VILA NOVA DA BARONIA,-8.03957371338703,38.289282396757265
pt.ine.add.PTCONT.448682,R FRADES FRANCISCANOS,,7920-201,ALVITO,-7.992481758652567,38.25315487092426
pt.ine.add.PTCONT.448672,MTE DA SERRA,,7920-301,VILA NOVA DA BARONIA,-8.01402606960556,38.28977275152388
pt.ine.add.PTCONT.448674,R PINTO DE MELO,5,7920-390,VILA NOVA DA BARONIA,-8.035643530749473,38.287891834984215
pt.ine.add.PTCONT.448678,R MESTRE DE AVIZ,1,7920-387,VILA NOVA DA BARONIA,-8.038856526038138,38.28702060168975
pt.ine.add.PTCONT.448683,MOINHO DA PONTE,,7920-201,ALVITO,-7.9793143546734475,38.23981417848379
pt.ine.add.PTCONT.448684,LG GEN HUMBERTO DELGADO,6,7920-356,VILA NOVA DA BARONIA,-8.035541829444844,38.287017892015875
pt.ine.add.PTCONT.448691,HRD HERDADE MAROTEIRA,,7920-201,ALVITO,-8.049942184356766,38.17796681310242
pt.ine.add.PTCONT.448703,R LUIS DE CAMÕES,28,7920-385,VILA NOVA DA BARONIA,-8.039494187005898,38.28890396172932
pt.ine.add.PTCONT.448708,R SALVADOR,3,7920-051,ALVITO,-7.992041926439825,38.25610025238507
pt.ine.add.PTCONT.448711,MTE DE S BRISSOS,,7920-301,VILA NOVA DA BARONIA,-8.151428477351326,38.323912133088925
pt.ine.add.PTCONT.449319,TV S SEBASTIÃO,2,7920-395,VILA NOVA DA BARONIA,-8.038921962574435,38.28945304343522
pt.ine.add.PTCONT.449590,R ALEXANDRE HERCULANO,9,7920-031,ALVITO,-7.991261024801738,38.25815333872543
pt.ine.add.PTCONT.449591,R BEJA,5,7920-046,ALVITO,-7.991309895630061,38.256522788191546
pt.ine.add.PTCONT.449592,R ALMEIDA GARRETT,13,7920-032,ALVITO,-7.993407835713109,38.258768518621935
pt.ine.add.PTCONT.449593,R NSA SRA ASSUNÇÃO,23,7920-013,ALVITO,-7.995387532745352,38.257140249159754
pt.ine.add.PTCONT.449631,HORTA DA ROSA,,7920-201,ALVITO,-8.008482423306788,38.242893788782595
pt.ine.add.PTCONT.449632,R LIBERDADE,9,7920-370,VILA NOVA DA BARONIA,-8.03862442255059,38.289723069594615
pt.ine.add.PTCONT.449672,R 25 DE ABRIL,27,7920-392,VILA NOVA DA BARONIA,-8.037266075377836,38.288298569878584
pt.ine.add.PTCONT.449694,MTE BARRAS,,7920-301,VILA NOVA DA BARONIA,-8.100352290207681,38.281792714839405
pt.ine.add.PTCONT.449695,MTE BARRAS,,7920-301,VILA NOVA DA BARONIA,-8.100352290207681,38.281792714839405
pt.ine.add.PTCONT.450113,R BEJA,37,7920-046,ALVITO,-7.990946009699258,38.25563947626275
pt.ine.add.PTCONT.450122,R JOSE DIAS COELHO,9,7920-383,VILA NOVA DA BARONIA,-8.034364382094664,38.28713402199845
pt.ine.add.PTCONT.450150,R STA ÁGUEDA,,7920-353,VILA NOVA DA BARONIA,-8.038063885863142,38.290064952989724
pt.ine.add.PTCONT.450467,R PENEDO,24,7920-050,ALVITO,-7.991940268104548,38.25549653416174
pt.ine.add.PTCONT.450468,R NOVA,53,7920-055,ALVITO,-7.991302917535809,38.25423452022465
pt.ine.add.PTCONT.450469,R NOVA,59,7920-055,ALVITO,-7.990858156950672,38.25381957265892
pt.ine.add.PTCONT.450493,BR CARDOSA,5 HS,7920-352,VILA NOVA DA BARONIA,-8.035809269513587,38.29217117436359
pt.ine.add.PTCONT.450494,LG FRANCISCO MANUEL FIALHO,7,7920-355,VILA NOVA DA BARONIA,-8.037322527750007,38.288830138029525
pt.ine.add.PTCONT.450495,R LUIS DE CAMÕES,30,7920-385,VILA NOVA DA BARONIA,-8.039597163600373,38.288822964220074
pt.ine.add.PTCONT.450496,R ALMEIDA GARRETT,9,7920-363,VILA NOVA DA BARONIA,-8.038443057216913,38.28855177322379
pt.ine.add.PTCONT.450848,BR CARDOSA,16,7920-352,VILA NOVA DA BARONIA,-8.034427009433372,38.29153039198172
pt.ine.add.PTCONT.450891,LG CADEIROES,3,7920-025,ALVITO,-7.99025322632736,38.253521544202684
pt.ine.add.PTCONT.451062,R ESPÍRITO SANTO,14A,7920-048,ALVITO,-7.99343285990642,38.25763342806018
pt.ine.add.PTCONT.451081,MTE DA COVA FUNDA,,7920-301,VILA NOVA DA BARONIA,-8.011863278891317,38.29123897782571
pt.ine.add.PTCONT.451085,R PENEDO,56,7920-050,ALVITO,-7.991245145341117,38.25456777960229
pt.ine.add.PTCONT.451090,HORTA DOS CORREIROS,,7920-201,ALVITO,-7.981711263482705,38.24070016875376
pt.ine.add.PTCONT.451091,MTE DO CRISPIM,,7920-201,ALVITO,-7.940895784655625,38.28050472732806
pt.ine.add.PTCONT.451092,TAPADA D MARIA JOSE PAVANITO,,7920-201,ALVITO,-7.991837406730053,38.24961359855197
pt.ine.add.PTCONT.451095,R MANUEL MARQUES BAIRRO DR TEÓFILO CASACA SIM SIM,21,7920-360,VILA NOVA DA BARONIA,-8.037109802409509,38.28545164524243
pt.ine.add.PTCONT.451099,R INF D HENRIQUE,39,7920-378,VILA NOVA DA BARONIA,-8.038792742387175,38.29214658425634
pt.ine.add.PTCONT.451100,QTA BEIRA,,7920-301,VILA NOVA DA BARONIA,-8.015385620555591,38.26895464601691
pt.ine.add.PTCONT.451108,R JOÃO DE DEUS,21,7920-054,ALVITO,-7.994632420708165,38.25768890303075
pt.ine.add.PTCONT.451121,R 5 DE OUTUBRO,10,7920-368,VILA NOVA DA BARONIA,-8.036817548459302,38.2903792462825
pt.ine.add.PTCONT.451127,R ALMEIDA GARRETT,29,7920-032,ALVITO,-7.99396660490596,38.259336742572444
pt.ine.add.PTCONT.451128,LG PORTA NOVA,1,7920-017,ALVITO,-7.993790951039624,38.25558883475331
pt.ine.add.PTCONT.451133,R PINTO DE MELO,,7920-390,VILA NOVA DA BARONIA,-8.040124071027144,38.28794952468071
pt.ine.add.PTCONT.451134,R PINTO DE MELO,,7920-390,VILA NOVA DA BARONIA,-8.038843954186714,38.287903458895414
pt.ine.add.PTCONT.451616,R OUTEIRO DAS PELES,10,7920-056,ALVITO,-7.991020318479927,38.25854943874132
pt.ine.add.PTCONT.451635,AV 1 DE MAIO,64,7920-351,VILA NOVA DA BARONIA,-8.041128706385512,38.288914263413055
pt.ine.add.PTCONT.451640,AV BOMBEIROS VOLUNTARIOS,,7920-011,ALVITO,-7.994366930340461,38.259111994298166
pt.ine.add.PTCONT.451813,R FÁBRICAS,22,7920-040,ALVITO,-7.98895347655007,38.2579523312087
pt.ine.add.PTCONT.451821,MTE PALHETA,,7920-201,ALVITO,-7.93283555328067,38.20658216857955
pt.ine.add.PTCONT.451822,BR CARDOSA,,7920-352,VILA NOVA DA BARONIA,-8.035260325191151,38.292368912343456
pt.ine.add.PTCONT.451823,R MQ DE POMBAL,18,7920-386,VILA NOVA DA BARONIA,-8.03620460103863,38.28714456521075
pt.ine.add.PTCONT.451857,R 25 DE ABRIL,59,7920-392,VILA NOVA DA BARONIA,-8.03868348887461,38.288245666124425
pt.ine.add.PTCONT.451858,R JOÃO DE DEUS,65,7920-379,VILA NOVA DA BARONIA,-8.038775898134253,38.287498005959414
pt.ine.add.PTCONT.452374,R VASCO DA GAMA,,7920-058,ALVITO,-7.988887648627409,38.2565738897466
pt.ine.add.PTCONT.452411,MTE DO GAMITO,,7920-201,ALVITO,-7.960747463523809,38.27102221182222
pt.ine.add.PTCONT.452412,HORTA DA MARECA,,7920-201,ALVITO,-7.984954571505186,38.2523257999848
pt.ine.add.PTCONT.452413,R DR ERNESTO GOIS,4,7920-201,ALVITO,-7.9956477684629785,38.25849188814157
pt.ine.add.PTCONT.452414,R ALMEIDA GARRETT J,22,7920-032,ALVITO,-7.993555506170299,38.25921913884559
pt.ine.add.PTCONT.452415,R CALÇADA,18,7920-034,ALVITO,-7.992954309780592,38.25694818163336
pt.ine.add.PTCONT.452416,R CALÇADA,18,7920-034,ALVITO,-7.992954309780592,38.25694818163336
pt.ine.add.PTCONT.452417,R PENEDO,42,7920-050,ALVITO,-7.991609798274755,38.255054700263436
pt.ine.add.PTCONT.452448,R CRUZ,22,7920-035,ALVITO,-7.993209966445521,38.25470527175679
pt.ine.add.PTCONT.452693,MTE DOS ALFANGES,,7920-301,VILA NOVA DA BARONIA,-8.0125096159275,38.30129350351764
pt.ine.add.PTCONT.452694,R MIGUEL BOMBARDA,3,7920-388,VILA NOVA DA BARONIA,-8.03587189285594,38.288072201452586
pt.ine.add.PTCONT.452696,R BEJA,68,7920-046,ALVITO,-7.990650945849204,38.2546211131902
pt.ine.add.PTCONT.452704,R PENEDO,70,7920-050,ALVITO,-7.990664006259839,38.25378330157057
pt.ine.add.PTCONT.452705,R JOÃO DE DEUS,25,7920-379,VILA NOVA DA BARONIA,-8.036638345116195,38.28759536516352
pt.ine.add.PTCONT.452706,QTA SANTO ANTÓNIO,,7920-201,ALVITO,-8.000450220429773,38.281569141764784
pt.ine.add.PTCONT.452717,HRD BENTO DA SERRA,,7920-201,ALVITO,-7.97116020873764,38.233947411042344
pt.ine.add.PTCONT.452721,MTE MONFORTE,,7920-201,ALVITO,-8.018098510048496,38.18621922419058
pt.ine.add.PTCONT.452726,R JOAQUIM ANTÓNIO GIAO,10,7920-380,VILA NOVA DA BARONIA,-8.039171839857792,38.29068745568269
pt.ine.add.PTCONT.452730,R DR ERNESTO GÓIS,10,7920-375,VILA NOVA DA BARONIA,-8.036945031590555,38.28905505041333
pt.ine.add.PTCONT.452742,R PENEDO,8,7920-050,ALVITO,-7.992156664968131,38.255848141192594
pt.ine.add.PTCONT.453253,R INF D HENRIQUE QTA POMBAL FAMILIA FINO,,7920-378,VILA NOVA DA BARONIA,-8.038677115245875,38.29316449039625
pt.ine.add.PTCONT.453588,MTE DA FONTE,,7920-201,ALVITO,-7.949372245453955,38.25934746529538
pt.ine.add.PTCONT.453589,PC REPUBLICA,2A,7920-028,ALVITO,-7.992063749227704,38.25663180338249
pt.ine.add.PTCONT.453624,TV JOAQUIM LOPES,2A,7920-066,ALVITO,-7.9920445737623815,38.25473090340291
pt.ine.add.PTCONT.453625,R LOBOS,29,7920-053,ALVITO,-7.9934713428616995,38.25543530366587
pt.ine.add.PTCONT.453626,TAPADA D MARIA JOSE PAVANITO,FRACSAO D,7920-201,ALVITO,-7.990505943360746,38.2528191574251
pt.ine.add.PTCONT.453627,AV 1 DE MAIO,17 B,7920-351,VILA NOVA DA BARONIA,-8.035522811951633,38.29268444044502
pt.ine.add.PTCONT.453628,R JOAQUIM HENRIQUE DA SILVA,10,7920-382,VILA NOVA DA BARONIA,-8.037331720365618,38.2905328175325
pt.ine.add.PTCONT.453670,R LUIS CAMOES,8,7920-385,VILA NOVA DA BARONIA,-8.038853403654155,38.28943497068175
pt.ine.add.PTCONT.453671,MTE DO RESMUNIAL,,7920-301,VILA NOVA DA BARONIA,-8.026580375943592,38.302883669541615
pt.ine.add.PTCONT.453672,R CATARINA EUFEMIA,13,7920-367,VILA NOVA DA BARONIA,-8.038400286397238,38.28628150847906
pt.ine.add.PTCONT.453673,HORTAS DOS FUNCHAIS,,7920-301,VILA NOVA DA BARONIA,-8.033301359669267,38.278808938982436
pt.ine.add.PTCONT.453701,R JOÃO DE DEUS,57,7920-379,VILA NOVA DA BARONIA,-8.038490076366466,38.287551828899694
pt.ine.add.PTCONT.453702,MTE GUARDA DO SOBRAL,,7920-301,VILA NOVA DA BARONIA,-8.039494512594528,38.27975096538589
pt.ine.add.PTCONT.453703,MTE MOIRANA,,7920-301,VILA NOVA DA BARONIA,-8.063524619267106,38.272794813032874
pt.ine.add.PTCONT.453704,MTE CASTELO,,7920-301,VILA NOVA DA BARONIA,-8.092136227926861,38.25874542130145
pt.ine.add.PTCONT.453705,MTE CASTELO,,7920-301,VILA NOVA DA BARONIA,-8.092136227926861,38.25874542130145
pt.ine.add.PTCONT.453706,MTE CASTELO,,7920-301,VILA NOVA DA BARONIA,-8.092136227926861,38.25874542130145
pt.ine.add.PTCONT.453707,MTE CASTELO,,7920-301,VILA NOVA DA BARONIA,-8.092136227926861,38.25874542130145
pt.ine.add.PTCONT.454079,MTE MOIRANA,,7920-301,VILA NOVA DA BARONIA,-8.063524619267106,38.272794813032874
pt.ine.add.PTCONT.454093,MTE PALHETA,,7920-201,ALVITO,-7.932733439269205,38.2063477612641
pt.ine.add.PTCONT.454097,R LUIS DE CAMÕES,6,7920-385,VILA NOVA DA BARONIA,-8.03878472816918,38.28950698626422
pt.ine.add.PTCONT.454125,R MACEIRA,4,7920-037,ALVITO,-7.994454100127878,38.255328362155524
pt.ine.add.PTCONT.454129,R NOVA,74,7920-055,ALVITO,-7.991098182248606,38.253765809964946
pt.ine.add.PTCONT.454160,R ALBERTO ARAÚJO,24,7920-361,VILA NOVA DA BARONIA,-8.040248803894714,38.28873339331609
pt.ine.add.PTCONT.454335,LG GEN HUMBERTO DELGADO,39,7920-027,ALVITO,-7.9903054133998515,38.25604409877414
pt.ine.add.PTCONT.454343,R JOAQUIM CORREIA,28,7920-381,VILA NOVA DA BARONIA,-8.038194959284189,38.28596603273033
pt.ine.add.PTCONT.454357,R 25 DE ABRIL,,7920-392,VILA NOVA DA BARONIA,-8.035265949626488,38.28817980387219
pt.ine.add.PTCONT.454358,MTE SERRA,,7920-301,VILA NOVA DA BARONIA,-8.03048828927486,38.279950637826154
pt.ine.add.PTCONT.454359,MTE AIRES,,7920-301,VILA NOVA DA BARONIA,-8.037593111900444,38.265515413888025
pt.ine.add.PTCONT.454371,R 5 DE OUTUBRO,12,7920-368,VILA NOVA DA BARONIA,-8.036829157504348,38.29024412312678
pt.ine.add.PTCONT.454375,,,7920-201,ALVITO,-7.959652718797223,38.29887595385999
pt.ine.add.PTCONT.454376,R PENEDO,38,7920-050,ALVITO,-7.991735176115831,38.25520800260455
pt.ine.add.PTCONT.455151,MTE DA SERRA,,7920-301,VILA NOVA DA BARONIA,-8.011466484648539,38.289274639124315
pt.ine.add.PTCONT.455155,R NOVA,49,7920-055,ALVITO,-7.9914283632947125,38.254351787406065
pt.ine.add.PTCONT.455156,R LATINO COELHO,6,7920-384,VILA NOVA DA BARONIA,-8.035027176930047,38.28724268416094
pt.ine.add.PTCONT.455160,R CRUZ,45,7920-035,ALVITO,-7.9925137414757845,38.25434408383639
pt.ine.add.PTCONT.455163,R S SEBASTIÃO,8,7920-046,ALVITO,-7.990489007634297,38.25563892176274
pt.ine.add.PTCONT.455164,R NOVA,54,7920-055,ALVITO,-7.991668215305889,38.25438811231723
pt.ine.add.PTCONT.455173,R MANUEL MARQUES BAIRRO DR TEÓFILO CASACA SIM SIM,24,7920-360,VILA NOVA DA BARONIA,-8.037075074008545,38.2857849443749
pt.ine.add.PTCONT.455185,R CALÇADA,10,7920-034,ALVITO,-7.992611274494169,38.25709191374111
pt.ine.add.PTCONT.455778,R ALBERTO ARAÚJO,20,7920-361,VILA NOVA DA BARONIA,-8.040100061078954,38.28885039051842
