id,street,house,postcode,city,lon,lat
pt.ine.add.PTCONT.455997,R POÇO NOVO,28,7230-038,BARRANCOS,-6.979680498029762,38.13068451174411
pt.ine.add.PTCONT.456225,R ANGOLA,21,7230-003,BARRANCOS,-6.978031943858655,38.13180340229645
pt.ine.add.PTCONT.456271,BR FERRAGIAL,3,7230-011,BARRANCOS,-6.977303233630083,38.13389524973092
pt.ine.add.PTCONT.456367,R DAS BICAS,18,7230-023,BARRANCOS,-6.975757255774956,38.127790177509965
pt.ine.add.PTCONT.456478,R ESPANHA,10,7230-017,BARRANCOS,-6.976051909296263,38.136576515121064
pt.ine.add.PTCONT.456489,R POÇO NOVO,15,7230-038,BARRANCOS,-6.978588622793582,38.13049361169229
pt.ine.add.PTCONT.456494,R 1 DE DEZEMBRO,,7230-042,BARRANCOS,-6.978868014007016,38.13447818201348
pt.ine.add.PTCONT.456554,BR FERRAGIAL,10,7230-011,BARRANCOS,-6.97762026627713,38.13404250735974
pt.ine.add.PTCONT.456726,R S BENTO,53,7230-046,BARRANCOS,-6.9734477662591585,38.12959615655784
pt.ine.add.PTCONT.456851,R ANGOLA,7,7230-003,BARRANCOS,-6.977988408094821,38.133118237379186
pt.ine.add.PTCONT.456891,R MOÇAMBIQUE,7,7230-028,BARRANCOS,-6.976114888193772,38.13186561254498
pt.ine.add.PTCONT.456929,R CERRO,35,7230-007,BARRANCOS,-6.976772625386868,38.132827006556674
pt.ine.add.PTCONT.456931,R NOUDAR,8,7230-031,BARRANCOS,-6.975450341209543,38.13154604747882
pt.ine.add.PTCONT.456955,R DR FILIPE DE FIGUEIREDO,23,7230-012,BARRANCOS,-6.977805873769332,38.12950397200535
pt.ine.add.PTCONT.456976,R POÇO NOVO,23,7230-038,BARRANCOS,-6.978781342751178,38.130567575016705
pt.ine.add.PTCONT.456977,R NSA SRA DA CONCEIÇÃO,20,7230-034,BARRANCOS,-6.976184875053003,38.128154736296736
pt.ine.add.PTCONT.457085,R FORÇAS ARMADAS,37,7230-019,BARRANCOS,-6.975621935437926,38.130581527245596
pt.ine.add.PTCONT.457200,R ANGOLA,,7230-011,BARRANCOS,-6.977441215133705,38.1338245382172
pt.ine.add.PTCONT.457217,R S BENTO,69,7230-046,BARRANCOS,-6.973075742016657,38.129322223511316
pt.ine.add.PTCONT.457270,R FORÇAS ARMADAS,40,7230-019,BARRANCOS,-6.975486519425236,38.13049010621528
pt.ine.add.PTCONT.457432,ESTR 258,5,7230-017,BARRANCOS,-6.978989396535752,38.135461317529945
pt.ine.add.PTCONT.457471,BR ADUA,35,7230-001,BARRANCOS,-6.977844803115195,38.1320988473821
pt.ine.add.PTCONT.457511,R CERRO,5,7230-007,BARRANCOS,-6.975936298494009,38.132341311783776
pt.ine.add.PTCONT.457648,R S JOÃO DE DEUS,58,7230-047,BARRANCOS,-6.975063051514039,38.13130571936656
pt.ine.add.PTCONT.457669,R LIDADOR,1,7230-026,BARRANCOS,-6.976178013300449,38.135091330757184
pt.ine.add.PTCONT.457699,R MOÇAMBIQUE,18,7230-028,BARRANCOS,-6.976655113907241,38.13160067303798
pt.ine.add.PTCONT.457739,R ANGOLA,,7230-003,BARRANCOS,-6.976933765737396,38.134179890282944
pt.ine.add.PTCONT.457828,R IGREJA,16,7230-023,BARRANCOS,-6.975793077781781,38.12913282025327
pt.ine.add.PTCONT.457832,R POÇO NOVO,,7230-038,BARRANCOS,-6.979165649239425,38.13078755883077
pt.ine.add.PTCONT.457899,R IGREJA,29,7230-023,BARRANCOS,-6.975171320155434,38.12878436374516
pt.ine.add.PTCONT.458044,R 1 DE DEZEMBRO,121,7230-042,BARRANCOS,-6.978127757554548,38.134407844697286
pt.ine.add.PTCONT.458218,R DE S SEBASTIÃO,29,7230-049,BARRANCOS,-6.97506059829103,38.13001745786234
pt.ine.add.PTCONT.458283,R DR MENDES RIBEIRO,9,7230-015,BARRANCOS,-6.978955598723581,38.12964139575367
pt.ine.add.PTCONT.458419,R FORÇAS ARMADAS,21,7230-019,BARRANCOS,-6.975972281063466,38.13006247719327
pt.ine.add.PTCONT.458423,R INF D HENRIQUE,8,7230-024,BARRANCOS,-6.976590136626058,38.132104517795625
pt.ine.add.PTCONT.458424,R D MARIA DAS DORES FIALHO GARCIA,3,7230-010,BARRANCOS,-6.976281956208952,38.128507030052965
pt.ine.add.PTCONT.458663,R FONTAÍNHAS,11,7230-018,BARRANCOS,-6.977006736193503,38.131000554658414
pt.ine.add.PTCONT.458686,R PASSEIO,30,7230-036,BARRANCOS,-6.97723696005982,38.128696604616906
pt.ine.add.PTCONT.458688,R 1 DE MAIO,1,7230-043,BARRANCOS,-6.976386064414574,38.12985935367485
pt.ine.add.PTCONT.458728,R TIMOR,21,7230-051,BARRANCOS,-6.976653866760715,38.13240243077015
pt.ine.add.PTCONT.458788,R FONTAÍNHAS,14,7230-018,BARRANCOS,-6.977600944452113,38.13020463137869
pt.ine.add.PTCONT.352286,R NOVA,3,7230-032,BARRANCOS,-6.978357577759175,38.13068052229043
pt.ine.add.PTCONT.352285,R 25 DE ABRIL,28,7230-053,BARRANCOS,-6.977657702644972,38.13311498465895
pt.ine.add.PTCONT.352287,R DQ DO CADAVAL,,7230-016,BARRANCOS,-6.9775080146633215,38.13031182101922
pt.ine.add.PTCONT.352318,R CRUZ,21,7230-008,BARRANCOS,-6.974455377396292,38.130065541366534
pt.ine.add.PTCONT.352319,R CÓNEGO ALMEIDA,10,7230-005,BARRANCOS,-6.975273539097439,38.12953308972812
pt.ine.add.PTCONT.352320,R 1 DE DEZEMBRO,9,7230-042,BARRANCOS,-6.9757649379962245,38.13163694867582
pt.ine.add.PTCONT.352321,R FORÇAS ARMADAS,54,7230-019,BARRANCOS,-6.975426230776197,38.13069671105003
pt.ine.add.PTCONT.353095,R S JOÃO DE DEUS,56,7230-047,BARRANCOS,-6.9749940620865045,38.131341073781854
pt.ine.add.PTCONT.353098,R ANGOLA,,7230-003,BARRANCOS,-6.978081102722291,38.13374975448348
pt.ine.add.PTCONT.353099,R 1 DE DEZEMBRO,19,7230-042,BARRANCOS,-6.975762235252162,38.131808086424655
pt.ine.add.PTCONT.353113,BR ESPANHOIS,,7230-011,BARRANCOS,-6.977702365103207,38.13389917658348
pt.ine.add.PTCONT.353114,BR ESPANHOIS,,7230-011,BARRANCOS,-6.977702365103207,38.13389917658348
pt.ine.add.PTCONT.353115,BR ESPANHOIS,,7230-011,BARRANCOS,-6.977702365103207,38.13389917658348
pt.ine.add.PTCONT.353116,BR FERRAGIAL,9,7230-011,BARRANCOS,-6.977702365103207,38.13389917658348
pt.ine.add.PTCONT.353117,R 25 DE ABRIL,31,7230-053,BARRANCOS,-6.977369770589402,38.13329232489833
pt.ine.add.PTCONT.353119,R INF D HENRIQUE,6,7230-024,BARRANCOS,-6.976499335321496,38.13207659776553
pt.ine.add.PTCONT.353127,R MOÇAMBIQUE,22,7230-028,BARRANCOS,-6.977022722387337,38.13143312735694
pt.ine.add.PTCONT.353128,BR CANAS,3,7230-006,BARRANCOS,-6.977317363308912,38.13155313944449
pt.ine.add.PTCONT.353129,R PINHAO,13,7230-037,BARRANCOS,-6.974335374013702,38.131163413131354
pt.ine.add.PTCONT.353138,R S BENTO,10,7230-046,BARRANCOS,-6.974227741740179,38.13003626976022
pt.ine.add.PTCONT.353149,R CÓNEGO DE ALMEIDA,17,7230-005,BARRANCOS,-6.975235914603822,38.12974892655415
pt.ine.add.PTCONT.353151,R ESPANHA,1,7230-017,BARRANCOS,-6.976489817618264,38.13629255152641
pt.ine.add.PTCONT.353153,R IGREJA,22,7230-023,BARRANCOS,-6.975646545688394,38.12902327256689
pt.ine.add.PTCONT.353154,R D MARIA DAS DORES FIALHO GARCIA,27,7230-010,BARRANCOS,-6.976846559999493,38.1288639267813
pt.ine.add.PTCONT.353657,R DR LEITE DE VASCONCELOS,25,7230-014,BARRANCOS,-6.976913697212744,38.13183744360399
pt.ine.add.PTCONT.353884,R FONTAÍNHAS,14,7230-018,BARRANCOS,-6.9762769248878325,38.13099336923879
pt.ine.add.PTCONT.353905,R CERRO,52,7230-007,BARRANCOS,-6.977155800668162,38.133119054972056
pt.ine.add.PTCONT.353909,R S JOÃO DE DEUS,5,7230-047,BARRANCOS,-6.975040655307451,38.13055778042985
pt.ine.add.PTCONT.353913,R 25 DE ABRIL,14,7230-053,BARRANCOS,-6.976700398289977,38.13379022102698
pt.ine.add.PTCONT.353916,R ANGOLA,4,7230-003,BARRANCOS,-6.977034410435183,38.13430700200523
pt.ine.add.PTCONT.353917,R ANGOLA,4,7230-003,BARRANCOS,-6.977034410435183,38.13430700200523
pt.ine.add.PTCONT.353918,R ANGOLA,4,7230-003,BARRANCOS,-6.977034410435183,38.13430700200523
pt.ine.add.PTCONT.353919,R ANGOLA,,7230-003,BARRANCOS,-6.977034410435183,38.13430700200523
pt.ine.add.PTCONT.353922,BR ADUA,31,7230-001,BARRANCOS,-6.977957702041034,38.13217202695841
pt.ine.add.PTCONT.353929,,,7230-039,BARRANCOS,-7.0240166519719915,38.146948763521756
pt.ine.add.PTCONT.353933,R MOÇAMBIQUE,12B,7230-028,BARRANCOS,-6.976582713368315,38.13185220245503
pt.ine.add.PTCONT.353934,R S BENTO,9,7230-046,BARRANCOS,-6.974339067256065,38.13020853245558
pt.ine.add.PTCONT.353938,R DR HIGINO DE SOUSA,19,7230-013,BARRANCOS,-6.97667206064067,38.13124950243195
pt.ine.add.PTCONT.353947,R CRUZ,10,7230-008,BARRANCOS,-6.974665759592186,38.12974330489306
pt.ine.add.PTCONT.353952,R ESPANHA,21,7230-017,BARRANCOS,-6.975933030984919,38.13688163788788
pt.ine.add.PTCONT.354541,R 25 DE ABRIL,12,7230-053,BARRANCOS,-6.976653930439115,38.13384381542179
pt.ine.add.PTCONT.354686,R D BELA PULIDO,7,7230-009,BARRANCOS,-6.978001901436742,38.13009146252698
pt.ine.add.PTCONT.354706,R 1 DE DEZEMBRO,15,7230-042,BARRANCOS,-6.975763942251077,38.13169999942599
pt.ine.add.PTCONT.354740,R CRUZ,22,7230-008,BARRANCOS,-6.974480604469341,38.12991264310382
pt.ine.add.PTCONT.354743,MTE PE DE CÃO,,7230-015,BARRANCOS,-7.086448545340914,38.123936893584364
pt.ine.add.PTCONT.354744,MTE SERRA DA GATA,,7230-023,BARRANCOS,-7.056250496287887,38.10375463727836
pt.ine.add.PTCONT.354745,TV PREGUICA,10,7230-041,BARRANCOS,-6.974750421646959,38.129437845592825
pt.ine.add.PTCONT.354754,R NOUDAR,29-31,7230-031,BARRANCOS,-6.975483715397484,38.13211163593169
pt.ine.add.PTCONT.354755,R NOUDAR,29-31,7230-031,BARRANCOS,-6.975483715397484,38.13211163593169
pt.ine.add.PTCONT.355505,R INF D HENRIQUE,4,7230-024,BARRANCOS,-6.976408534087666,38.13204867766619
pt.ine.add.PTCONT.355518,BR FERRAGIAL,,7230-011,BARRANCOS,-6.97771788744636,38.133638078422244
pt.ine.add.PTCONT.355519,R SENTINELA,3,7230-050,BARRANCOS,-6.975390760329579,38.13149813149513
pt.ine.add.PTCONT.355527,R CERRO,25,7230-007,BARRANCOS,-6.976353678546684,38.13263369977488
pt.ine.add.PTCONT.355540,R DR FILIPE DE FIGUEIREDO,8,7230-012,BARRANCOS,-6.977577954316084,38.12949272141501
pt.ine.add.PTCONT.355541,R JERONIMO VASQUES,1J,7230-020,BARRANCOS,-6.976500917288182,38.129085740285504
pt.ine.add.PTCONT.355545,R MOÇAMBIQUE,25,7230-028,BARRANCOS,-6.976645842618063,38.13146545196952
pt.ine.add.PTCONT.355546,R S BENTO,11,7230-046,BARRANCOS,-6.974282621103914,38.13017194098271
pt.ine.add.PTCONT.355547,R S BENTO,39,7230-046,BARRANCOS,-6.973707044576031,38.129787897753005
pt.ine.add.PTCONT.355549,R MOÇAMBIQUE,29,7230-028,BARRANCOS,-6.976991070022365,38.131270660063706
pt.ine.add.PTCONT.355550,R S BENTO,75,7230-046,BARRANCOS,-6.9728951472637455,38.1292033273634
pt.ine.add.PTCONT.356082,R DAS BICAS,1 B,7230-025,BARRANCOS,-6.974949381505149,38.128394803492604
pt.ine.add.PTCONT.356072,HORTA DAS PIAS,,7230-023,BARRANCOS,-6.979558015383795,38.12687264627859
pt.ine.add.PTCONT.356105,R DR FILIPE DE FIGUEIREDO,25,7230-012,BARRANCOS,-6.977918342801986,38.12960417336639
pt.ine.add.PTCONT.356325,R AMARELEJA,4,7230-002,BARRANCOS,-6.977203941604301,38.13512845748415
pt.ine.add.PTCONT.356331,R QUILIGRITO,16,7230-044,BARRANCOS,-6.975375876571883,38.134605968799356
pt.ine.add.PTCONT.356332,R 1 DE MAIO,16,7230-043,BARRANCOS,-6.976583929363983,38.130329752054244
pt.ine.add.PTCONT.356334,R 1 DE DEZEMBRO,99,7230-042,BARRANCOS,-6.977312544323849,38.13475116299366
pt.ine.add.PTCONT.356337,R VASCO DA GAMA,14,7230-052,BARRANCOS,-6.977437300669,38.132626349172945
pt.ine.add.PTCONT.356338,R S JOÃO DE DEUS,37,7230-047,BARRANCOS,-6.9749763797723885,38.131016587976355
pt.ine.add.PTCONT.356340,R S SEBASTIÃO,15,7230-049,BARRANCOS,-6.975417937394639,38.12977774665698
pt.ine.add.PTCONT.356341,R FORÇAS ARMADAS,22,7230-019,BARRANCOS,-6.975696613901255,38.130185882368586
pt.ine.add.PTCONT.356347,MTE JOÃO SANTA LEIXEIRO,,7230-042,BARRANCOS,-6.9806385037866745,38.142288045398516
pt.ine.add.PTCONT.356350,R S JOÃO DE DEUS,28,7230-047,BARRANCOS,-6.974887715752768,38.13085355799936
pt.ine.add.PTCONT.356354,R S BENTO,25,7230-046,BARRANCOS,-6.973966324251571,38.12997963839145
pt.ine.add.PTCONT.356364,R DQ DO CADAVAL,21,7230-016,BARRANCOS,-6.977764892356604,38.13065667682606
pt.ine.add.PTCONT.356365,R S BENTO,38,7230-046,BARRANCOS,-6.973720300057127,38.12967091610218
pt.ine.add.PTCONT.356382,R ENSINASOLA,25,7230-022,BARRANCOS,-6.97663917756803,38.135501261374046
pt.ine.add.PTCONT.356383,R NOUDAR,15,7230-031,BARRANCOS,-6.975499814227393,38.13181450911069
pt.ine.add.PTCONT.356951,R DQ DO CADAVAL,24,7230-016,BARRANCOS,-6.97778074100728,38.13109825677411
pt.ine.add.PTCONT.357205,EIRAS ALTAS,,7230-003,BARRANCOS,-6.983494436034774,38.13256867626904
pt.ine.add.PTCONT.357206,R CERRO,3,7230-007,BARRANCOS,-6.975902799148703,38.13229593849945
pt.ine.add.PTCONT.357207,R CERRO,15,7230-007,BARRANCOS,-6.9761501210441565,38.13252359112162
pt.ine.add.PTCONT.357233,MTE DA ASSOCIAÇÃO,,7230-023,BARRANCOS,-7.011370518574408,38.11533431729922
pt.ine.add.PTCONT.357234,R ENSINASOLA,6,7230-022,BARRANCOS,-6.976501731004901,38.134815250822456
pt.ine.add.PTCONT.357279,R NOUDAR,11,7230-031,BARRANCOS,-6.97553544728095,38.13172477376955
pt.ine.add.PTCONT.357280,LG S SEBASTIÃO,22,7230-048,BARRANCOS,-6.9750563284412594,38.1302876753655
pt.ine.add.PTCONT.357782,R DAS BICAS,1 D,7230-025,BARRANCOS,-6.975064833592714,38.128305855208446
pt.ine.add.PTCONT.358051,BR ESPANHOIS,,7230-011,BARRANCOS,-6.977527189459101,38.13415870412104
pt.ine.add.PTCONT.358020,R LIDADOR,11,7230-026,BARRANCOS,-6.975732975270099,38.135104963638135
pt.ine.add.PTCONT.358021,R ANGOLA,44,7230-003,BARRANCOS,-6.978157665534091,38.13178662124625
pt.ine.add.PTCONT.358031,R ENSINASOLA,17,7230-022,BARRANCOS,-6.976642731582069,38.13527608019665
pt.ine.add.PTCONT.358042,R ANGOLA,5,7230-003,BARRANCOS,-6.977930395975767,38.133180727414256
pt.ine.add.PTCONT.358046,BR FERRAGIAL,,7230-011,BARRANCOS,-6.977527189459101,38.13415870412104
pt.ine.add.PTCONT.358048,BR ADUA,25,7230-001,BARRANCOS,-6.977873901809434,38.132423445061484
pt.ine.add.PTCONT.358049,BR ESPANHOIS,,7230-011,BARRANCOS,-6.977527189459101,38.13415870412104
pt.ine.add.PTCONT.358050,BR FERRAGIAL,11,7230-011,BARRANCOS,-6.977527189459101,38.13415870412104
pt.ine.add.PTCONT.358059,R S JOÃO DE DEUS,40,7230-047,BARRANCOS,-6.974804049032559,38.13109596657463
pt.ine.add.PTCONT.358063,R S BENTO,3,7230-046,BARRANCOS,-6.974508833242154,38.13029128497122
pt.ine.add.PTCONT.358073,R S BENTO,58,7230-046,BARRANCOS,-6.9733592498407955,38.12942411822468
pt.ine.add.PTCONT.358617,R BOAVISTA,18,7230-004,BARRANCOS,-6.976743398501743,38.12961963834841
pt.ine.add.PTCONT.358654,R POÇO NOVO,17,7230-038,BARRANCOS,-6.97865661651795,38.13052130594717
pt.ine.add.PTCONT.359104,R VASCO DA GAMA,6,7230-052,BARRANCOS,-6.977239888355626,38.13284962295708
pt.ine.add.PTCONT.359105,R TIMOR,6,7230-051,BARRANCOS,-6.976030086516962,38.13218008000118
pt.ine.add.PTCONT.359106,EN 386 MONTE DA LANCHITA,,7230-039,BARRANCOS,-7.03835203789175,38.1433987143408
pt.ine.add.PTCONT.359107,R DR MENDES RIBEIRO,14,7230-015,BARRANCOS,-6.979137622859265,38.12967021011133
pt.ine.add.PTCONT.359127,LG S SEBASTIÃO,7,7230-048,BARRANCOS,-6.974751574532599,38.13008648002577
pt.ine.add.PTCONT.359482,R 1 DE DEZEMBRO,59,7230-042,BARRANCOS,-6.976484580337197,38.133734044137725
pt.ine.add.PTCONT.359635,R AMARELEJA,28,7230-002,BARRANCOS,-6.978353895214368,38.135256881138424
pt.ine.add.PTCONT.359641,R NOVA DO BALDIO,19,7230-033,BARRANCOS,-6.9769652036489225,38.13580175630799
pt.ine.add.PTCONT.359644,R NOUDAR,30,7230-031,BARRANCOS,-6.975288148686506,38.13221781215958
pt.ine.add.PTCONT.359654,R ANGOLA,3,7230-003,BARRANCOS,-6.977872241758817,38.13325222467271
pt.ine.add.PTCONT.359657,R DR FILIPE DE FIGUEIREDO,20,7230-012,BARRANCOS,-6.97784637468033,38.12982868196885
pt.ine.add.PTCONT.359663,R DR LEITE DE VASCONCELOS,34,7230-014,BARRANCOS,-6.977049970050457,38.13187481951411
pt.ine.add.PTCONT.359668,R MOÇAMBIQUE,14,7230-028,BARRANCOS,-6.9764936183007595,38.13171619539683
pt.ine.add.PTCONT.359669,R S BENTO,45,7230-046,BARRANCOS,-6.973605699206869,38.129705819506825
pt.ine.add.PTCONT.359671,LG S SEBASTIÃO,30,7230-048,BARRANCOS,-6.974959820421974,38.129899351757196
pt.ine.add.PTCONT.359678,R S SEBASTIÃO,12,7230-049,BARRANCOS,-6.975397265449137,38.1296424131009
pt.ine.add.PTCONT.359679,R CÓNEGO DE ALMEIDA,11,7230-005,BARRANCOS,-6.975306183059226,38.12963250669676
pt.ine.add.PTCONT.359687,R LIDADOR,17,7230-026,BARRANCOS,-6.975470969337461,38.135084364334226
pt.ine.add.PTCONT.360200,R 1 DE DEZEMBRO,129,7230-042,BARRANCOS,-6.978988010940978,38.134100997843234
pt.ine.add.PTCONT.360438,R 25 DE ABRIL,40,7230-053,BARRANCOS,-6.978041121453468,38.13266832318862
pt.ine.add.PTCONT.360444,R SANTO ANTÓNIO,5,7230-045,BARRANCOS,-6.977372004558827,38.13242751637508
pt.ine.add.PTCONT.360456,R TIMOR,17,7230-051,BARRANCOS,-6.976551803704844,38.13236539124914
pt.ine.add.PTCONT.360469,R CRUZ,2-4,7230-008,BARRANCOS,-6.974770380542759,38.129618215497494
pt.ine.add.PTCONT.360470,R CRUZ,2-4,7230-008,BARRANCOS,-6.974770380542759,38.129618215497494
pt.ine.add.PTCONT.360474,R NSA SRA DA CONCEIÇÃO,19,7230-034,BARRANCOS,-6.976016418572376,38.12871161371587
pt.ine.add.PTCONT.360478,R NSA SRA DA CONCEIÇÃO,10,7230-034,BARRANCOS,-6.976152400780257,38.128767005097494
pt.ine.add.PTCONT.360479,R LIDADOR,3,7230-026,BARRANCOS,-6.976086781807648,38.13509043210299
pt.ine.add.PTCONT.361006,MTE ZEZE MERTOLA,,7230-039,BARRANCOS,-7.006490506511764,38.140538949518486
pt.ine.add.PTCONT.361478,R POÇO NOVO,5,7230-038,BARRANCOS,-6.978316648417481,38.130382834286074
pt.ine.add.PTCONT.361476,R INF D HENRIQUE,9,7230-024,BARRANCOS,-6.976625626357759,38.132023789361085
pt.ine.add.PTCONT.361477,R NOVA,1,7230-032,BARRANCOS,-6.978438110154168,38.13063627069691
pt.ine.add.PTCONT.361479,SIT AGARROCHA,7,7230-023,BARRANCOS,-6.98052305952233,38.13512503988626
pt.ine.add.PTCONT.361520,MTE LABILA,,7230-042,BARRANCOS,-6.963213243065463,38.13772856472306
pt.ine.add.PTCONT.361521,R NOUDAR,23,7230-031,BARRANCOS,-6.97549711084705,38.1319856468383
pt.ine.add.PTCONT.361555,R 1 DE DEZEMBRO,17,7230-042,BARRANCOS,-6.975763088752763,38.13175404292558
pt.ine.add.PTCONT.362302,R CERRO,48,7230-007,BARRANCOS,-6.977054446847979,38.13303697961167
pt.ine.add.PTCONT.362326,R 1 DE DEZEMBRO,43,7230-042,BARRANCOS,-6.976077291136665,38.132802141894004
pt.ine.add.PTCONT.362327,R LUIS CAMOES,22,7230-027,BARRANCOS,-6.978445063936408,38.13019491493413
pt.ine.add.PTCONT.362360,R SENTINELA,32,7230-050,BARRANCOS,-6.975382934043778,38.13199353017379
pt.ine.add.PTCONT.362361,R SENTINELA,1,7230-050,BARRANCOS,-6.975403017460807,38.131444200394405
pt.ine.add.PTCONT.362362,R S JOÃO DE DEUS,47,7230-047,BARRANCOS,-6.974984936229224,38.13119684537788
pt.ine.add.PTCONT.362678,PC MUNICIPIO,3,7230-030,BARRANCOS,-6.975593109556245,38.12951822202717
pt.ine.add.PTCONT.362688,R S BENTO,63,7230-046,BARRANCOS,-6.973245076859374,38.12943199954569
pt.ine.add.PTCONT.362844,R CERRO,36,7230-007,BARRANCOS,-6.976680828123007,38.132862137413646
pt.ine.add.PTCONT.362840,R MOÇAMBIQUE,1,7230-028,BARRANCOS,-6.975848910965475,38.13209721726144
pt.ine.add.PTCONT.362845,R CERRO,22,7230-007,BARRANCOS,-6.976193744377866,38.132650141907284
pt.ine.add.PTCONT.362860,MTE PIXOXA,,7230-042,BARRANCOS,-6.962803350902612,38.14767901237853
pt.ine.add.PTCONT.362866,R S JOÃO DE DEUS,38,7230-047,BARRANCOS,-6.974805187945795,38.1310239085914
pt.ine.add.PTCONT.362871,R CÓNEGO ALMEIDA,19,7230-005,BARRANCOS,-6.975075559563432,38.12979238902165
pt.ine.add.PTCONT.362881,R NSA SRA DA CONCEIÇÃO,37,7230-034,BARRANCOS,-6.976079832058194,38.12830684882385
pt.ine.add.PTCONT.363646,R NOVA DO BALDIO,23,7230-033,BARRANCOS,-6.976962076931666,38.13599991574935
pt.ine.add.PTCONT.363647,R AMARELEJA,6,7230-002,BARRANCOS,-6.977295173180439,38.13512935527151
pt.ine.add.PTCONT.363650,R LIDADOR,8,7230-026,BARRANCOS,-6.976054561231665,38.13496399364845
pt.ine.add.PTCONT.363653,BC MIRADOURO,,7230-042,BARRANCOS,-6.976628959165412,38.13325800734122
pt.ine.add.PTCONT.363654,R 25 DE ABRIL,46,7230-053,BARRANCOS,-6.978202616811871,38.13255279871476
pt.ine.add.PTCONT.363660,R CERRO,,7230-007,BARRANCOS,-6.976002586187623,38.13247709457254
pt.ine.add.PTCONT.363664,R TIMOR,4,7230-051,BARRANCOS,-6.976019109695461,38.132152945915905
pt.ine.add.PTCONT.363665,R 25 DE ABRIL,29,7230-053,BARRANCOS,-6.977266569344372,38.13332734399781
pt.ine.add.PTCONT.363680,R DQ DO CADAVAL,18,7230-016,BARRANCOS,-6.977587837054693,38.130312606296954
pt.ine.add.PTCONT.363694,R BICAS,20,7230-023,BARRANCOS,-6.9758149808879875,38.12774570296573
pt.ine.add.PTCONT.364492,R CERRO,14,7230-007,BARRANCOS,-6.9759784990837375,38.13255793513915
pt.ine.add.PTCONT.364494,R DR LEITE DE VASCONCELOS,8,7230-014,BARRANCOS,-6.976731701523516,38.13252931819081
pt.ine.add.PTCONT.364495,R 1 DE DEZEMBRO,,7230-042,BARRANCOS,-6.9758948338609255,38.13280034444905
pt.ine.add.PTCONT.364506,R JERONIMO VASQUES,8,7230-020,BARRANCOS,-6.97645246223644,38.12926543627317
pt.ine.add.PTCONT.364513,R DQ DO CADAVAL,17,7230-016,BARRANCOS,-6.978017751481703,38.1305330425057
pt.ine.add.PTCONT.364514,R DQ DO CADAVAL,,7230-016,BARRANCOS,-6.977761724980049,38.130134143680486
pt.ine.add.PTCONT.364515,R LUIS DE CAMÕES,4,7230-027,BARRANCOS,-6.977818030894508,38.13017974076776
pt.ine.add.PTCONT.365018,R SANTO ANTÓNIO,15,7230-045,BARRANCOS,-6.9777789814284885,38.132656736409714
pt.ine.add.PTCONT.365061,R 1 DE DEZEMBRO,48,7230-042,BARRANCOS,-6.976351461168199,38.134219200245596
pt.ine.add.PTCONT.365282,R QUILIGRITO,12,7230-044,BARRANCOS,-6.975534534542755,38.134670593060235
pt.ine.add.PTCONT.365303,MTE ICO BOSSA,,7230-042,BARRANCOS,-6.9596120708697695,38.13610712086063
pt.ine.add.PTCONT.365309,CM 1023 MONTE DO CHAMORRO,,7230-039,BARRANCOS,-6.984451368056267,38.14137048098351
pt.ine.add.PTCONT.365310,BR CANAS,1,7230-006,BARRANCOS,-6.9771356194632155,38.13150630770205
pt.ine.add.PTCONT.365321,R LUIS DE CAMÕES,10,7230-027,BARRANCOS,-6.977963432794579,38.13036134388552
pt.ine.add.PTCONT.365324,R DR MENDES RIBEIRO,2,7230-015,BARRANCOS,-6.978758057373821,38.129873679666474
pt.ine.add.PTCONT.365326,R IGREJA,36,7230-023,BARRANCOS,-6.975319843108755,38.12876781046821
pt.ine.add.PTCONT.365327,R ESPANHA,29,7230-017,BARRANCOS,-6.975712509289255,38.1371226984573
pt.ine.add.PTCONT.365330,R NSA SRA DA CONCEIÇÃO,2T,7230-034,BARRANCOS,-6.976100362762451,38.12845118956024
pt.ine.add.PTCONT.365840,R DR FILIPE DE FIGUEIREDO,27,7230-012,BARRANCOS,-6.978042215247636,38.12970448675655
pt.ine.add.PTCONT.365873,R DAS BICAS,1 C,7230-025,BARRANCOS,-6.975006965258482,38.12835933661813
pt.ine.add.PTCONT.365895,R FORÇAS ARMADAS,48,7230-019,BARRANCOS,-6.975462859306455,38.13054392495194
pt.ine.add.PTCONT.366095,R CERRO,19,7230-007,BARRANCOS,-6.976229234822944,38.13256941361115
pt.ine.add.PTCONT.366096,R S SEBASTIÃO,11,7230-049,BARRANCOS,-6.9754984705068255,38.129733497085006
pt.ine.add.PTCONT.366110,R POÇO NOVO,30,7230-038,BARRANCOS,-6.979805650456095,38.13070375794684
pt.ine.add.PTCONT.366118,R IGREJA,33,7230-023,BARRANCOS,-6.974991577195774,38.12861142726219
pt.ine.add.PTCONT.366129,R NOUDAR,7,7230-031,BARRANCOS,-6.975548131175853,38.131643820906575
pt.ine.add.PTCONT.366676,R S JOÃO DE DEUS,62,7230-047,BARRANCOS,-6.975244935769897,38.13134354703966
pt.ine.add.PTCONT.366680,R 25 DE ABRIL,51,7230-053,BARRANCOS,-6.978066342099838,38.1325154241167
pt.ine.add.PTCONT.366707,R S BENTO,66,7230-046,BARRANCOS,-6.973133327393432,38.12928675758728
pt.ine.add.PTCONT.367159,R ANGOLA,,7230-003,BARRANCOS,-6.978198831052691,38.1335166871977
pt.ine.add.PTCONT.367177,R VASCO DA GAMA,3,7230-052,BARRANCOS,-6.97721963854337,38.13268726796417
pt.ine.add.PTCONT.367178,R MOÇAMBIQUE,15,7230-028,BARRANCOS,-6.976287930322092,38.131741195782055
pt.ine.add.PTCONT.367179,R MOÇAMBIQUE,9,7230-028,BARRANCOS,-6.976183451001781,38.1318572792269
pt.ine.add.PTCONT.367180,R POÇO NOVO,20,7230-038,BARRANCOS,-6.979302630404701,38.130779895808615
pt.ine.add.PTCONT.367181,R ESPANHA,11,7230-017,BARRANCOS,-6.9762001634787065,38.13657797549008
pt.ine.add.PTCONT.367182,R ENSINASOLA,46,7230-022,BARRANCOS,-6.976505060643598,38.136049468198635
pt.ine.add.PTCONT.367183,R ENSINASOLA,29,7230-022,BARRANCOS,-6.976660137506627,38.13561858014868
pt.ine.add.PTCONT.367184,R NOVA DO BALDIO,9,7230-033,BARRANCOS,-6.976959768759512,38.13542333964896
pt.ine.add.PTCONT.367220,R QUILIGRITO,5,7230-044,BARRANCOS,-6.976241005705009,38.13471358802459
pt.ine.add.PTCONT.367221,LG S SEBASTIÃO,3,7230-048,BARRANCOS,-6.974878432712378,38.12999764444933
pt.ine.add.PTCONT.367222,R S BENTO,46,7230-046,BARRANCOS,-6.973596718710633,38.12955258375637
pt.ine.add.PTCONT.367223,R PASSEIO,36,7230-036,BARRANCOS,-6.976437554781277,38.12731941954075
pt.ine.add.PTCONT.367224,R S JOÃO DE DEUS,48,7230-047,BARRANCOS,-6.974903974126256,38.13126811629984
pt.ine.add.PTCONT.367225,R NOUDAR,10,7230-031,BARRANCOS,-6.975445927462295,38.13161578769501
pt.ine.add.PTCONT.367264,R DR FILIPE DE FIGUEIREDO,9,7230-012,BARRANCOS,-6.977524631519696,38.129257971775495
pt.ine.add.PTCONT.367508,R IGREJA,12,7230-023,BARRANCOS,-6.975916662043948,38.12925115034187
pt.ine.add.PTCONT.367710,R FONTAÍNHAS,10,7230-018,BARRANCOS,-6.976544886771737,38.13063566186833
pt.ine.add.PTCONT.367977,R CERRO,24,7230-007,BARRANCOS,-6.976261312561322,38.132704859306344
pt.ine.add.PTCONT.367978,R DR HIGINO DE SOUSA,23,7230-013,BARRANCOS,-6.976760871246857,38.13140352386884
pt.ine.add.PTCONT.368009,R ENSINASOLA,39,7230-022,BARRANCOS,-6.976666850279794,38.13591593156791
pt.ine.add.PTCONT.368010,R S BENTO,23,7230-046,BARRANCOS,-6.973999536445922,38.13004302670321
pt.ine.add.PTCONT.368034,LG MONTES CLAROS,16,7230-029,BARRANCOS,-6.975636917592029,38.1310771507843
pt.ine.add.PTCONT.368035,R FORÇAS ARMADAS,68,7230-019,BARRANCOS,-6.975331731927464,38.13090297864885
pt.ine.add.PTCONT.368036,R JERONIMO VASQUES,15,7230-020,BARRANCOS,-6.976523012580885,38.12913100112741
pt.ine.add.PTCONT.368297,R DR MENDES RIBEIRO,18,7230-015,BARRANCOS,-6.979206608756361,38.129634853194986
pt.ine.add.PTCONT.368517,R S JOÃO DE DEUS,50,7230-047,BARRANCOS,-6.974925784347049,38.131331391916156
pt.ine.add.PTCONT.368524,R 1 DE DEZEMBRO,11,7230-042,BARRANCOS,-6.975821243774266,38.131682546707516
pt.ine.add.PTCONT.368534,R PINHAO,7,7230-037,BARRANCOS,-6.975137483772295,38.13236947398036
pt.ine.add.PTCONT.368535,R 1 DE DEZEMBRO,69,7230-042,BARRANCOS,-6.976512820442381,38.1341126854713
pt.ine.add.PTCONT.368541,R DE ANGOLA,,7230-003,BARRANCOS,-6.976937745027992,38.13392768728056
pt.ine.add.PTCONT.368542,R DE ANGOLA,,7230-003,BARRANCOS,-6.976937745027992,38.13392768728056
pt.ine.add.PTCONT.368543,R DE ANGOLA,,7230-003,BARRANCOS,-6.976937745027992,38.13392768728056
pt.ine.add.PTCONT.368558,R TIMOR,7,7230-051,BARRANCOS,-6.976201565367523,38.13215474314215
pt.ine.add.PTCONT.368559,PC LIBERDADE,8,7230-025,BARRANCOS,-6.976153566217983,38.12941563978843
pt.ine.add.PTCONT.368560,R JERONIMO VASQUES,2,7230-020,BARRANCOS,-6.976240354348288,38.1289750704598
pt.ine.add.PTCONT.368565,R PINHAO,15,7230-037,BARRANCOS,-6.974233313891356,38.1311263716344
pt.ine.add.PTCONT.368574,R POÇO NOVO,6,7230-038,BARRANCOS,-6.978349013027156,38.13050026498707
pt.ine.add.PTCONT.368575,R LUIS DE CAMÕES,14,7230-027,BARRANCOS,-6.978042261512949,38.13042517966928
pt.ine.add.PTCONT.368586,R ESPANHA,25,7230-017,BARRANCOS,-6.975828543570432,38.136997720790596
pt.ine.add.PTCONT.368590,R ESPANHA,22,7230-017,BARRANCOS,-6.97571606635762,38.13689751741593
pt.ine.add.PTCONT.369178,R DAS BICAS,1 A,7230-025,BARRANCOS,-6.974902915914344,38.12844839727734
pt.ine.add.PTCONT.369184,R ENSINASOLA,56,7230-022,BARRANCOS,-6.975956526542392,38.13611613457162
pt.ine.add.PTCONT.369345,R DE ANGOLA,,7230-003,BARRANCOS,-6.976937745027992,38.13392768728056
pt.ine.add.PTCONT.369814,R AMARELEJA,18,7230-002,BARRANCOS,-6.977944772280617,38.13516277171096
pt.ine.add.PTCONT.369815,R S BENTO,17,7230-046,BARRANCOS,-6.974135519513862,38.13009842042284
pt.ine.add.PTCONT.369959,R S BENTO,32,7230-046,BARRANCOS,-6.973833191083552,38.12974409954671
pt.ine.add.PTCONT.370119,R FONTAÍNHAS,2,7230-018,BARRANCOS,-6.9766620461607,38.130438625018456
pt.ine.add.PTCONT.370376,R VASCO DA GAMA,1,7230-052,BARRANCOS,-6.977161910295178,38.13273174311329
pt.ine.add.PTCONT.370396,MTE MARCELO,,7230-042,BARRANCOS,-6.9602790554929745,38.147879046470955
pt.ine.add.PTCONT.370397,R IGREJA,26,7230-023,BARRANCOS,-6.975510990207271,38.128940858840316
pt.ine.add.PTCONT.370398,R D MARIA DAS DORES FIALHOGARCIA,11,7230-010,BARRANCOS,-6.9764169431761704,38.12862547192396
pt.ine.add.PTCONT.370677,EN 386,,7230-000,,-7.0165690293230805,38.13187875948675
pt.ine.add.PTCONT.370887,R ENCINASOLA,30,7230-022,BARRANCOS,-6.976513317869487,38.13555649189408
pt.ine.add.PTCONT.370898,R NOVA,2,7230-032,BARRANCOS,-6.978266777496722,38.130652603637635
pt.ine.add.PTCONT.370907,R ENSINASOLA,21,7230-022,BARRANCOS,-6.976641878622314,38.135330123680056
pt.ine.add.PTCONT.370911,R DR LEITE DE VASCONCELOS,10,7230-014,BARRANCOS,-6.976755787790154,38.13244847745585
pt.ine.add.PTCONT.370912,R 1 DEZEMBRO,1,7230-042,BARRANCOS,-6.976826156932877,38.134494133698446
pt.ine.add.PTCONT.370918,MTE COELHO,,7230-042,BARRANCOS,-6.965361894349223,38.1446145225053
pt.ine.add.PTCONT.370938,R IGREJA,19,7230-023,BARRANCOS,-6.975271527699662,38.12893849868239
pt.ine.add.PTCONT.370943,BR GUARDA FISCAL,8,7230-021,BARRANCOS,-6.975497840263996,38.137715153344885
pt.ine.add.PTCONT.371499,R NOVA,10,7230-032,BARRANCOS,-6.978025037699174,38.13079436514683
pt.ine.add.PTCONT.371545,R SENTINELA,8,7230-050,BARRANCOS,-6.97524237415277,38.13150567751699
pt.ine.add.PTCONT.371851,R CERRO,46,7230-007,BARRANCOS,-6.976986451442997,38.13300928441319
pt.ine.add.PTCONT.371852,R LUIS DE CAMÕES,6B,7230-027,BARRANCOS,-6.977815901047143,38.13031484964884
pt.ine.add.PTCONT.371888,R QUILIGRITO,10,7230-044,BARRANCOS,-6.975625338649775,38.13469851386984
pt.ine.add.PTCONT.371889,R 1 DEZEMBRO,27,7230-042,BARRANCOS,-6.975524207141774,38.1324363464124
pt.ine.add.PTCONT.371890,R 1 DE DEZEMBRO,81,7230-042,BARRANCOS,-6.976770132681135,38.13443052162735
pt.ine.add.PTCONT.371891,MTE CAVACO,,7230-042,BARRANCOS,-6.960768449790333,38.14581195062799
pt.ine.add.PTCONT.371892,R D MARIA DAS DORES FIALHO GARCIA,29,7230-010,BARRANCOS,-6.976868655443991,38.12890918756223
pt.ine.add.PTCONT.372676,R MOÇAMBIQUE,35,7230-028,BARRANCOS,-6.977403863236044,38.13113058385389
pt.ine.add.PTCONT.372677,MTE AMOLEIRA,,7230-015,BARRANCOS,-7.097880807170607,38.117903235991314
pt.ine.add.PTCONT.372678,BR GUARDA FISCAL,4,7230-021,BARRANCOS,-6.975397763034244,38.13755201138679
pt.ine.add.PTCONT.372679,R LIDADOR,1O,7230-026,BARRANCOS,-6.9759861377335595,38.1349633195944
pt.ine.add.PTCONT.372680,R S BENTO,21,7230-046,BARRANCOS,-6.974068097752037,38.13003469459394
pt.ine.add.PTCONT.372681,R S BENTO,70,7230-046,BARRANCOS,-6.973009319917118,38.12919544637713
pt.ine.add.PTCONT.372682,R D MARIA DAS DORES FIALHO GARCIA,1,7230-010,BARRANCOS,-6.976179614360214,38.1284880047872
pt.ine.add.PTCONT.372683,R NSA SRA DA CONCEIÇÃO,38,7230-034,BARRANCOS,-6.97637428641518,38.12771517748013
pt.ine.add.PTCONT.372684,R FORÇAS ARMADAS,39,7230-019,BARRANCOS,-6.9756438883519065,38.130635795491294
pt.ine.add.PTCONT.372685,R DR HIGINO DE SOUSA,9,7230-013,BARRANCOS,-6.976201964224956,38.13140702897207
pt.ine.add.PTCONT.372686,R FORÇAS ARMADAS,8,7230-019,BARRANCOS,-6.976008481477387,38.129936712645765
pt.ine.add.PTCONT.373125,R 1 DE DEZEMBRO,66,7230-042,BARRANCOS,-6.976845979872964,38.134683510450756
pt.ine.add.PTCONT.373139,EN 386 MONTE ENCARNAÇÃO,APT 7,7230-039,BARRANCOS,-7.094944386258542,38.155344632673284
pt.ine.add.PTCONT.373433,R S JOÃO DE DEUS,21,7230-047,BARRANCOS,-6.975118200724517,38.1307026833814
pt.ine.add.PTCONT.373439,R DR FILIPE DE FIGUEIREDO,22,7230-012,BARRANCOS,-6.977755433674851,38.129809770196104
pt.ine.add.PTCONT.373452,LG S SEBASTIÃO,6,7230-048,BARRANCOS,-6.974728056384663,38.130131291362346
pt.ine.add.PTCONT.373459,R CRUZ,8,7230-008,BARRANCOS,-6.974689420018612,38.129689486315016
pt.ine.add.PTCONT.373466,R D MARIA DAS DORES FIALHO GARCIA,13,7230-010,BARRANCOS,-6.9764961951246995,38.12866228694184
pt.ine.add.PTCONT.373468,R ESPANHA,14,7230-017,BARRANCOS,-6.975924756400163,38.13668336619303
pt.ine.add.PTCONT.373472,ZN LINHARES,,7230-034,BARRANCOS,-6.969285140698257,38.131023396300435
pt.ine.add.PTCONT.374245,R 1 DE DEZEMBRO,111,7230-042,BARRANCOS,-6.97775985237514,38.13459340805894
pt.ine.add.PTCONT.374259,R CERRO,39,7230-007,BARRANCOS,-6.976897496382599,38.13286427040121
pt.ine.add.PTCONT.374260,R FORCAS ARMADAS,12,7230-019,BARRANCOS,-6.975881624743543,38.130025549467405
pt.ine.add.PTCONT.374261,R FORCAS ARMADAS,10A,7230-019,BARRANCOS,-6.975881624743543,38.130025549467405
pt.ine.add.PTCONT.374264,R DQ DE CADAVAL,8,7230-016,BARRANCOS,-6.97750286070237,38.12991538948307
pt.ine.add.PTCONT.374269,TV PARREIRA,5,7230-035,BARRANCOS,-6.976515589592379,38.128878685665654
pt.ine.add.PTCONT.374277,R DQ DO CADAVAL,27,7230-016,BARRANCOS,-6.977853704594577,38.13081069747712
pt.ine.add.PTCONT.375036,LG S SEBASTIÃO,15,7230-048,BARRANCOS,-6.974678030110529,38.1304100662406
pt.ine.add.PTCONT.375037,R POÇO NOVO,27,7230-038,BARRANCOS,-6.978905785428728,38.13063185847919
pt.ine.add.PTCONT.375063,R S JOÃO DE DEUS,44,7230-047,BARRANCOS,-6.974722232621374,38.13122128085667
pt.ine.add.PTCONT.375067,R ANGOLA,24,7230-003,BARRANCOS,-6.978240281793152,38.133057653549216
pt.ine.add.PTCONT.375068,R ANGOLA,14,7230-003,BARRANCOS,-6.977973312832016,38.13335231385277
pt.ine.add.PTCONT.375073,R FORÇAS ARMADAS,29,7230-019,BARRANCOS,-6.9758203419727325,38.13029520531154
pt.ine.add.PTCONT.375081,R D BELA PULIDO,2,7230-009,BARRANCOS,-6.978073301537329,38.129902982876004
pt.ine.add.PTCONT.375088,MTE CHARCO FRIO,,7230-039,BARRANCOS,-6.9911544182471035,38.13577841096729
pt.ine.add.PTCONT.375093,R DR HIGINO DE SOUSA,12,7230-013,BARRANCOS,-6.9764060874274945,38.131481108498235
pt.ine.add.PTCONT.375108,TV PREGUICA,5,7230-041,BARRANCOS,-6.974139927129008,38.12909850338055
pt.ine.add.PTCONT.375109,R S SEBASTIÃO,20,7230-049,BARRANCOS,-6.975305186991068,38.12969555745827
pt.ine.add.PTCONT.375115,HRD COURELAS,,7230-023,BARRANCOS,-7.0007359986616455,38.121709539334134
pt.ine.add.PTCONT.375118,PERIMETRO FLORESTAL,,7230-021,BARRANCOS,-6.975313520428062,38.13783044891475
pt.ine.add.PTCONT.375119,R NSA SRA DA CONCEIÇÃO,53,7230-034,BARRANCOS,-6.976096353809861,38.12798269990978
pt.ine.add.PTCONT.375120,R DE NOSSA SENHORA DA CONCEIÇÃO,61,7230-034,BARRANCOS,-6.976168183127313,38.127767199624586
pt.ine.add.PTCONT.375680,R 1 DE DEZEMBRO,35,7230-042,BARRANCOS,-6.975674871409364,38.13228468408657
pt.ine.add.PTCONT.375861,R FORÇAS ARMADAS,27,7230-019,BARRANCOS,-6.9758203419727325,38.13029520531154
pt.ine.add.PTCONT.375895,R CERRO,50,7230-007,BARRANCOS,-6.977111038679836,38.13306456254029
pt.ine.add.PTCONT.375896,R SENTINELA,9,7230-050,BARRANCOS,-6.975386776062619,38.131750334464215
pt.ine.add.PTCONT.375901,R S JOÃO DE DEUS,17,7230-047,BARRANCOS,-6.975165521537647,38.13059504605378
pt.ine.add.PTCONT.375904,R 25 DE ABRIL,16,7230-053,BARRANCOS,-6.976746866072325,38.133736626612226
pt.ine.add.PTCONT.375910,R CERRO,23,7230-007,BARRANCOS,-6.976331440174485,38.13259744616275
pt.ine.add.PTCONT.375911,R 1 DE MAIO,19,7230-043,BARRANCOS,-6.976777499496545,38.130349675099424
pt.ine.add.PTCONT.375918,MTE DANIEL CORTEGANO,,7230-042,BARRANCOS,-6.978841935139415,38.1404776835676
pt.ine.add.PTCONT.375919,R QUILIGRITO,15,7230-044,BARRANCOS,-6.975809792259983,38.1345742103702
pt.ine.add.PTCONT.375926,R INF D HENRIQUE,1,7230-024,BARRANCOS,-6.976273825346504,38.13191222124984
pt.ine.add.PTCONT.375935,R S BENTO,24,7230-046,BARRANCOS,-6.97393410936981,38.12985319934202
pt.ine.add.PTCONT.375937,R POÇO NOVO,25,7230-038,BARRANCOS,-6.978837933371147,38.130595157104466
pt.ine.add.PTCONT.375949,R NSA SRA DA CONCEIÇÃO,30,7230-034,BARRANCOS,-6.976315424364872,38.12783171036717
pt.ine.add.PTCONT.376681,R MOÇAMBIQUE,S N,7230-028,BARRANCOS,-6.976273825346504,38.13191222124984
pt.ine.add.PTCONT.376713,R FORÇAS ARMADAS,70,7230-019,BARRANCOS,-6.9753781988116605,38.13084938473642
pt.ine.add.PTCONT.376714,R S SEBASTIÃO,5,7230-049,BARRANCOS,-6.975659678693462,38.12963599051693
pt.ine.add.PTCONT.376748,R ENSINASOLA,41,7230-022,BARRANCOS,-6.97667725923475,38.13597909457376
pt.ine.add.PTCONT.377629,R ANGOLA,2,7230-003,BARRANCOS,-6.97765031731094,38.13358336183849
pt.ine.add.PTCONT.377630,R MOÇAMBIQUE,6,7230-028,BARRANCOS,-6.975962803437906,38.13210734797489
pt.ine.add.PTCONT.377659,MTE TAIPAS,,7230-015,BARRANCOS,-7.097240293342677,38.134987183138165
pt.ine.add.PTCONT.377660,R ESPANHA,12,7230-017,BARRANCOS,-6.97598263080688,38.13662988450032
pt.ine.add.PTCONT.378054,R NSA SRA DA CONCEIÇÃO,43,7230-034,BARRANCOS,-6.976539610814657,38.12735645907861
pt.ine.add.PTCONT.378498,R ANGOLA,26,7230-003,BARRANCOS,-6.9782753443659,38.1330039463751
pt.ine.add.PTCONT.378499,R 25 DE ABRIL,55,7230-053,BARRANCOS,-6.978170677488075,38.13240834623339
pt.ine.add.PTCONT.378544,R ESPANHA,6,7230-017,BARRANCOS,-6.976144991594248,38.13646031966272
pt.ine.add.PTCONT.378545,R ENSINASOLA,10,7230-022,BARRANCOS,-6.976488478814428,38.134932232742926
pt.ine.add.PTCONT.378546,R AMARELEJA,12,7230-002,BARRANCOS,-6.977670935343994,38.1351690868986
pt.ine.add.PTCONT.378547,R AMARELEJA,26,7230-002,BARRANCOS,-6.978251117512554,38.13526487929723
pt.ine.add.PTCONT.378548,R S BENTO,22,7230-046,BARRANCOS,-6.974013218884301,38.12989902327615
pt.ine.add.PTCONT.378613,R NOUDAR,9,7230-031,BARRANCOS,-6.975547419796241,38.131688857153264
pt.ine.add.PTCONT.378614,R D BELA PULIDO,14,7230-009,BARRANCOS,-6.977792056876523,38.129656983264006
pt.ine.add.PTCONT.378752,R FONTAINHAS,1,7230-018,BARRANCOS,-6.976815153904709,38.130854530401336
pt.ine.add.PTCONT.378801,R 1 DE MAIO,2,7230-043,BARRANCOS,-6.9762824410688244,38.129921393763155
pt.ine.add.PTCONT.378812,R S BENTO,22A,7230-046,BARRANCOS,-6.974013218884301,38.12989902327615
pt.ine.add.PTCONT.379167,EIRAS ALTAS,,7230-053,BARRANCOS,-6.983527233756044,38.13265908382875
pt.ine.add.PTCONT.379168,R MOÇAMBIQUE,11,7230-028,BARRANCOS,-6.976161639544087,38.131794003829754
pt.ine.add.PTCONT.379169,MTE FAUSTO,,7230-015,BARRANCOS,-7.039236443118832,38.12236263875445
pt.ine.add.PTCONT.379170,MTE DO ARROIO,,7230-023,BARRANCOS,-6.985018144400802,38.10664760001379
pt.ine.add.PTCONT.379171,R 25 DE ABRIL,17,7230-053,BARRANCOS,-6.976864172219676,38.13353058248316
pt.ine.add.PTCONT.379172,R CRUZ,15,7230-008,BARRANCOS,-6.974559572009616,38.12996747392473
pt.ine.add.PTCONT.379821,R 25 DE ABRIL,45,7230-053,BARRANCOS,-6.977730384897355,38.13284544008427
pt.ine.add.PTCONT.379830,R 1 DE DEZEMBRO,141,7230-042,BARRANCOS,-6.9793888455651985,38.133996831894756
pt.ine.add.PTCONT.379835,R 25 DE ABRIL,44,7230-053,BARRANCOS,-6.978144605332849,38.13261528887162
pt.ine.add.PTCONT.379839,R 25 DE ABRIL,49,7230-053,BARRANCOS,-6.977962006405016,38.13262250190051
pt.ine.add.PTCONT.379840,BR ESPANHOIS,,7230-011,BARRANCOS,-6.977230264508636,38.13418280845375
pt.ine.add.PTCONT.379844,BR ADUA,29,7230-001,BARRANCOS,-6.978025697058731,38.13219972159192
pt.ine.add.PTCONT.379850,R S JOÃO DE DEUS,16,7230-047,BARRANCOS,-6.974970100825417,38.13069221458736
pt.ine.add.PTCONT.379852,R MOÇAMBIQUE,12,7230-028,BARRANCOS,-6.976753196377387,38.13188991554255
pt.ine.add.PTCONT.379857,R S BENTO,2O,7230-046,BARRANCOS,-6.974093325618733,38.12988179642646
pt.ine.add.PTCONT.379864,R BICAS,,7230-023,BARRANCOS,-6.974673719027854,38.12851820637455
pt.ine.add.PTCONT.379870,R D MARIA DAS DORES FIALHO GARCIA,21,7230-010,BARRANCOS,-6.976665675842395,38.12876305085717
pt.ine.add.PTCONT.379877,R ENSINASOLA,37,7230-022,BARRANCOS,-6.976679107297827,38.1358620003706
pt.ine.add.PTCONT.380383,LG S SEBASTIÃO,2E,7230-048,BARRANCOS,-6.974953130411591,38.130322692499924
pt.ine.add.PTCONT.380415,R DR MENDES RIBEIRO,21,7230-015,BARRANCOS,-6.979243654278903,38.12945504396264
pt.ine.add.PTCONT.380424,R S BENTO,61,7230-046,BARRANCOS,-6.973289833785384,38.129486493402084
pt.ine.add.PTCONT.380649,MTE COROA,,7230-042,BARRANCOS,-6.983256252349938,38.14120563981559
pt.ine.add.PTCONT.380637,R ANGOLA,,7230-003,BARRANCOS,-6.978496462656148,38.1334475440855
pt.ine.add.PTCONT.380638,R 1 DE MAIO,16,7230-043,BARRANCOS,-6.976516931678009,38.13023900583195
pt.ine.add.PTCONT.380653,R JERONIMO VASQUES,C,7230-020,BARRANCOS,-6.97639942752085,38.129012671661975
pt.ine.add.PTCONT.380659,R S BENTO,35,7230-046,BARRANCOS,-6.9737634901427645,38.12982448949549
pt.ine.add.PTCONT.380665,R S BENTO,67,7230-046,BARRANCOS,-6.973120641312611,38.12936771018502
pt.ine.add.PTCONT.380666,R CRUZ,9,7230-008,BARRANCOS,-6.974652790354897,38.12984227217468
pt.ine.add.PTCONT.380673,R LUIS DE CAMÕES,,7230-027,BARRANCOS,-6.97788417826789,38.13032452982694
pt.ine.add.PTCONT.380678,TV PREGUICA,9U,7230-041,BARRANCOS,-6.974693264020857,38.12944629056948
pt.ine.add.PTCONT.380689,R ENSINASOLA,54,7230-022,BARRANCOS,-6.97604790154508,38.13610802610324
pt.ine.add.PTCONT.380690,R BICAS,IU,7230-023,BARRANCOS,-6.975584649024619,38.127887571942786
pt.ine.add.PTCONT.380691,R ENSINASOLA,12,7230-022,BARRANCOS,-6.976498887497244,38.13499539577028
pt.ine.add.PTCONT.381773,MTE VALE REALE,,7230-023,BARRANCOS,-6.974235835685124,38.11798276019005
pt.ine.add.PTCONT.381774,R ENSINASOLA,44,7230-022,BARRANCOS,-6.976517602162743,38.13597752253012
pt.ine.add.PTCONT.381775,R IGREJA,32,7230-023,BARRANCOS,-6.975410070759942,38.12883176036576
pt.ine.add.PTCONT.381826,R FORÇAS ARMADAS,19,7230-019,BARRANCOS,-6.976029154623505,38.130072046107045
pt.ine.add.PTCONT.381995,R S JOÃO DE DEUS,,7230-047,BARRANCOS,-6.975012155387655,38.130917845537326
pt.ine.add.PTCONT.382368,MTE MINANCO,,7230-039,BARRANCOS,-6.985083210184906,38.13598948695122
pt.ine.add.PTCONT.382369,MTE PIAS,,7230-023,BARRANCOS,-6.9732397934148205,38.118234181438446
pt.ine.add.PTCONT.382370,BR GUARDA FISCAL,18,7230-021,BARRANCOS,-6.975630708061469,38.137968704786985
pt.ine.add.PTCONT.382371,R NOVA DO BALDIO,17,7230-033,BARRANCOS,-6.976943532550798,38.135729473820554
pt.ine.add.PTCONT.382395,R AMARELEJA,36,7230-002,BARRANCOS,-6.97841446361094,38.13503226037964
pt.ine.add.PTCONT.382396,MTE CARRETA,,7230-042,BARRANCOS,-6.965989130256706,38.14247670416204
pt.ine.add.PTCONT.382397,R D MARIA DAS DORES FIALHOGARCIA,7,7230-010,BARRANCOS,-6.97633811779733,38.12856163508387
pt.ine.add.PTCONT.382398,R NSA SRA DA CONCEIÇÃO,59,7230-034,BARRANCOS,-6.976144382253184,38.12783002580235
pt.ine.add.PTCONT.382399,R NOUDAR,27,7230-031,BARRANCOS,-6.975507376036886,38.13205781721282
pt.ine.add.PTCONT.382436,R FORÇAS ARMADAS,14,7230-019,BARRANCOS,-6.975835300992804,38.13007013634801
pt.ine.add.PTCONT.382847,R ANGOLA,28,7230-003,BARRANCOS,-6.978310690772278,38.13293222467687
pt.ine.add.PTCONT.383073,R FONTAÍNHAS,18,7230-018,BARRANCOS,-6.97636573435919,38.13114739096274
pt.ine.add.PTCONT.383077,R 25 DE ABRIL,22,7230-053,BARRANCOS,-6.97748281288418,38.13335649768566
pt.ine.add.PTCONT.383182,R ANGOLA,10,7230-003,BARRANCOS,-6.977846594408443,38.13343214543543
pt.ine.add.PTCONT.383183,R ANGOLA,10,7230-003,BARRANCOS,-6.977846594408443,38.13343214543543
pt.ine.add.PTCONT.383184,R ANGOLA,10,7230-003,BARRANCOS,-6.977846594408443,38.13343214543543
pt.ine.add.PTCONT.383185,R DR LEITE DE VASCONCELOS,14,7230-014,BARRANCOS,-6.9767909932634815,38.13238576348005
pt.ine.add.PTCONT.383186,CM 1023-2,,7230-014,BARRANCOS,-7.003587201126251,38.177905895455915
pt.ine.add.PTCONT.383218,R MOÇAMBIQUE,23,7230-028,BARRANCOS,-6.976483920819346,38.131607996080064
pt.ine.add.PTCONT.383219,R ENSINASOLA,14,7230-022,BARRANCOS,-6.9765094383716555,38.13504955154915
pt.ine.add.PTCONT.383220,R LIDADOR,18,7230-026,BARRANCOS,-6.9755294119577345,38.13499485385937
pt.ine.add.PTCONT.383221,R S BENTO,68,7230-046,BARRANCOS,-6.973077310257825,38.129223143814784
pt.ine.add.PTCONT.383707,R DR FILIPE DE FIGUEIREDO,11,7230-012,BARRANCOS,-6.97754658548057,38.12931223969379
pt.ine.add.PTCONT.383728,R DQ DO CADAVAL,26,7230-016,BARRANCOS,-6.978275816128599,38.13152653197819
pt.ine.add.PTCONT.383740,R NSA SRA DA CONCEIÇÃO,21,7230-034,BARRANCOS,-6.976040930860554,38.12860375130179
pt.ine.add.PTCONT.384307,R CERRO,26,7230-007,BARRANCOS,-6.976340853156222,38.132723659973195
pt.ine.add.PTCONT.384308,R CERRO,12,7230-007,BARRANCOS,-6.9759219080786465,38.132530351675584
pt.ine.add.PTCONT.384348,R SANTO ANTÓNIO,17,7230-045,BARRANCOS,-6.97785838039016,38.1326845433094
pt.ine.add.PTCONT.384349,MTE DOMINGOS RUBIO,,7230-028,BARRANCOS,-6.994356944244671,38.1513494214467
pt.ine.add.PTCONT.384350,TV POÇO NOVO,4,7230-039,BARRANCOS,-6.978854301845953,38.130280015001254
pt.ine.add.PTCONT.384351,BR FLORESTAL,,7230-021,BARRANCOS,-6.976391246706868,38.138201413326655
pt.ine.add.PTCONT.384352,R ENSINASOLA,62,7230-022,BARRANCOS,-6.975796584676331,38.136132576030214
pt.ine.add.PTCONT.384353,R 1 DE DEZEMBRO,79,7230-042,BARRANCOS,-6.976679754896778,38.134375579953684
pt.ine.add.PTCONT.384354,R 1 DE DEZEMBRO,79,7230-042,BARRANCOS,-6.976679754896778,38.134375579953684
pt.ine.add.PTCONT.384384,R CÓNEGO ALMEIDA,20,7230-005,BARRANCOS,-6.97507740977508,38.12967529476115
pt.ine.add.PTCONT.384385,R 1 DE MAIO,13,7230-043,BARRANCOS,-6.976665599459015,38.13021344364469
pt.ine.add.PTCONT.384476,R QUILIGRITO,20,7230-044,BARRANCOS,-6.9752512881003685,38.13455068882472
pt.ine.add.PTCONT.384753,BC MIRADOURO,3,7230-042,BARRANCOS,-6.97658519258503,38.13314046396256
pt.ine.add.PTCONT.384755,R VASCO DA GAMA,7,7230-052,BARRANCOS,-6.977312713913751,38.13257107139587
pt.ine.add.PTCONT.384758,R D BELA PULIDO,3,7230-009,BARRANCOS,-6.978140584774406,38.129975713721166
pt.ine.add.PTCONT.384773,R CRUZ,7,7230-008,BARRANCOS,-6.974721920880125,38.12979791068139
pt.ine.add.PTCONT.384779,R DE S BENTO,50,7230-046,BARRANCOS,-6.973529012889485,38.12950687212046
pt.ine.add.PTCONT.384786,R ESPANHA,31,7230-017,BARRANCOS,-6.9756426608612685,38.13721209658379
pt.ine.add.PTCONT.384795,R ENSINASOLA,43,7230-022,BARRANCOS,-6.976676406278944,38.13603313805133
pt.ine.add.PTCONT.384796,R ENSINASOLA,27,7230-022,BARRANCOS,-6.976626920587884,38.135555192570926
pt.ine.add.PTCONT.385740,R NOVA DO BALDIO,11,7230-033,BARRANCOS,-6.976967335484006,38.13566664759397
pt.ine.add.PTCONT.385762,R S JOÃO DE DEUS,23,7230-047,BARRANCOS,-6.975094397937473,38.13076550928577
pt.ine.add.PTCONT.385763,R JERONIMO VASQUES,10,7230-020,BARRANCOS,-6.976509477394769,38.129265997690716
pt.ine.add.PTCONT.386102,R CERRO,29,7230-007,BARRANCOS,-6.976433076917942,38.132661507629145
pt.ine.add.PTCONT.386547,R ANGOLA,6,7230-003,BARRANCOS,-6.977731563441199,38.133494074542156
pt.ine.add.PTCONT.386548,R ANGOLA,17,7230-003,BARRANCOS,-6.978008001198249,38.13187523607095
pt.ine.add.PTCONT.386583,MTE ENCOMENDA,,7230-015,BARRANCOS,-7.052560219020183,38.1398727605623
pt.ine.add.PTCONT.386584,LG S SEBASTIÃO,26,7230-048,BARRANCOS,-6.975006286919086,38.129845757977066
pt.ine.add.PTCONT.386585,R FORÇAS ARMADAS,15,7230-019,BARRANCOS,-6.976052814168032,38.130018227242914
pt.ine.add.PTCONT.386617,LG MONTES CLAROS,1,7230-029,BARRANCOS,-6.975353257826554,38.13098426869336
pt.ine.add.PTCONT.386618,R S SEBASTIÃO,1,7230-049,BARRANCOS,-6.975752183546016,38.12955582411617
pt.ine.add.PTCONT.386619,R DR FILIPE DE FIGUEIREDO,21,7230-012,BARRANCOS,-6.977795180638514,38.12945882355008
pt.ine.add.PTCONT.386620,TV PARREIRA,3,7230-035,BARRANCOS,-6.976584291691696,38.12886134480701
pt.ine.add.PTCONT.386858,R NOVA,12,7230-032,BARRANCOS,-6.977945072793952,38.130802587416106
pt.ine.add.PTCONT.386879,R S BENTO,77,7230-046,BARRANCOS,-6.972827442207726,38.12915761533258
pt.ine.add.PTCONT.387091,R 1 DE DEZEMBRO,74,7230-042,BARRANCOS,-6.9771960899237495,38.134903164020024
pt.ine.add.PTCONT.387092,R 1 DE DEZEMBRO,70,7230-042,BARRANCOS,-6.977037998366859,38.134802512977835
pt.ine.add.PTCONT.387098,R CERRO,18,7230-007,BARRANCOS,-6.976057186134319,38.13263077949138
pt.ine.add.PTCONT.387099,R 1 DE DEZEMBRO,45,7230-042,BARRANCOS,-6.976110648601885,38.132856522379434
pt.ine.add.PTCONT.387102,R SANTO ANTÓNIO,7,7230-045,BARRANCOS,-6.977439857533616,38.13246421860088
pt.ine.add.PTCONT.387105,R FORÇAS ARMADAS,2,7230-019,BARRANCOS,-6.976158997294888,38.12979405679094
pt.ine.add.PTCONT.387106,R DR MENDES RIBEIRO,13,7230-015,BARRANCOS,-6.979001778488714,38.12960581486794
pt.ine.add.PTCONT.387107,CM 1023-2,,7230-039,BARRANCOS,-6.9973899464968135,38.172044573870295
pt.ine.add.PTCONT.387108,R PINHAO,23,7230-037,BARRANCOS,-6.973930410987937,38.130808079977236
pt.ine.add.PTCONT.387109,R JERONIMO VASQUES,I,7230-020,BARRANCOS,-6.976533704882298,38.12917614968766
pt.ine.add.PTCONT.387113,R S BENTO,43,7230-046,BARRANCOS,-6.973593583587731,38.12975074317302
pt.ine.add.PTCONT.387119,R NOVA,8,7230-032,BARRANCOS,-6.978315512982576,38.13045489236656
pt.ine.add.PTCONT.387120,R NOVA,4,7230-032,BARRANCOS,-6.978231716087128,38.13070631084821
pt.ine.add.PTCONT.387121,R LUIS DE CAMÕES,18,7230-027,BARRANCOS,-6.978167696918428,38.13042641308546
pt.ine.add.PTCONT.387132,R ESPANHA,32,7230-017,BARRANCOS,-6.975346434657584,38.137191159730236
pt.ine.add.PTCONT.387684,R CRUZ,25,7230-008,BARRANCOS,-6.974443119826895,38.130119472373295
pt.ine.add.PTCONT.387899,R DR LEITE DE VASCONCELOS,38,7230-014,BARRANCOS,-6.977099420130206,38.131632072582555
pt.ine.add.PTCONT.387911,R 1 DE DEZEMBRO,54,7230-042,BARRANCOS,-6.976417609063929,38.13436399004498
pt.ine.add.PTCONT.387917,R FORÇAS ARMADAS,66,7230-019,BARRANCOS,-6.975400436199318,38.130885638523544
pt.ine.add.PTCONT.387928,R TIMOR,15,7230-051,BARRANCOS,-6.976495496949372,38.13231979355719
pt.ine.add.PTCONT.387929,R S BENTO,1,7230-046,BARRANCOS,-6.974565421990259,38.130318869089685
pt.ine.add.PTCONT.387939,MTE TAPADA,,7230-015,BARRANCOS,-7.10143822251743,38.137375409291955
pt.ine.add.PTCONT.387951,R ESPANHA,19,7230-017,BARRANCOS,-6.9759796435888735,38.1368190366021
pt.ine.add.PTCONT.387953,R D MARIA DAS DORES FIALHO GARCIA,10,7230-010,BARRANCOS,-6.9764262138179225,38.12876069306215
pt.ine.add.PTCONT.388640,R FONTAÍNHAS,20,7230-018,BARRANCOS,-6.976618171058741,38.13105078149101
pt.ine.add.PTCONT.388680,R NOVA DO BALDIO,24,7230-033,BARRANCOS,-6.976842317574208,38.1356383910114
pt.ine.add.PTCONT.388699,R TIMOR,20,7230-051,BARRANCOS,-6.976516171556347,38.13245512690402
pt.ine.add.PTCONT.388700,R S SEBASTIÃO,21,7230-049,BARRANCOS,-6.975234206945749,38.12985701356862
pt.ine.add.PTCONT.388705,R DR LEITE DE VASCONCELOS,36,7230-014,BARRANCOS,-6.977063078577493,38.131766844701254
pt.ine.add.PTCONT.388706,MTE CACADOR,,7230-042,BARRANCOS,-6.957459197991208,38.15440911981435
pt.ine.add.PTCONT.388712,BR CANAS,4,7230-006,BARRANCOS,-6.977385499556406,38.13157182718317
pt.ine.add.PTCONT.388715,R POÇO NOVO,26,7230-038,BARRANCOS,-6.979588846586641,38.130710637688125
pt.ine.add.PTCONT.388716,R S BENTO,65,7230-046,BARRANCOS,-6.9731772288166765,38.1293952949567
pt.ine.add.PTCONT.388720,R NOVA,10,7230-032,BARRANCOS,-6.978473880932907,38.130537527119394
pt.ine.add.PTCONT.388725,R NSA SRA DA CONCEIÇÃO,15,7230-034,BARRANCOS,-6.975946721004466,38.12879200502843
pt.ine.add.PTCONT.389437,R TIMOR,5,7230-051,BARRANCOS,-6.97613385552017,38.13210903296307
pt.ine.add.PTCONT.389751,ZN LINHARES,,7230-031,BARRANCOS,-6.9716225829655345,38.13465900030204
pt.ine.add.PTCONT.389714,R VASCO DA GAMA,9,7230-052,BARRANCOS,-6.977370441943218,38.132526596167914
pt.ine.add.PTCONT.389748,R 1 DE DEZEMBRO,91,7230-042,BARRANCOS,-6.9770749100286436,38.13463171196174
pt.ine.add.PTCONT.389749,R QUILIGRITO,23,7230-044,BARRANCOS,-6.975457411202501,38.13449866866504
pt.ine.add.PTCONT.389750,R S BENTO,42,7230-046,BARRANCOS,-6.973652451551196,38.12963421178181
pt.ine.add.PTCONT.389800,R SENTINELA,10,7230-050,BARRANCOS,-6.975287133810581,38.13156017063756
pt.ine.add.PTCONT.389801,R S SEBASTIÃO,25,7230-049,BARRANCOS,-6.975153531225617,38.129910270204505
pt.ine.add.PTCONT.389802,R BOAVISTA,11,7230-004,BARRANCOS,-6.977148757610807,38.12922724738637
pt.ine.add.PTCONT.390039,R DR FILIPE DE FIGUEIREDO,7,7230-012,BARRANCOS,-6.977456923457621,38.12921226236673
pt.ine.add.PTCONT.390059,R QUILIGRITO,23,7230-044,BARRANCOS,-6.975457411202501,38.13449866866504
pt.ine.add.PTCONT.390243,R FONTAÍNHAS,22,7230-018,BARRANCOS,-6.976743465345932,38.13106102369886
pt.ine.add.PTCONT.390504,R 1 DE DEZEMBRO,37,7230-042,BARRANCOS,-6.9757075170483045,38.13238410092635
pt.ine.add.PTCONT.390585,PC LIBERDADE,4,7230-025,BARRANCOS,-6.975987808401297,38.129801379179014
pt.ine.add.PTCONT.390586,R DR FILIPE DE FIGUEIREDO,19,7230-012,BARRANCOS,-6.977738165304315,38.12945826275415
pt.ine.add.PTCONT.390587,R DR FILIPE DE FIGUEIREDO,6,7230-012,BARRANCOS,-6.977499269017073,38.12941987807321
pt.ine.add.PTCONT.391067,R LUIS DE CAMÕES,30,7230-027,BARRANCOS,-6.978631062119795,38.129971526775805
pt.ine.add.PTCONT.391211,R CERRO,33,7230-007,BARRANCOS,-6.9767277217235275,38.13278152123503
pt.ine.add.PTCONT.391212,R POÇO NOVO,9,7230-038,BARRANCOS,-6.978407164531974,38.13042876741723
pt.ine.add.PTCONT.391213,R ESPANHA,30,7230-017,BARRANCOS,-6.975427260712995,38.137128895912575
pt.ine.add.PTCONT.391239,R JERONIMO VASQUES,5,7230-020,BARRANCOS,-6.976309056599543,38.12895772976493
pt.ine.add.PTCONT.391240,R NOUDAR,13,7230-031,BARRANCOS,-6.975534735891475,38.1317698100154
pt.ine.add.PTCONT.391241,R 1 DE DEZEMBRO,5,7230-042,BARRANCOS,-6.9757662182354165,38.13155588342458
pt.ine.add.PTCONT.391242,R 1 DE MAIO,11A,7230-043,BARRANCOS,-6.976620697423051,38.130167958289
pt.ine.add.PTCONT.391275,R 1 DE MAIO,7A,7230-043,BARRANCOS,-6.976508655800162,38.13004073394473
pt.ine.add.PTCONT.391933,R 1 DE DEZEMBRO,117,7230-042,BARRANCOS,-6.977978229739499,38.134487452105965
pt.ine.add.PTCONT.391942,R DR LEITE DE VASCONCELOS,24,7230-014,BARRANCOS,-6.976932951406828,38.13206284943042
pt.ine.add.PTCONT.391943,R DR MENDES RIBEIRO,17,7230-015,BARRANCOS,-6.9791283471368475,38.12953498912575
pt.ine.add.PTCONT.391966,MTE SAPATAO,,7230-015,BARRANCOS,-7.104538492359233,38.148906743758864
pt.ine.add.PTCONT.391973,MTE CANTO DE LIMA,,7230-023,BARRANCOS,-6.978973191542051,38.112588156998996
pt.ine.add.PTCONT.391976,R ESPANHA,33,7230-017,BARRANCOS,-6.975584643439818,38.137274585333266
pt.ine.add.PTCONT.392500,R DR HIGINO DE SOUSA,1,7230-013,BARRANCOS,-6.9757127576789175,38.131330140362905
pt.ine.add.PTCONT.392670,BR ADUA,3,7230-001,BARRANCOS,-6.977245249219945,38.13178665479992
pt.ine.add.PTCONT.392748,R S BENTO,37,7230-046,BARRANCOS,-6.973695783968254,38.12977877795206
pt.ine.add.PTCONT.392756,R S BENTO,72,7230-046,BARRANCOS,-6.972941472211977,38.12915874165597
pt.ine.add.PTCONT.392775,R ENSINASOLA,38,7230-022,BARRANCOS,-6.976497921988897,38.13577913852533
pt.ine.add.PTCONT.392776,R NSA SRA DA CONCEIÇÃO,44,7230-034,BARRANCOS,-6.976456238105709,38.127580854607125
pt.ine.add.PTCONT.393484,R ENSINASOLA,23,7230-022,BARRANCOS,-6.976617791201544,38.13541096433548
pt.ine.add.PTCONT.393639,R ANGOLA,15,7230-003,BARRANCOS,-6.977995461944127,38.13194718198267
pt.ine.add.PTCONT.393640,R MOÇAMBIQUE,39,7230-028,BARRANCOS,-6.97734769892072,38.13107597931177
pt.ine.add.PTCONT.393641,R ENSINASOLA,19,7230-022,BARRANCOS,-6.976641594301888,38.135348138174386
pt.ine.add.PTCONT.393667,R S BENTO,8,7230-046,BARRANCOS,-6.974306851638068,38.1300820935013
pt.ine.add.PTCONT.394130,R NSA SRA DA CONCEIÇÃO,34,7230-034,BARRANCOS,-6.976408068335292,38.12774253611959
pt.ine.add.PTCONT.394424,CM 1023-2,,7230-014,BARRANCOS,-6.988494981269841,38.17385000882149
pt.ine.add.PTCONT.394425,R LUIS DE CAMÕES,6A,7230-027,BARRANCOS,-6.977805349795979,38.13026069393994
pt.ine.add.PTCONT.394463,R 1 DE DEZEMBRO,44,7230-042,BARRANCOS,-6.976306983525562,38.134146693020284
pt.ine.add.PTCONT.394918,R ESPANHA,2,7230-017,BARRANCOS,-6.97631932456834,38.13625483792216
pt.ine.add.PTCONT.395150,R NOVA DO BALDIO,1,7230-033,BARRANCOS,-6.977008985522073,38.13506125576607
pt.ine.add.PTCONT.395157,R FORÇAS ARMADAS,17,7230-019,BARRANCOS,-6.976097573556367,38.130072720063296
pt.ine.add.PTCONT.395168,R INF D HENRIQUE,2,7230-024,BARRANCOS,-6.976317875107636,38.1320117502464
pt.ine.add.PTCONT.395180,R S BENTO,79,7230-046,BARRANCOS,-6.972725528258567,38.12911156532578
pt.ine.add.PTCONT.395192,R D MARIA DAS DORES FIALHO GARCIA,41,7230-010,BARRANCOS,-6.977094441859423,38.12905554837498
pt.ine.add.PTCONT.395193,R ESPANHA,16,7230-017,BARRANCOS,-6.975878286100383,38.13673696021649
pt.ine.add.PTCONT.395195,R BICAS,6,7230-023,BARRANCOS,-6.975293887167306,38.12824505258265
pt.ine.add.PTCONT.395196,R BICAS,11,7230-023,BARRANCOS,-6.97547133222089,38.12784141194186
pt.ine.add.PTCONT.395740,BR GUARDA FISCAL,3,7230-021,BARRANCOS,-6.975760993839999,38.137663694804935
pt.ine.add.PTCONT.396065,R CERRO,30,7230-007,BARRANCOS,-6.97646529723942,38.132787946022766
pt.ine.add.PTCONT.396106,R S JOAO DEUS,4,7230-047,BARRANCOS,-6.974779804751079,38.13046512184059
pt.ine.add.PTCONT.396107,R S JOAO DEUS,2,7230-047,BARRANCOS,-6.974779804751079,38.13046512184059
pt.ine.add.PTCONT.396108,R SENTINELA,22,7230-050,BARRANCOS,-6.975180660695145,38.131802354647164
pt.ine.add.PTCONT.396136,LG S SEBASTIAO,33,7230-048,BARRANCOS,-6.975103649060941,38.1301800380525
pt.ine.add.PTCONT.396137,R S JOÃO DE DEUS,27,7230-047,BARRANCOS,-6.975058907175795,38.130846237257295
pt.ine.add.PTCONT.396138,LG MONTES CLAROS,3,7230-029,BARRANCOS,-6.975351265671497,38.13111037018868
pt.ine.add.PTCONT.396501,R 1 DE MAIO,12,7230-043,BARRANCOS,-6.976449649841316,38.13016627408182
pt.ine.add.PTCONT.396524,R QUILIGRITO,2,7230-044,BARRANCOS,-6.975165055934508,38.13495522783812
pt.ine.add.PTCONT.396536,R TIMOR,19,7230-051,BARRANCOS,-6.976608821276624,38.13236595265687
pt.ine.add.PTCONT.396838,R ANGOLA,4,7230-003,BARRANCOS,-6.977696074165642,38.13357480329917
pt.ine.add.PTCONT.396839,R 25 DE ABRIL,42,7230-053,BARRANCOS,-6.978098991095389,38.13261484034152
pt.ine.add.PTCONT.396840,R SANTO ANTÓNIO,19,7230-045,BARRANCOS,-6.977914830275436,38.132721133108014
pt.ine.add.PTCONT.396841,MTE MANUEL PIRES,,7230-039,BARRANCOS,-7.011891382716175,38.13719436360536
pt.ine.add.PTCONT.396842,R NOVA,6,7230-032,BARRANCOS,-6.978162728712378,38.13074166716193
pt.ine.add.PTCONT.396843,R DR MENDES RIBEIRO,4,7230-015,BARRANCOS,-6.978815073051664,38.12987423997256
pt.ine.add.PTCONT.396844,MTE CARRASCA,,7230-015,BARRANCOS,-7.081040142873858,38.10426751331896
pt.ine.add.PTCONT.396878,R LIDADOR,21,7230-026,BARRANCOS,-6.976122984732056,38.13496466766264
pt.ine.add.PTCONT.396879,R S JOÃO DE DEUS,36,7230-047,BARRANCOS,-6.974862346795648,38.13101546358207
pt.ine.add.PTCONT.396880,LG S SEBASTIÃO,4,7230-048,BARRANCOS,-6.974809871520998,38.1300059770337
pt.ine.add.PTCONT.396881,TV PREGUICA,3,7230-041,BARRANCOS,-6.974196372395107,38.12913509491415
pt.ine.add.PTCONT.396882,R S SEBASTIÃO,3,7230-049,BARRANCOS,-6.975660674454563,38.129572939746886
pt.ine.add.PTCONT.397331,R NOUDAR,32,7230-031,BARRANCOS,-6.975321505305421,38.13227219286082
pt.ine.add.PTCONT.397619,R ANGOLA,8,7230-003,BARRANCOS,-6.977777462242362,38.13347650871637
pt.ine.add.PTCONT.397620,BR ADUA,17,7230-001,BARRANCOS,-6.977545187985366,38.132294090503954
pt.ine.add.PTCONT.397621,R DR MENDES RIBEIRO,6,7230-015,BARRANCOS,-6.978827469232964,38.12981130119249
pt.ine.add.PTCONT.397622,R 25 DE ABRIL,4,7230-053,BARRANCOS,-6.976537191847504,38.13401383031715
pt.ine.add.PTCONT.397623,R D MARIA DAS DORES FIALHO GARCIA,33,7230-010,BARRANCOS,-6.976947765840428,38.128955009540036
pt.ine.add.PTCONT.397624,R NSA SRA DA CONCEIÇÃO,25,7230-034,BARRANCOS,-6.976031518742741,38.12847753739713
pt.ine.add.PTCONT.397625,R NSA SRA DA CONCEIÇÃO,28,7230-034,BARRANCOS,-6.976268107117616,38.12793934826357
pt.ine.add.PTCONT.397626,LG S SEBASTIÃO,19,7230-048,BARRANCOS,-6.974884568922507,38.1303310251227
pt.ine.add.PTCONT.397627,R FORÇAS ARMADAS,56,7230-019,BARRANCOS,-6.975413973801183,38.130750642162205
pt.ine.add.PTCONT.398116,R BOAVISTA,3,7230-004,BARRANCOS,-6.976676827621261,38.129501870444884
pt.ine.add.PTCONT.398389,R 25 DE ABRIL,34,7230-053,BARRANCOS,-6.977854688442821,38.13291873193779
pt.ine.add.PTCONT.398390,R VASCO DA GAMA,2,7230-052,BARRANCOS,-6.977135693070817,38.13294769272134
pt.ine.add.PTCONT.398391,R DR LEITE DE VASCONCELOS,4,7230-014,BARRANCOS,-6.976662143134207,38.13260070257942
pt.ine.add.PTCONT.398392,R ESPANHA,23,7230-017,BARRANCOS,-6.975875156339016,38.136935119550145
pt.ine.add.PTCONT.398413,BR GUARDA FISCAL,1,7230-021,BARRANCOS,-6.975671324361198,38.13756371612938
pt.ine.add.PTCONT.398414,R ENSINASOLA,17,7230-022,BARRANCOS,-6.975568075853214,38.13615735019723
pt.ine.add.PTCONT.398415,R ENSINASOLA,40,7230-022,BARRANCOS,-6.976485380489447,38.135851084194336
pt.ine.add.PTCONT.398416,R 25 DE ABRIL,23,7230-053,BARRANCOS,-6.977094235500094,38.1334067258785
pt.ine.add.PTCONT.398417,R S JOÃO DE DEUS,30,7230-047,BARRANCOS,-6.974909810546205,38.13089881912396
pt.ine.add.PTCONT.398418,R S BENTO,49,7230-046,BARRANCOS,-6.973515614624772,38.129632860994455
pt.ine.add.PTCONT.398419,R S BENTO,48,7230-046,BARRANCOS,-6.9735281578105,38.12956091559752
pt.ine.add.PTCONT.398449,TV PREGUICA,10,7230-041,BARRANCOS,-6.974693975868045,38.12940125431917
pt.ine.add.PTCONT.398450,R IGREJA,21,7230-023,BARRANCOS,-6.975237887972361,38.12890213246687
pt.ine.add.PTCONT.398451,R D MARIA DAS DORES FIALHO GARCIA,17,7230-010,BARRANCOS,-6.976564186345752,38.12868998237663
pt.ine.add.PTCONT.398452,TV PARREIRA,1,7230-035,BARRANCOS,-6.976596405324291,38.12881642079384
pt.ine.add.PTCONT.399150,R ANGOLA,12,7230-003,BARRANCOS,-6.977904180817309,38.13339667721132
pt.ine.add.PTCONT.399151,R CERRO,41,7230-007,BARRANCOS,-6.97696549161947,38.13289196564919
pt.ine.add.PTCONT.399152,R VASCO DA GAMA,5,7230-052,BARRANCOS,-6.977254985814236,38.132615546593975
pt.ine.add.PTCONT.399153,R NOVA,5,7230-032,BARRANCOS,-6.978264790377947,38.13077870526987
pt.ine.add.PTCONT.399181,R ESPANHA,4,7230-017,BARRANCOS,-6.976202865662593,38.13640683785407
pt.ine.add.PTCONT.399182,R AMARELEJA,5,7230-002,BARRANCOS,-6.977262382166074,38.13503894611416
pt.ine.add.PTCONT.399183,R 1 DE DEZEMBRO,85,7230-042,BARRANCOS,-6.976927938829354,38.13454918751622
pt.ine.add.PTCONT.399184,MTE ANDRE BERGANO,,7230-042,BARRANCOS,-6.980384899175405,38.14245672078137
pt.ine.add.PTCONT.399185,MTE ANTÓNIO DOMINGOS,,7230-044,BARRANCOS,-6.956416597156353,38.153263593681366
pt.ine.add.PTCONT.399186,R S BENTO,55,7230-046,BARRANCOS,-6.973391463557064,38.129550557421865
pt.ine.add.PTCONT.399225,R IGREJA,17,7230-023,BARRANCOS,-6.975305025168099,38.12898387214131
pt.ine.add.PTCONT.399226,R NSA SRA DA CONCEIÇÃO,17,7230-034,BARRANCOS,-6.976004304604748,38.1287565376646
pt.ine.add.PTCONT.399227,R NSA SRA DA CONCEIÇÃO,49,7230-034,BARRANCOS,-6.976049178335965,38.12808133045204
pt.ine.add.PTCONT.399228,R JERONIMO VASQUES,11,7230-020,BARRANCOS,-6.976432925728644,38.129058044810385
pt.ine.add.PTCONT.399712,TV PREGUICA,11,7230-041,BARRANCOS,-6.973903028586383,38.12893400995269
pt.ine.add.PTCONT.399740,R DR LEITE DE VASCONCELOS,19,7230-014,BARRANCOS,-6.9768189167233965,38.13206172690947
pt.ine.add.PTCONT.399922,R CERRO,45,7230-007,BARRANCOS,-6.97744089153537,38.133121860314866
pt.ine.add.PTCONT.400082,R 25 DE ABRIL,38 A,7230-053,BARRANCOS,-6.978005490960476,38.132758059317666
pt.ine.add.PTCONT.400083,R CERRO,21,7230-007,BARRANCOS,-6.976309344010822,38.13255218529615
pt.ine.add.PTCONT.400108,R MOÇAMBIQUE,13,7230-028,BARRANCOS,-6.9762302022802665,38.13178567048314
pt.ine.add.PTCONT.400109,R MOÇAMBIQUE,31,7230-028,BARRANCOS,-6.9770830072153585,38.131226521665646
pt.ine.add.PTCONT.400110,R POÇO NOVO,14,7230-038,BARRANCOS,-6.978632249243512,38.130620161663266
pt.ine.add.PTCONT.400139,LG S SEBASTIÃO,14,7230-048,BARRANCOS,-6.974667196418796,38.13037392478472
pt.ine.add.PTCONT.400140,R BOAVISTA,9,7230-004,BARRANCOS,-6.977033874844654,38.1292801686918
pt.ine.add.PTCONT.400494,R CÓNEGO ALMEIDA,12,7230-005,BARRANCOS,-6.975215527614556,38.12959557846802
pt.ine.add.PTCONT.400829,R 25 DE ABRIL,47,7230-053,BARRANCOS,-6.977788538917871,38.13277394288824
pt.ine.add.PTCONT.400830,MTE LITO DAMIÃO,,7230-039,BARRANCOS,-6.997026083654018,38.1410783895519
pt.ine.add.PTCONT.400831,MTE JOÃO CHAMORRO,,7230-039,BARRANCOS,-6.997162248471049,38.13671050787811
pt.ine.add.PTCONT.400832,R DR MENDES RIBEIRO,10,7230-015,BARRANCOS,-6.978999792709052,38.129731916555365
pt.ine.add.PTCONT.400833,R JERONIMO VASQUES,2A,7230-020,BARRANCOS,-6.976273994612997,38.129011436396304
pt.ine.add.PTCONT.400834,R DR FILIPE DE FIGUEIREDO,8A,7230-012,BARRANCOS,-6.977405771959327,38.12956309669498
pt.ine.add.PTCONT.401346,R ANGOLA,1,7230-003,BARRANCOS,-6.977802967773339,38.13330559522703
pt.ine.add.PTCONT.401366,BR FLORESTAL,,7230-021,BARRANCOS,-6.976244980357129,38.138073851764
pt.ine.add.PTCONT.401569,R 25 DE ABRIL,24,7230-053,BARRANCOS,-6.9775523712228535,38.13328511281871
pt.ine.add.PTCONT.401575,R VASCO DA GAMA,10,7230-052,BARRANCOS,-6.977344509542336,38.13272453133411
pt.ine.add.PTCONT.401576,R 1 DEZEMBRO,36A,7230-042,BARRANCOS,-6.975770390273003,38.13273605780285
pt.ine.add.PTCONT.401577,R 1 DE DEZEMBRO,36,7230-042,BARRANCOS,-6.975770390273003,38.13273605780285
pt.ine.add.PTCONT.401578,R PINHAO,1,7230-037,BARRANCOS,-6.975456639762127,38.13238162859962
pt.ine.add.PTCONT.401584,PC LIBERDADE,3,7230-025,BARRANCOS,-6.975909551051413,38.129701513035236
pt.ine.add.PTCONT.401594,R PINHAO,17,7230-037,BARRANCOS,-6.974177009539523,38.131080772859924
pt.ine.add.PTCONT.401598,R DR HIGINO DE SOUSA,10,7230-013,BARRANCOS,-6.976348359664859,38.13152558326376
pt.ine.add.PTCONT.401605,R CRUZ,16,7230-008,BARRANCOS,-6.97453947117038,38.129796111250606
pt.ine.add.PTCONT.401618,R ENSINASOLA,35,7230-022,BARRANCOS,-6.976668698355317,38.13579883736393
pt.ine.add.PTCONT.402621,R ANGOLA,18,7230-003,BARRANCOS,-6.978077791550212,38.13323622883339
pt.ine.add.PTCONT.402622,R SANTO ANTÓNIO,13,7230-045,BARRANCOS,-6.977643274846013,38.13258333230287
pt.ine.add.PTCONT.402623,R MOÇAMBIQUE,12,7230-028,BARRANCOS,-6.976366759005438,38.131805032676056
pt.ine.add.PTCONT.402654,R NOVA DO BALDIO,13,7230-033,BARRANCOS,-6.976934260402112,38.1355942528513
pt.ine.add.PTCONT.402655,LG S SEBASTIÃO,28,7230-048,BARRANCOS,-6.97501683604331,38.12989991390702
pt.ine.add.PTCONT.402656,TV PREGUICA,4,7230-041,BARRANCOS,-6.974816989347907,38.12955561453888
pt.ine.add.PTCONT.402657,R NSA SRA DA CONCEIÇÃO,35,7230-034,BARRANCOS,-6.976101926866323,38.128352109742934
pt.ine.add.PTCONT.402658,R NOUDAR,17,7230-031,BARRANCOS,-6.975533170829051,38.13186888975505
pt.ine.add.PTCONT.402659,R FORÇAS ARMADAS,25,7230-019,BARRANCOS,-6.975856116080161,38.13019646257965
pt.ine.add.PTCONT.402660,LG S SEBASTIÃO,21,7230-048,BARRANCOS,-6.9749425812817725,38.13026853656783
pt.ine.add.PTCONT.402685,R FORÇAS ARMADAS,34,7230-019,BARRANCOS,-6.975464851229035,38.130417823439444
pt.ine.add.PTCONT.402686,R DR MENDES RIBEIRO,19,7230-015,BARRANCOS,-6.97917481038972,38.12948139364061
pt.ine.add.PTCONT.403015,R 1 DE DEZEMBRO,103,7230-042,BARRANCOS,-6.977437560922718,38.13477941905854
pt.ine.add.PTCONT.403243,R AMARELEJA,22,7230-002,BARRANCOS,-6.978149759534409,38.13518280484436
pt.ine.add.PTCONT.403247,R ANGOLA,22,7230-003,BARRANCOS,-6.978193815531374,38.13311124858533
pt.ine.add.PTCONT.403251,R 25 DE ABRIL,38,7230-053,BARRANCOS,-6.978004781062455,38.13280309559487
pt.ine.add.PTCONT.403252,R 25 DE ABRIL,10,7230-053,BARRANCOS,-6.976618724116867,38.1339065293281
pt.ine.add.PTCONT.403253,R S JOÃO DE DEUS,35,7230-047,BARRANCOS,-6.9750455112327865,38.130972226315954
pt.ine.add.PTCONT.403254,R FORÇAS ARMADAS,38,7230-019,BARRANCOS,-6.975532843656722,38.130445519483054
pt.ine.add.PTCONT.403263,R TIMOR,12,7230-051,BARRANCOS,-6.976199716787285,38.13227183739962
pt.ine.add.PTCONT.403264,BR ADUA,1,7230-001,BARRANCOS,-6.9771775390402855,38.13174094521473
pt.ine.add.PTCONT.403267,MTE XICO ESPERTO,,7230-042,BARRANCOS,-6.979569547403246,38.14207936135903
pt.ine.add.PTCONT.403277,R CRUZ,14,7230-008,BARRANCOS,-6.9746078898096275,38.12979678607034
pt.ine.add.PTCONT.403281,R ESPANHA,3,7230-017,BARRANCOS,-6.976443063601755,38.136364160277495
pt.ine.add.PTCONT.403289,R ENSINASOLA,36,7230-022,BARRANCOS,-6.976487228850632,38.13573398999657
pt.ine.add.PTCONT.403866,R INF D HENRIQUE,5,7230-024,BARRANCOS,-6.976455427441362,38.131968061581766
pt.ine.add.PTCONT.403882,R S BENTO,59,7230-046,BARRANCOS,-6.973271731109976,38.12990972132827
pt.ine.add.PTCONT.404183,CM 1023-2,,7230-014,BARRANCOS,-6.98413232260948,38.156618974964424
pt.ine.add.PTCONT.404184,R POÇO NOVO,8,7230-038,BARRANCOS,-6.978405319589756,38.130545861800364
pt.ine.add.PTCONT.404185,R NOVA,6,7230-032,BARRANCOS,-6.977851530506001,38.13022511352532
pt.ine.add.PTCONT.404186,MTE CHAPARRAL,,7230-023,BARRANCOS,-6.973438039761795,38.11939825693063
pt.ine.add.PTCONT.404187,BR GUARDA FISCAL,10,7230-021,BARRANCOS,-6.97546448113868,38.13766077270134
pt.ine.add.PTCONT.404188,R ENSINASOLA,42,7230-022,BARRANCOS,-6.976507335525639,38.13590535226643
pt.ine.add.PTCONT.404189,BR FERRAGIAL,LT,7230-011,BARRANCOS,-6.977303233630083,38.13389524973092
pt.ine.add.PTCONT.404190,BR FERRAGIAL,7,7230-011,BARRANCOS,-6.977303233630083,38.13389524973092
pt.ine.add.PTCONT.404191,BR FERRAGIAL,,7230-011,BARRANCOS,-6.977303233630083,38.13389524973092
pt.ine.add.PTCONT.404228,R BICAS,13,7230-023,BARRANCOS,-6.975517654745667,38.12779682516915
pt.ine.add.PTCONT.404229,R NOUDAR,,7230-031,BARRANCOS,-6.975497537698099,38.13195862509219
pt.ine.add.PTCONT.404230,R DR HIGINO DE SOUSA,11,7230-013,BARRANCOS,-6.976304878863697,38.131390025265986
pt.ine.add.PTCONT.404231,R DQ DE CADAVAL,7,7230-016,BARRANCOS,-6.977662646631574,38.12990795271883
pt.ine.add.PTCONT.404264,R DR FILIPE DE FIGUEIREDO,17,7230-012,BARRANCOS,-6.977738733285764,38.129422233715225
pt.ine.add.PTCONT.404710,R S JOÃO DE DEUS,46,7230-047,BARRANCOS,-6.974790510228662,38.13123096283877
pt.ine.add.PTCONT.404743,R D BELA PULIDO,8,7230-009,BARRANCOS,-6.977662646631574,38.12990795271883
pt.ine.add.PTCONT.405108,R QUILIGRITO,13,7230-044,BARRANCOS,-6.9759115734797925,38.134629265057626
pt.ine.add.PTCONT.405136,R NSA SRA DA CONCEIÇÃO,22,7230-034,BARRANCOS,-6.976163064613885,38.12809146087835
pt.ine.add.PTCONT.405137,R DR MENDES RIBEIRO,5,7230-015,BARRANCOS,-6.978840574698745,38.129703326096134
pt.ine.add.PTCONT.405546,EN 258,,7230-033,BARRANCOS,-6.977673959333374,38.13570062684972
pt.ine.add.PTCONT.405718,R FONTAÍNHAS,26,7230-018,BARRANCOS,-6.976982224429309,38.13110841724083
pt.ine.add.PTCONT.405736,LG MONTES CLAROS,57A,7230-029,BARRANCOS,-6.975177796547876,38.131261807329466
pt.ine.add.PTCONT.405750,R SENTINELA,28,7230-050,BARRANCOS,-6.975326628309913,38.131947931934874
pt.ine.add.PTCONT.405754,R 1 DE DEZEMBRO,78,7230-042,BARRANCOS,-6.977286468746146,38.13495810530814
pt.ine.add.PTCONT.405756,R 1 DE DEZEMBRO,101,7230-042,BARRANCOS,-6.97738039938998,38.13478786527357
pt.ine.add.PTCONT.405765,R BOAVISTA,2,7230-004,BARRANCOS,-6.97640972362613,38.12980553473162
pt.ine.add.PTCONT.405769,BR FERRAGIAL,,7230-011,BARRANCOS,-6.97762026627713,38.13404250735974
pt.ine.add.PTCONT.405770,BR ESPANHOIS,,7230-011,BARRANCOS,-6.97762026627713,38.13404250735974
pt.ine.add.PTCONT.405774,R DR LEITE DE VASCONCELOS,13,7230-014,BARRANCOS,-6.976758630406551,38.13226833241339
pt.ine.add.PTCONT.405775,R IGREJA,4,7230-023,BARRANCOS,-6.976097546327844,38.12935202741412
pt.ine.add.PTCONT.405776,R NSA SRA DA CONCEIÇÃO,4,7230-034,BARRANCOS,-6.976238790396571,38.129074150271414
pt.ine.add.PTCONT.405799,R ESPANHA,5,7230-017,BARRANCOS,-6.976373785596169,38.13641752989716
pt.ine.add.PTCONT.405806,R IGREJA,14,7230-023,BARRANCOS,-6.975860358034659,38.12920555236643
pt.ine.add.PTCONT.405810,R D MARIA DAS DORES FIALHO GARCIA,12,7230-010,BARRANCOS,-6.9764940629568635,38.12879739579483
pt.ine.add.PTCONT.405811,R D MARIA DAS DORES FIALHO GARCIA,8,7230-010,BARRANCOS,-6.976358222586151,38.1287329975476
pt.ine.add.PTCONT.406312,R D MARIA DAS DORES FIALHO GARCIA,31,7230-010,BARRANCOS,-6.976937073311711,38.128909861012254
pt.ine.add.PTCONT.406330,BR FERRAGIAL,10,7230-011,BARRANCOS,-6.97762026627713,38.13404250735974
pt.ine.add.PTCONT.406501,BR CANAS,5,7230-006,BARRANCOS,-6.9774763005956615,38.13159974652591
pt.ine.add.PTCONT.406820,SIT AGARROCHA,,7230-001,BARRANCOS,-6.981116848704907,38.135806513920144
pt.ine.add.PTCONT.406821,R DR LEITE VASCONCELOS,5,7230-001,BARRANCOS,-6.981116848704907,38.135806513920144
pt.ine.add.PTCONT.406822,R SANTO ANTÓNIO,2,7230-045,BARRANCOS,-6.977075370781842,38.13243360592805
pt.ine.add.PTCONT.406823,R TIMOR,9,7230-051,BARRANCOS,-6.976257871812264,38.13220034097131
pt.ine.add.PTCONT.406824,R DR LEITE DE VASCONCELOS,21,7230-014,BARRANCOS,-6.976854406182882,38.13198099840083
pt.ine.add.PTCONT.406888,R LUIS DE CAMÕES,26,7230-027,BARRANCOS,-6.978561649941171,38.13003390512694
pt.ine.add.PTCONT.406889,R LIDADOR,7,7230-026,BARRANCOS,-6.97589305714987,38.13507951498239
pt.ine.add.PTCONT.406890,R ENSINASOLA,34,7230-022,BARRANCOS,-6.976487797574996,38.13569796101214
pt.ine.add.PTCONT.406891,R QUILIGRITO,18,7230-044,BARRANCOS,-6.975307738065268,38.134587279867205
pt.ine.add.PTCONT.406892,R 25 DE ABRIL,19,7230-053,BARRANCOS,-6.976944566553385,38.13349533925039
pt.ine.add.PTCONT.406893,R S BENTO,30,7230-046,BARRANCOS,-6.97385528490367,38.12978936086221
pt.ine.add.PTCONT.406894,R CRUZ,18,7230-008,BARRANCOS,-6.974538616827543,38.129850154744354
pt.ine.add.PTCONT.406895,R NSA SRA DA CONCEIÇÃO,43,7230-034,BARRANCOS,-6.975979197010617,38.12817973631487
pt.ine.add.PTCONT.406955,R 1 DE MAIO,5,7230-043,BARRANCOS,-6.976464180430441,38.129968226766465
pt.ine.add.PTCONT.407103,R DR LEITE VASCONCELOS,23,7230-014,BARRANCOS,-6.976901156894571,38.13190938938219
pt.ine.add.PTCONT.407108,R NSA SRA DA CONCEIÇÃO,69,7230-034,BARRANCOS,-6.97625070392815,38.12759684787236
pt.ine.add.PTCONT.407306,R FONTAÍNHAS,12,7230-018,BARRANCOS,-6.976301153284833,38.13090352132338
pt.ine.add.PTCONT.407516,R INF D HENRIQUE,7,7230-024,BARRANCOS,-6.9765235638392875,38.131986749821884
pt.ine.add.PTCONT.407517,R DR HIGINO DE SOUSA,16,7230-013,BARRANCOS,-6.976510565848505,38.131365024833734
pt.ine.add.PTCONT.407518,R POÇO NOVO,21,7230-038,BARRANCOS,-6.978701661931246,38.13055778328444
pt.ine.add.PTCONT.407519,R POÇO NOVO,3,7230-038,BARRANCOS,-6.978259916226136,38.13036425921188
pt.ine.add.PTCONT.407520,MTE FAUSTA,,7230-015,BARRANCOS,-7.106799406119043,38.15119671967896
pt.ine.add.PTCONT.407521,R ESPANHA,20,7230-017,BARRANCOS,-6.975773798812648,38.13685304307525
pt.ine.add.PTCONT.407522,,,7230-042,BARRANCOS,-6.978868014007016,38.13447818201348
pt.ine.add.PTCONT.407550,R S BENTO,57,7230-046,BARRANCOS,-6.973334875851306,38.12952297275088
pt.ine.add.PTCONT.407551,R BOAVISTA,1A,7230-004,BARRANCOS,-6.976526597700129,38.12962651248497
pt.ine.add.PTCONT.407935,R S BENTO,57,7230-046,BARRANCOS,-6.973334875851306,38.12952297275088
pt.ine.add.PTCONT.408095,R 1 DE DEZEMBRO,23,7230-042,BARRANCOS,-6.975737294600162,38.13194297044764
pt.ine.add.PTCONT.408185,R CERRO,10,7230-007,BARRANCOS,-6.975854909280244,38.132439605089914
pt.ine.add.PTCONT.408186,MTE FRANCISCO MÁRIO,,7230-039,BARRANCOS,-6.9872807895822895,38.140605357555316
pt.ine.add.PTCONT.408187,R INF D HENRIQUE,3,7230-024,BARRANCOS,-6.976376029805879,38.13194025375129
pt.ine.add.PTCONT.408188,R MOÇAMBIQUE,126,7230-028,BARRANCOS,-6.976662253131312,38.13187100289336
pt.ine.add.PTCONT.408221,BR GUARDA FISCAL,12,7230-021,BARRANCOS,-6.975542461481361,38.13777865361539
pt.ine.add.PTCONT.408222,R ESPANHA,28,7230-017,BARRANCOS,-6.975485278148116,38.13706640723963
pt.ine.add.PTCONT.408223,MTE DOMINGOS MONGRAGAO,,7230-042,BARRANCOS,-6.969271357966926,38.1563014726497
pt.ine.add.PTCONT.408245,R S BENTO,86,7230-046,BARRANCOS,-6.971152529218633,38.12761859639158
pt.ine.add.PTCONT.408246,R D MARIA DAS DORES FIALHOGARCIA,9,7230-010,BARRANCOS,-6.976360070678494,38.128615903212854
pt.ine.add.PTCONT.408247,R S SEBASTIÃO,27,7230-049,BARRANCOS,-6.9751525350162185,38.129973320959635
pt.ine.add.PTCONT.408717,BALDIO,,7230-042,BARRANCOS,-6.980932553481187,38.14027299472209
pt.ine.add.PTCONT.408729,R CRUZ,20,7230-008,BARRANCOS,-6.97447005574106,38.12985848713218
pt.ine.add.PTCONT.408933,MTE LITO DAMIÃO,,7230-042,BARRANCOS,-6.969327204729916,38.14560879622008
pt.ine.add.PTCONT.408941,R DR HIGINO DE SOUSA,21,7230-013,BARRANCOS,-6.976705560006221,38.13129487550473
pt.ine.add.PTCONT.408942,R NOVA,11,7230-032,BARRANCOS,-6.977989834072102,38.13085707953841
pt.ine.add.PTCONT.408946,R DR MENDES RIBEIRO,13,7230-015,BARRANCOS,-6.979069062395678,38.12967854519517
pt.ine.add.PTCONT.408969,R ENSINASOLA,31,7230-022,BARRANCOS,-6.976647738358821,38.13568151859329
pt.ine.add.PTCONT.409787,R NOUDAR,28,7230-031,BARRANCOS,-6.975356996510931,38.13219146483561
pt.ine.add.PTCONT.409796,LG S SEBASTIÃO,17,7230-048,BARRANCOS,-6.974860766065297,38.13039385098236
pt.ine.add.PTCONT.409819,R IGREJA,28,7230-023,BARRANCOS,-6.975500440836533,38.128886702942395
pt.ine.add.PTCONT.409828,R NOUDAR,35,7230-031,BARRANCOS,-6.975459200985778,38.13221949813423
pt.ine.add.PTCONT.410351,R IGREJA,20,7230-023,BARRANCOS,-6.9757141101805695,38.129077990253705
pt.ine.add.PTCONT.410729,R ANGOLA,20,7230-003,BARRANCOS,-6.978147065272786,38.13318285811209
pt.ine.add.PTCONT.410730,R ANGOLA,11,7230-003,BARRANCOS,-6.978267773343597,38.132760638340855
pt.ine.add.PTCONT.410731,R CERRO,17,7230-007,BARRANCOS,-6.97621854226846,38.13252426504386
pt.ine.add.PTCONT.410732,R CERRO,27,7230-007,BARRANCOS,-6.976433929950007,38.13260746412512
pt.ine.add.PTCONT.410762,EN 386 CARDADOR DE CIMA,,7230-039,BARRANCOS,-7.105052629412366,38.15941540253981
pt.ine.add.PTCONT.410763,R LUIS DE CAMÕES,18C,7230-027,BARRANCOS,-6.978410002883723,38.13024862220767
pt.ine.add.PTCONT.410764,R LIDADOR,I5,7230-026,BARRANCOS,-6.975562058511216,38.13509427071071
pt.ine.add.PTCONT.410765,R ENSINASOLA,8,7230-022,BARRANCOS,-6.97645526234136,38.134868845116735
pt.ine.add.PTCONT.410766,R NOVA DO BALDIO,38,7230-033,BARRANCOS,-6.976812796128515,38.13534081504692
pt.ine.add.PTCONT.410800,R 1 DE DEZEMBRO,51,7230-042,BARRANCOS,-6.976487850261281,38.1335268774037
pt.ine.add.PTCONT.410801,MTE NAVARRO,,7230-042,BARRANCOS,-6.974481046448363,38.141425695445974
pt.ine.add.PTCONT.410802,R SENTINELA,12,7230-050,BARRANCOS,-6.975297825663581,38.13160531928545
pt.ine.add.PTCONT.410803,R SENTINELA,18,7230-050,BARRANCOS,-6.975193202676872,38.131730409078216
pt.ine.add.PTCONT.410804,R FORCAS ARMADAS,24,7230-019,BARRANCOS,-6.975627199061547,38.13024825893986
pt.ine.add.PTCONT.410805,R DR FILIPE DE FIGUEIREDO,29,7230-012,BARRANCOS,-6.9781209013940355,38.12977732974467
pt.ine.add.PTCONT.410806,R DR FILIPE DE FIGUEIREDO,15,7230-012,BARRANCOS,-6.977659479879413,38.129385419517305
pt.ine.add.PTCONT.410807,R PASSEIO,26,7230-036,BARRANCOS,-6.977701640978198,38.12888134945659
pt.ine.add.PTCONT.411177,R ENSINASOLA,8,7230-022,BARRANCOS,-6.97645526234136,38.134868845116735
pt.ine.add.PTCONT.411187,R FORCAS ARMADAS,28,7230-019,BARRANCOS,-6.975627199061547,38.13024825893986
pt.ine.add.PTCONT.411408,R NOVA DO BALDIO,5,7230-033,BARRANCOS,-6.976957964413756,38.1351786470311
pt.ine.add.PTCONT.411409,R S JOÃO DE DEUS,54,7230-047,BARRANCOS,-6.9749719671143,38.13129581267349
pt.ine.add.PTCONT.411419,R FORÇAS ARMADAS,23,7230-019,BARRANCOS,-6.975914269736848,38.13012496627559
pt.ine.add.PTCONT.411432,R D BELA PULIDO,5,7230-009,BARRANCOS,-6.978037104668947,38.13002874811768
pt.ine.add.PTCONT.411435,R 1 DE DEZEMBRO,1,7230-042,BARRANCOS,-6.975677881335607,38.132816224111224
pt.ine.add.PTCONT.411448,R LUIS DE CAMÕES,22,7230-027,BARRANCOS,-6.978502931288913,38.13014143182988
pt.ine.add.PTCONT.411449,R LUIS DE CAMÕES,28,7230-027,BARRANCOS,-6.978618807629894,38.13002545826871
pt.ine.add.PTCONT.411453,MTE CAPELOES,,7230-015,BARRANCOS,-7.076212010264125,38.11493559313668
pt.ine.add.PTCONT.411941,R TRAVESSA DO POÇO NOVO,2,7230-039,BARRANCOS,-6.978901333208473,38.13019039059301
pt.ine.add.PTCONT.412146,R POÇO NOVO,38,7230-038,BARRANCOS,-6.979908705082685,38.13067774378705
pt.ine.add.PTCONT.412210,BC MIRADOURO,6,7230-042,BARRANCOS,-6.976686830297025,38.13320452521919
pt.ine.add.PTCONT.412258,R TIMOR,10,7230-051,BARRANCOS,-6.976131580213558,38.13225314896961
pt.ine.add.PTCONT.412259,R ENSINASOLA,14,7230-022,BARRANCOS,-6.97651870969231,38.13518477255057
pt.ine.add.PTCONT.412281,R JERONIMO VASQUES,3,7230-020,BARRANCOS,-6.976275558513611,38.12891235658238
pt.ine.add.PTCONT.412282,R NSA SRA DA CONCEIÇÃO,31,7230-034,BARRANCOS,-6.976112476616154,38.12840626559757
pt.ine.add.PTCONT.413174,R SANTO ANTÓNIO,11,7230-045,BARRANCOS,-6.977598370779091,38.13253784730598
pt.ine.add.PTCONT.413175,BR GUARDA FISCAL,6,7230-021,BARRANCOS,-6.975431264382649,38.137597384808814
pt.ine.add.PTCONT.413212,R CRUZ,5,7230-008,BARRANCOS,-6.974779221139361,38.129780458445836
pt.ine.add.PTCONT.413213,R NSA SRA DA CONCEIÇÃO,29,7230-034,BARRANCOS,-6.976043917040084,38.12841459893068
pt.ine.add.PTCONT.413214,R SENTINELA,30,7230-050,BARRANCOS,-6.975345308421617,38.132209366930944
pt.ine.add.PTCONT.413215,R PASSEIO,32,7230-036,BARRANCOS,-6.977147015069488,38.128614641580285
pt.ine.add.PTCONT.413216,R JERONIMO VASQUES,21,7230-020,BARRANCOS,-6.976668835594626,38.12928558402579
pt.ine.add.PTCONT.413556,R 25 DE ABRIL,43,7230-053,BARRANCOS,-6.97769532200817,38.13289914709193
pt.ine.add.PTCONT.413783,R S JOÃO DE DEUS,19,7230-047,BARRANCOS,-6.975153264390386,38.13064897713685
pt.ine.add.PTCONT.413800,R ANGOLA,21,7230-003,BARRANCOS,-6.978044483048829,38.13173145637814
pt.ine.add.PTCONT.413801,EIRAS ALTAS ZONA INDUSTRIAL A BOLETA,,7230-014,BARRANCOS,-6.983266832777327,38.131809721263124
pt.ine.add.PTCONT.413810,R CÓNEGO DE ALMEIDA,15,7230-005,BARRANCOS,-6.975236768429431,38.129694883046135
pt.ine.add.PTCONT.413811,R IGREJA,31,7230-023,BARRANCOS,-6.975070401430818,38.12867526498749
pt.ine.add.PTCONT.413817,R LIDADOR,19,7230-026,BARRANCOS,-6.975865151521281,38.13612424296857
pt.ine.add.PTCONT.414380,R S JOÃO DE DEUS,39,7230-047,BARRANCOS,-6.974964264752503,38.131061511784125
pt.ine.add.PTCONT.414423,R 1 DE DEZEMBRO,80,7230-042,BARRANCOS,-6.977422747548392,38.13499548086229
pt.ine.add.PTCONT.414604,R SENTINELA,24,7230-050,BARRANCOS,-6.9752483696552625,38.13184806536402
pt.ine.add.PTCONT.414608,R LIDADOR,2,7230-026,BARRANCOS,-6.976191266021042,38.1349743488833
pt.ine.add.PTCONT.414616,R VASCO DA GAMA,4,7230-052,BARRANCOS,-6.977181875826248,38.132912112618385
pt.ine.add.PTCONT.414617,R VASCO DA GAMA,12,7230-052,BARRANCOS,-6.9773794305431664,38.13267983168604
pt.ine.add.PTCONT.414631,R S BENTO,33,7230-046,BARRANCOS,-6.973750947135655,38.12989643491737
pt.ine.add.PTCONT.414642,R ESPANHA,35,7230-017,BARRANCOS,-6.975515363943918,38.137327954414566
pt.ine.add.PTCONT.414646,R ENSINASOLA,32,7230-022,BARRANCOS,-6.976454438587634,38.135643580634415
pt.ine.add.PTCONT.415111,R 1 DE DEZEMBRO,60,7230-042,BARRANCOS,-6.976586391844181,38.13450979042901
pt.ine.add.PTCONT.415323,R PINHAO,9,7230-037,BARRANCOS,-6.975069489733385,38.132341777690506
pt.ine.add.PTCONT.415346,R ENSINASOLA,11,7230-022,BARRANCOS,-6.976818055235387,38.13500754687165
pt.ine.add.PTCONT.415354,R SENTINELA,5,7230-050,BARRANCOS,-6.975378503179319,38.13155206259382
pt.ine.add.PTCONT.415355,R DR LEITE DE VASCONCELOS,16,7230-014,BARRANCOS,-6.976848579334635,38.13235029576233
pt.ine.add.PTCONT.415358,R ANGOLA,3,7230-003,BARRANCOS,-6.976933765737396,38.134179890282944
pt.ine.add.PTCONT.415359,R ANGOLA,,7230-003,BARRANCOS,-6.976933765737396,38.134179890282944
pt.ine.add.PTCONT.415360,R S SEBASTIÃO,23,7230-049,BARRANCOS,-6.975221949986287,38.12991094466831
pt.ine.add.PTCONT.415371,LG S SEBASTIÃO,13,7230-048,BARRANCOS,-6.97461046520475,38.130355347962634
pt.ine.add.PTCONT.415372,R S BENTO,47,7230-046,BARRANCOS,-6.973560514383464,38.12967834750509
pt.ine.add.PTCONT.415386,MTE MINA DE APARIS FRANCISCO PULIDO,,7230-015,BARRANCOS,-7.078044418637997,38.12626704467876
pt.ine.add.PTCONT.415996,R ANGOLA,3,7230-003,BARRANCOS,-6.976933765737396,38.134179890282944
pt.ine.add.PTCONT.416229,R CERRO,38,7230-007,BARRANCOS,-6.976760084736231,38.13289895230297
pt.ine.add.PTCONT.416230,R CERRO,32,7230-007,BARRANCOS,-6.976544837979857,38.13280674655347
pt.ine.add.PTCONT.416231,R 25 DE ABRIL,32,7230-053,BARRANCOS,-6.977785272758749,38.13298110974403
pt.ine.add.PTCONT.416264,BR GUARDA FISCAL,16,7230-021,BARRANCOS,-6.975643393109868,38.137887752013945
pt.ine.add.PTCONT.416265,R LIDADOR,17,7230-026,BARRANCOS,-6.975641743774679,38.13510406463803
pt.ine.add.PTCONT.416295,R D MARIA DAS DORES FIALHO GARCIA,6,7230-010,BARRANCOS,-6.976290373576058,38.1286962947381
pt.ine.add.PTCONT.416296,R NSA SRA DA CONCEIÇÃO,23,7230-034,BARRANCOS,-6.9760879645064335,38.128514128032926
pt.ine.add.PTCONT.416297,R BICAS,16,7230-023,BARRANCOS,-6.975665179932542,38.12784332220756
pt.ine.add.PTCONT.416298,R BICAS,16,7230-023,BARRANCOS,-6.975665179932542,38.12784332220756
pt.ine.add.PTCONT.416740,R ANGOLA,,7230-003,BARRANCOS,-6.978252442674026,38.13373342193872
pt.ine.add.PTCONT.416767,R DR MENDES RIBEIRO,16,7230-015,BARRANCOS,-6.979149735079766,38.12962528581794
pt.ine.add.PTCONT.416774,R ANGOLA,17,7230-003,BARRANCOS,-6.978252442674026,38.13373342193872
pt.ine.add.PTCONT.416986,R 25 DE ABRIL,48,7230-053,BARRANCOS,-6.978260628191311,38.13249030852699
pt.ine.add.PTCONT.416997,MTE XICO BERGANO,,7230-042,BARRANCOS,-6.962901250171918,38.14512153979099
pt.ine.add.PTCONT.417003,EN 386 MONTE DA MALHADA DA ADUA,,7230-039,BARRANCOS,-6.993216863446896,38.130041909116656
pt.ine.add.PTCONT.417026,R IGREJA,18,7230-023,BARRANCOS,-6.975793077781781,38.12913282025327
pt.ine.add.PTCONT.417027,R D MARIA DAS DORES FIALHO GARCIA,3T,7230-010,BARRANCOS,-6.977015473343805,38.129000719235414
pt.ine.add.PTCONT.417030,R NSA SRA DA CONCEIÇÃO,55,7230-034,BARRANCOS,-6.976108467581187,38.12793777594278
pt.ine.add.PTCONT.417031,R NSA SRA DA CONCEIÇÃO,67,7230-034,BARRANCOS,-6.976227045355407,38.12765066681298
pt.ine.add.PTCONT.417549,BR GUARDA FISCAL,2,7230-021,BARRANCOS,-6.975319213824659,38.13747015933868
pt.ine.add.PTCONT.417777,R 1 DE DEZEMBRO,95,7230-042,BARRANCOS,-6.977210335591855,38.13472313125178
pt.ine.add.PTCONT.417780,R 1 DE DEZEMBRO,32,7230-042,BARRANCOS,-6.975580371092433,38.13249095180905
pt.ine.add.PTCONT.417784,R DR LEITE DE VASCONCELOS,5,7230-014,BARRANCOS,-6.976606831183081,38.13249205417843
pt.ine.add.PTCONT.417785,R S SEBASTIÃO,7A,7230-049,BARRANCOS,-6.9755799993548875,38.12962619668825
pt.ine.add.PTCONT.417786,R S SEBASTIÃO,7A,7230-049,BARRANCOS,-6.9755799993548875,38.12962619668825
pt.ine.add.PTCONT.417789,R 25 DE ABRIL,27,7230-053,BARRANCOS,-6.977220244283264,38.13337193138009
pt.ine.add.PTCONT.417790,R D BELA PULIDO,1,7230-009,BARRANCOS,-6.978210139188474,38.129904328362606
pt.ine.add.PTCONT.417800,R CRUZ,1,7230-008,BARRANCOS,-6.974825545334295,38.129735871987016
pt.ine.add.PTCONT.417804,R S BENTO,74,7230-046,BARRANCOS,-6.972874194940993,38.12908600791742
pt.ine.add.PTCONT.417809,R LUIS DE CAMÕES,18A,7230-027,BARRANCOS,-6.9783293289771775,38.130301881051636
pt.ine.add.PTCONT.418565,R FONTAÍNHAS,9,7230-018,BARRANCOS,-6.976927055172303,38.13099076171915
pt.ine.add.PTCONT.418571,R ESPANHA,17,7230-017,BARRANCOS,-6.976049064503123,38.13675665998611
pt.ine.add.PTCONT.418582,R 25 DE ABRIL,20,7230-053,BARRANCOS,-6.977401708669207,38.13343677755704
pt.ine.add.PTCONT.418587,R S SEBASTIÃO,9,7230-049,BARRANCOS,-6.975522130322653,38.12967967832926
pt.ine.add.PTCONT.418595,MTE FILIPA E CARLOS,,7230-039,BARRANCOS,-7.000526980898142,38.14851731191586
pt.ine.add.PTCONT.418601,LG S SEBASTIÃO,24,7230-048,BARRANCOS,-6.97506316017347,38.12985532735428
pt.ine.add.PTCONT.418617,R ESPANHA,7,7230-017,BARRANCOS,-6.976327315793927,38.13647112410865
pt.ine.add.PTCONT.419159,R LIDADOR,12,7230-026,BARRANCOS,-6.975895048656363,38.13495341354834
pt.ine.add.PTCONT.419183,R QUILIGRITO,1,7230-044,BARRANCOS,-6.976481340223832,38.134661903020856
pt.ine.add.PTCONT.419387,R SENTINELA,4,7230-050,BARRANCOS,-6.975312217443978,38.13141627946379
pt.ine.add.PTCONT.419388,R SENTINELA,14,7230-050,BARRANCOS,-6.975228836059977,38.13164067383419
pt.ine.add.PTCONT.419394,R 1 DE DEZEMBRO,21,7230-042,BARRANCOS,-6.975738290376914,38.13187991970068
pt.ine.add.PTCONT.419397,R FONTAINHAS,13,7230-018,BARRANCOS,-6.977109081767809,38.13101957925516
pt.ine.add.PTCONT.419403,BR ADUA,19,7230-001,BARRANCOS,-6.977624302416623,38.13233991206551
pt.ine.add.PTCONT.419404,R CERRO,56,7230-007,BARRANCOS,-6.977315025350337,38.133147647807355
pt.ine.add.PTCONT.419405,R DR FILIPE DE FIGUEIREDO,7,7230-012,BARRANCOS,-6.977667900849414,38.12957468413458
pt.ine.add.PTCONT.419411,CM 1023-2,,7230-014,BARRANCOS,-7.003278450394931,38.18459631398263
pt.ine.add.PTCONT.419412,EN 386 MONTE DEFESA NOVA,,7230-039,BARRANCOS,-7.079959646229041,38.14774300095104
pt.ine.add.PTCONT.419424,PEDRA FURADA MONTE DA PEDRA FURADA,,7230-023,BARRANCOS,-7.042054162196083,38.11310085152584
pt.ine.add.PTCONT.419425,R IGREJA,25,7230-023,BARRANCOS,-6.97516961246121,38.12889245077495
pt.ine.add.PTCONT.419429,R ESPANHA,18,7230-017,BARRANCOS,-6.975820269263618,38.136799449096586
pt.ine.add.PTCONT.419962,R SENTINELA,4,7230-050,BARRANCOS,-6.975312217443978,38.13141627946379
pt.ine.add.PTCONT.419995,R SENTINELA,16,7230-050,BARRANCOS,-6.975273595787467,38.131695166959844
pt.ine.add.PTCONT.420010,R DQ DO CADAVAL,25,7230-016,BARRANCOS,-6.9777975401775745,38.13075609314574
pt.ine.add.PTCONT.420163,R DR LEITE DE VASCONCELOS,2,7230-014,BARRANCOS,-6.976638198857471,38.13267253603939
pt.ine.add.PTCONT.420210,R ENSINASOLA,15A,7230-022,BARRANCOS,-6.976645432606234,38.13510494249586
pt.ine.add.PTCONT.420224,R CERRO,31,7230-007,BARRANCOS,-6.976591589538523,38.13273513768128
pt.ine.add.PTCONT.420239,R IGREJA,2,7230-023,BARRANCOS,-6.976344859138001,38.12957967958854
pt.ine.add.PTCONT.420778,R ENSINASOLA,15,7230-022,BARRANCOS,-6.976645432606234,38.13510494249586
pt.ine.add.PTCONT.420957,R NOUDAR,33,7230-031,BARRANCOS,-6.975460054722425,38.13216545464474
pt.ine.add.PTCONT.420977,R AMARELEJA,20,7230-002,BARRANCOS,-6.977522541883696,38.135176635681326
pt.ine.add.PTCONT.420979,R DO LIDADOR,16,7230-026,BARRANCOS,-6.97567851657364,38.13494227136876
pt.ine.add.PTCONT.420986,R DR FILIPE DE FIGUEIREDO,1C,7230-012,BARRANCOS,-6.977758557552975,38.12961161048991
pt.ine.add.PTCONT.420989,R PASSEIO,24,7230-036,BARRANCOS,-6.977837766802253,38.12892773165012
pt.ine.add.PTCONT.420990,R PASSEIO,6,7230-036,BARRANCOS,-6.978545087162131,38.12963736144413
pt.ine.add.PTCONT.421031,R ENSINASOLA,3,7230-022,BARRANCOS,-6.976658147269146,38.13574468160254
pt.ine.add.PTCONT.421618,R NSA SRA DA CONCEIÇÃO,40,7230-034,BARRANCOS,-6.976432437541651,38.12764368085017
pt.ine.add.PTCONT.421811,SIT AGARROCHA,,7230-001,BARRANCOS,-6.980885930312087,38.134534029175185
pt.ine.add.PTCONT.421812,R SENTINELA,2,7230-050,BARRANCOS,-6.975313213567585,38.131353228720634
pt.ine.add.PTCONT.421824,R 1 DE DEZEMBRO,34,7230-042,BARRANCOS,-6.975646515980835,38.13263574203507
pt.ine.add.PTCONT.421828,R DQ DE CADAVAL,12,7230-016,BARRANCOS,-6.977568297125747,38.130105215003375
pt.ine.add.PTCONT.421830,R DR LEITE DE VASCONCELOS,18,7230-014,BARRANCOS,-6.976861972495578,38.132224306481355
pt.ine.add.PTCONT.421831,R NSA SRA DA CONCEIÇÃO,6,7230-034,BARRANCOS,-6.976053213970983,38.129270512830445
pt.ine.add.PTCONT.421833,MTE MANUEL CURRIRO,,7230-039,BARRANCOS,-7.012915750893018,38.14405072399039
pt.ine.add.PTCONT.421836,R S BENTO,41,7230-046,BARRANCOS,-6.973662002161724,38.12975141854295
pt.ine.add.PTCONT.421844,R DR HIGINO DE SOUSA,17,7230-013,BARRANCOS,-6.9766501067881155,38.13119523436884
pt.ine.add.PTCONT.421855,R IGREJA,27,7230-023,BARRANCOS,-6.975124996783761,38.12882895036052
pt.ine.add.PTCONT.421861,R ESPANHA,27,7230-017,BARRANCOS,-6.975759122238068,38.137060097267074
pt.ine.add.PTCONT.421862,R IGREJA,24,7230-023,BARRANCOS,-6.975578839038715,38.128977562095905
pt.ine.add.PTCONT.422392,R JERÓNIMO VASQUES,19,7230-020,BARRANCOS,-6.9765902935673605,38.12920373283405
pt.ine.add.PTCONT.422409,R 25 DE ABRIL,25,7230-053,BARRANCOS,-6.9771630838304235,38.13338037750853
pt.ine.add.PTCONT.422591,R FONTAÍNHAS,7,7230-018,BARRANCOS,-6.976835828759649,38.130989863727905
pt.ine.add.PTCONT.422615,R ANGOLA,,7230-003,BARRANCOS,-6.97832696868333,38.13334678267709
pt.ine.add.PTCONT.422620,R FORÇAS ARMADAS,41,7230-019,BARRANCOS,-6.975551524259935,38.1307069545177
pt.ine.add.PTCONT.422634,BR ADUA,37,7230-001,BARRANCOS,-6.977754143321436,38.13206192105871
pt.ine.add.PTCONT.422635,R D BELA PULIDO,6,7230-009,BARRANCOS,-6.977900550750686,38.130009387907116
pt.ine.add.PTCONT.422636,R DR FILIPE DE FIGUEIREDO,24,7230-012,BARRANCOS,-6.977754723698273,38.129854806492006
pt.ine.add.PTCONT.422642,R S JOÃO DE DEUS,42,7230-047,BARRANCOS,-6.974780530576552,38.131140777909444
pt.ine.add.PTCONT.422643,R S JOÃO DE DEUS,10,7230-047,BARRANCOS,-6.974915504511585,38.13053852917312
pt.ine.add.PTCONT.422658,R POÇO NOVO,13,7230-038,BARRANCOS,-6.978508942082932,38.13048381983084
pt.ine.add.PTCONT.422659,TV PREGUICA,7,7230-041,BARRANCOS,-6.974072363817048,38.12904378480692
pt.ine.add.PTCONT.422662,HRD SEIXO BRANCO,,7230-015,BARRANCOS,-7.127578004157082,38.12597178669952
pt.ine.add.PTCONT.423226,HRD SEIXO BRANCO,,7230-015,BARRANCOS,-7.127578004157082,38.12597178669952
pt.ine.add.PTCONT.423231,R NSA SRA DA CONCEIÇÃO,45,7230-034,BARRANCOS,-6.97603678010687,38.1281442689235
pt.ine.add.PTCONT.423266,R ENSINASOLA,32,7230-022,BARRANCOS,-6.976150965071804,38.136082015407574
pt.ine.add.PTCONT.423289,R NSA SRA DA CONCEIÇÃO,,7230-034,BARRANCOS,-6.976061434348203,38.12802739923481
pt.ine.add.PTCONT.423540,MTE COURELAS PEDRO MOLERA,,7230-023,BARRANCOS,-6.977839349113663,38.117973210177055
pt.ine.add.PTCONT.423541,R LIDADOR,14,7230-026,BARRANCOS,-6.975826482913534,38.134961746646695
pt.ine.add.PTCONT.423542,R 1 DE DEZEMBRO,125,7230-042,BARRANCOS,-6.9783114965273,38.13432857345201
pt.ine.add.PTCONT.423543,R 1 DE DEZEMBRO,115,7230-042,BARRANCOS,-6.977897834783962,38.13452269603101
pt.ine.add.PTCONT.423544,R 1 DE DEZEMBRO,109,7230-042,BARRANCOS,-6.977690719044076,38.13463777126181
pt.ine.add.PTCONT.423545,R 25 DE ABRIL,13,7230-053,BARRANCOS,-6.976760828269356,38.13357460837797
pt.ine.add.PTCONT.423546,R S BENTO,73,7230-046,BARRANCOS,-6.972962852404504,38.129249039356175
pt.ine.add.PTCONT.423547,R NSA SRA DA CONCEIÇÃO,7,7230-034,BARRANCOS,-6.97612618230553,38.12898295459837
pt.ine.add.PTCONT.423548,R S SEBASTIÃO,13,7230-049,BARRANCOS,-6.975441597284313,38.12972392791902
pt.ine.add.PTCONT.424017,MTE TABERNEIRA,,7230-015,BARRANCOS,-7.027519093102694,38.12122595143073
pt.ine.add.PTCONT.424229,R ENSINASOLA,26,7230-022,BARRANCOS,-6.976514728780144,38.13543697546154
pt.ine.add.PTCONT.424242,R AMARELEJA,3,7230-002,BARRANCOS,-6.977124042047646,38.13499515574893
pt.ine.add.PTCONT.424243,R AMARELEJA,3,7230-002,BARRANCOS,-6.977124042047646,38.13499515574893
pt.ine.add.PTCONT.424247,LG MONTES CLAROS,,7230-029,BARRANCOS,-6.975483552439118,38.131399950874524
pt.ine.add.PTCONT.424250,R 1 DE DEZEMBRO,123,7230-042,BARRANCOS,-6.9782081522760855,38.1343726006104
pt.ine.add.PTCONT.424251,R 1 DE DEZEMBRO,119,7230-042,BARRANCOS,-6.97807031242384,38.13443430576094
pt.ine.add.PTCONT.424252,R FORÇAS ARMADAS,35,7230-019,BARRANCOS,-6.975679520619824,38.1305460600767
pt.ine.add.PTCONT.424256,R 25 DE ABRIL,41,7230-053,BARRANCOS,-6.977648571408143,38.13297075641715
pt.ine.add.PTCONT.424265,R TIMOR,11,7230-051,BARRANCOS,-6.9763257240049965,38.132237043829875
pt.ine.add.PTCONT.424266,R INF D HENRIQUE,10,7230-024,BARRANCOS,-6.976669534522908,38.132132325484754
pt.ine.add.PTCONT.424267,MTE AVELINO,,7230-042,BARRANCOS,-6.9836418996141365,38.14134454435863
pt.ine.add.PTCONT.424270,LG S SEBASTIÃO,16,7230-048,BARRANCOS,-6.974746306958205,38.130419748237465
pt.ine.add.PTCONT.424276,R LAGAR,3,7230-016,BARRANCOS,-6.979054225561795,38.13134500075418
pt.ine.add.PTCONT.424277,R CRUZ,13,7230-008,BARRANCOS,-6.974628417949869,38.1299411269882
pt.ine.add.PTCONT.424959,R ESPANHA,9,7230-017,BARRANCOS,-6.976269441762862,38.13652460597873
pt.ine.add.PTCONT.424984,R SANTO ANTÓNIO,9,7230-045,BARRANCOS,-6.977530375618771,38.1325101524242
pt.ine.add.PTCONT.424994,R BOAVISTA,7,7230-004,BARRANCOS,-6.976884782783031,38.12933275315325
pt.ine.add.PTCONT.424997,R S BENTO,29,7230-046,BARRANCOS,-6.97386469337909,38.129915574856035
pt.ine.add.PTCONT.425001,R S BENTO,78,7230-046,BARRANCOS,-6.972783684041444,38.129040070594165
pt.ine.add.PTCONT.425006,R CRUZ,6,7230-008,BARRANCOS,-6.974758265650401,38.12966313929619
pt.ine.add.PTCONT.425015,R IGREJA,25,7230-023,BARRANCOS,-6.975181726962923,38.128847526921916
pt.ine.add.PTCONT.425730,R DR HIGINO DE SOUSA,15,7230-013,BARRANCOS,-6.976536215617991,38.1311851043416
pt.ine.add.PTCONT.425769,R 1 DE DEZEMBRO,93,7230-042,BARRANCOS,-6.977142338577191,38.13469543612531
pt.ine.add.PTCONT.425772,R CERRO,37,7230-007,BARRANCOS,-6.976829216948997,38.13285458961778
pt.ine.add.PTCONT.425798,R S BENTO,60,7230-046,BARRANCOS,-6.9733142078219945,38.129387638885404
pt.ine.add.PTCONT.425801,TV PREGUICA,20,7230-041,BARRANCOS,-6.9746036057874665,38.12934631112624
pt.ine.add.PTCONT.425807,BR FLORESTAL,,7230-021,BARRANCOS,-6.976335504509974,38.138119786564296
pt.ine.add.PTCONT.425808,BR FLORESTAL,,7230-021,BARRANCOS,-6.976335504509974,38.138119786564296
pt.ine.add.PTCONT.426337,R NOVA DO BALDIO,21,7230-033,BARRANCOS,-6.976975328604246,38.1358829337873
pt.ine.add.PTCONT.426349,R S JOÃO DE DEUS,34,7230-047,BARRANCOS,-6.974885865159852,38.13097065222846
pt.ine.add.PTCONT.426842,R 25 DE ABRIL,39,7230-053,BARRANCOS,-6.977590843187122,38.133015231775616
pt.ine.add.PTCONT.426843,R CERRO,13,7230-007,BARRANCOS,-6.976082268680337,38.13248688816054
pt.ine.add.PTCONT.426844,R 25 DE ABRIL,53,7230-053,BARRANCOS,-6.978124211600048,38.13246194125355
pt.ine.add.PTCONT.426845,BR ADUA,15,7230-001,BARRANCOS,-6.977500426191852,38.132239598216515
pt.ine.add.PTCONT.426846,R DR LEITE DE VASCONCELOS,26,7230-014,BARRANCOS,-6.976956468868047,38.13201803765512
pt.ine.add.PTCONT.426847,MTE APAGANA,,7230-039,BARRANCOS,-6.990137439293735,38.1344352377968
pt.ine.add.PTCONT.426848,MTE NE RAMON MINANCOS,,7230-039,BARRANCOS,-6.986985708606827,38.13759358962086
pt.ine.add.PTCONT.426906,R S BENTO,21,7230-046,BARRANCOS,-6.974055555001853,38.13010664005006
pt.ine.add.PTCONT.426971,R BOAVISTA,1,7230-004,BARRANCOS,-6.976480132442596,38.12968010688862
pt.ine.add.PTCONT.427350,R FONTAÍNHAS,16,7230-018,BARRANCOS,-6.976207509750681,38.13105574614026
pt.ine.add.PTCONT.427371,R S JOÃO DE DEUS,60,7230-047,BARRANCOS,-6.975165396964318,38.13132474565482
pt.ine.add.PTCONT.427375,R 1 DE DEZEMBRO,1,7230-042,BARRANCOS,-6.975790162969373,38.131484050136834
pt.ine.add.PTCONT.427383,R CERRO,34,7230-007,BARRANCOS,-6.97661283302536,38.1328344420029
pt.ine.add.PTCONT.427392,R BOAVISTA,4,7230-004,BARRANCOS,-6.97647871092731,38.12977017944151
pt.ine.add.PTCONT.427406,R POÇO NOVO,18,7230-038,BARRANCOS,-6.979222807456153,38.13077911168795
pt.ine.add.PTCONT.427407,LG S SEBASTIÃO,11,7230-048,BARRANCOS,-6.974612458580332,38.130229246484106
pt.ine.add.PTCONT.427413,R DR MENDES RIBEIRO,8,7230-015,BARRANCOS,-6.978896739119016,38.12975792993785
pt.ine.add.PTCONT.427420,R IGREJA,30,7230-023,BARRANCOS,-6.975443568268088,38.12887713378656
pt.ine.add.PTCONT.427945,R 1 DE DEZEMBRO,1,7230-042,BARRANCOS,-6.975790162969373,38.131484050136834
pt.ine.add.PTCONT.428170,R 1 DE DEZEMBRO,7,7230-042,BARRANCOS,-6.975822239469497,38.131619495955896
pt.ine.add.PTCONT.428177,R CERRO,42,7230-007,BARRANCOS,-6.9768506029118305,38.13294488664864
pt.ine.add.PTCONT.428178,LG MONTES CLAROS,14,7230-029,BARRANCOS,-6.975612403790288,38.13118501304666
pt.ine.add.PTCONT.428188,R 1 DE DEZEMBRO,49,7230-042,BARRANCOS,-6.9764891297876614,38.13344581215787
pt.ine.add.PTCONT.428220,R ESPANHA,13,7230-017,BARRANCOS,-6.976153408992716,38.13664958411501
pt.ine.add.PTCONT.428222,R D MARIA DAS DORES FIALHO GARCIA,2,7230-010,BARRANCOS,-6.9761771972560425,38.128641128141155
pt.ine.add.PTCONT.429015,R QUILIGRITO,1,7230-044,BARRANCOS,-6.975315014644421,38.134848602350694
pt.ine.add.PTCONT.429023,R DR LEITE DE VASCONCELOS,6,7230-014,BARRANCOS,-6.976685803081326,38.13254688361617
pt.ine.add.PTCONT.429029,R TIMOR,8,7230-051,BARRANCOS,-6.9760982229958195,38.1321987684888
pt.ine.add.PTCONT.429030,TV POÇO VELHO,5,7230-040,BARRANCOS,-6.978392589404184,38.12990612209687
pt.ine.add.PTCONT.429036,R DR LEITE DE VASCONCELOS,17,7230-014,BARRANCOS,-6.976783000803929,38.132169477162556
pt.ine.add.PTCONT.429060,R ENSINASOLA,20,7230-022,BARRANCOS,-6.976517572293909,38.13525683052628
pt.ine.add.PTCONT.429061,R BICAS,7,7230-023,BARRANCOS,-6.975390943477351,38.1278766542877
pt.ine.add.PTCONT.429611,R DAS BICAS,1 F,7230-025,BARRANCOS,-6.975020929966685,38.1281973184904
pt.ine.add.PTCONT.429812,R ANGOLA,,7230-003,BARRANCOS,-6.978268388860739,38.133445301899854
pt.ine.add.PTCONT.429813,R 1 DE DEZEMBRO,64,7230-042,BARRANCOS,-6.976721532268574,38.13461922476796
pt.ine.add.PTCONT.429817,R CERRO,6,7230-007,BARRANCOS,-6.975798745159984,38.13238499982144
pt.ine.add.PTCONT.429818,R 25 DE ABRIL,50,7230-053,BARRANCOS,-6.978307093999463,38.132436713451796
pt.ine.add.PTCONT.429819,R FORÇAS ARMADAS,45,7230-019,BARRANCOS,-6.975561362547462,38.130806146653036
pt.ine.add.PTCONT.429837,R JERONIMO VASQUES,12,7230-020,BARRANCOS,-6.97647427325016,38.129328711635004
pt.ine.add.PTCONT.429844,R S BENTO,71,7230-046,BARRANCOS,-6.973007894161515,38.12928551882684
pt.ine.add.PTCONT.429865,R ENSINASOLA,16,7230-022,BARRANCOS,-6.976508585320534,38.13510359503208
pt.ine.add.PTCONT.431037,R 25 DE ABRIL,36,7230-053,BARRANCOS,-6.977878347628866,38.132864912724806
pt.ine.add.PTCONT.431069,R VASCO DA GAMA,8,7230-052,BARRANCOS,-6.977297758718836,38.132796140518074
pt.ine.add.PTCONT.431070,R SANTO ANTÓNIO,3,7230-045,BARRANCOS,-6.977292606066194,38.132399709152835
pt.ine.add.PTCONT.431071,R MOÇAMBIQUE,4,7230-028,BARRANCOS,-6.975893813666196,38.132142702908816
pt.ine.add.PTCONT.431072,R PINHAO,21,7230-037,BARRANCOS,-6.974109444409771,38.13102605429595
pt.ine.add.PTCONT.431104,R CRUZ,30,7230-008,BARRANCOS,-6.974353176311026,38.1300375072387
pt.ine.add.PTCONT.431105,R S SEBASTIÃO,10,7230-049,BARRANCOS,-6.975420783026699,38.12959760161757
pt.ine.add.PTCONT.431419,R DR LEITE DE VASCONCELOS,32,7230-014,BARRANCOS,-6.977015901827658,38.131865475551216
pt.ine.add.PTCONT.431455,R ESPANHA,16,7230-017,BARRANCOS,-6.976646427714628,38.13504189176267
pt.ine.add.PTCONT.431459,LG MONTES CLAROS,5,7230-029,BARRANCOS,-6.97542667793093,38.131390381683254
pt.ine.add.PTCONT.431468,R 1 DE MAIO,11,7230-043,BARRANCOS,-6.976575511158995,38.13014048742664
pt.ine.add.PTCONT.431470,BR ADUA,21,7230-001,BARRANCOS,-6.9776921554415345,38.13237661414681
pt.ine.add.PTCONT.431473,R 1 DE DEZEMBRO,,7230-042,BARRANCOS,-6.975598625373332,38.132779408501214
pt.ine.add.PTCONT.431484,R POÇO NOVO,11,7230-038,BARRANCOS,-6.978475583855256,38.13042943999381
pt.ine.add.PTCONT.431495,R D MARIA DAS DORES FIALHO GARCIA,19,7230-010,BARRANCOS,-6.976643580565984,38.128717790039666
pt.ine.add.PTCONT.431500,R LIDADOR,5,7230-026,BARRANCOS,-6.975995692557237,38.135080526132406
pt.ine.add.PTCONT.432249,R FONTAÍNHAS,24,7230-018,BARRANCOS,-6.976891424192151,38.13108049752658
pt.ine.add.PTCONT.432276,R ANGOLA,13,7230-003,BARRANCOS,-6.978438024905538,38.133537056137854
pt.ine.add.PTCONT.432474,R CERRO,8,7230-007,BARRANCOS,-6.975843505757339,38.13243949273722
pt.ine.add.PTCONT.432475,R DR LEITE DE VASCONCELOS,28,7230-014,BARRANCOS,-6.977013628275315,38.13200959160864
pt.ine.add.PTCONT.432515,R CÓNEGO ALMEIDA,23,7230-005,BARRANCOS,-6.974939149296081,38.12976401813631
pt.ine.add.PTCONT.432516,R BOAVISTA,8,7230-004,BARRANCOS,-6.976593168445068,38.12974428046914
pt.ine.add.PTCONT.432870,R CERRO,44,7230-007,BARRANCOS,-6.976918598204309,38.132972581924314
pt.ine.add.PTCONT.433088,R NOVA DO BALDIO,15,7230-033,BARRANCOS,-6.976956073577711,38.1356575280936
pt.ine.add.PTCONT.433093,R 1 DE DEZEMBRO,113,7230-042,BARRANCOS,-6.9778402474730905,38.1345581642311
pt.ine.add.PTCONT.433109,R ANGOLA,23,7230-003,BARRANCOS,-6.978045902739914,38.13164138380562
pt.ine.add.PTCONT.433110,R MOÇAMBIQUE,19,7230-028,BARRANCOS,-6.9764147895982855,38.131652358586784
pt.ine.add.PTCONT.433114,R S BENTO,16,7230-046,BARRANCOS,-6.974103589181462,38.129953966922116
pt.ine.add.PTCONT.433122,R CÓNEGO ALMEIDA,22,7230-005,BARRANCOS,-6.975008706573813,38.129692634718005
pt.ine.add.PTCONT.433139,R NOUDAR,37,7230-031,BARRANCOS,-6.975458489536825,38.13226453437508
pt.ine.add.PTCONT.433949,R ANGOLA,,7230-003,BARRANCOS,-6.9777629342593475,38.133674556123744
pt.ine.add.PTCONT.433959,R CERRO,9,7230-007,BARRANCOS,-6.976003581755231,38.13241404382541
pt.ine.add.PTCONT.433970,MTE JOSE CURRITO,,7230-039,BARRANCOS,-7.011128219297994,38.1445741809526
pt.ine.add.PTCONT.433973,R S BENTO,27,7230-046,BARRANCOS,-6.973909735995096,38.12995205399059
pt.ine.add.PTCONT.433977,R MOÇAMBIQUE,33,7230-028,BARRANCOS,-6.977346562504974,38.131148037359075
pt.ine.add.PTCONT.433989,R ENSINASOLA,64,7230-022,BARRANCOS,-6.97563621588005,38.13617603899793
pt.ine.add.PTCONT.434866,,,7230-039,BARRANCOS,-7.037769872130686,38.15639279816655
pt.ine.add.PTCONT.434896,R INF D HENRIQUE,11,7230-024,BARRANCOS,-6.9767050241820066,38.13205159702541
pt.ine.add.PTCONT.434897,R ESPANHA,22,7230-017,BARRANCOS,-6.9765165770669775,38.13531988125426
pt.ine.add.PTCONT.434898,R AMARELEJA,8,7230-002,BARRANCOS,-6.977397524575876,38.135148379697384
pt.ine.add.PTCONT.434932,R 1 DE MAIO,8,7230-043,BARRANCOS,-6.9764053166200535,38.13008475962794
pt.ine.add.PTCONT.434933,LG MONTES CLAROS,5,7230-029,BARRANCOS,-6.975338154769249,38.13121834478373
pt.ine.add.PTCONT.434934,R DQ DE CADAVAL,2,7230-016,BARRANCOS,-6.977390959941006,38.12977915869857
pt.ine.add.PTCONT.434935,R 1 DE MAIO,11,7230-043,BARRANCOS,-6.976644214435693,38.13012314655533
pt.ine.add.PTCONT.435532,R FONTAÍNHAS,14 A,7230-018,BARRANCOS,-6.97749888392902,38.130167592708496
pt.ine.add.PTCONT.435555,R 25 DE ABRIL,37,7230-053,BARRANCOS,-6.977555780112274,38.13306893873713
pt.ine.add.PTCONT.435831,R 25 DE ABRIL,26,7230-053,BARRANCOS,-6.977588286605968,38.13317736234105
pt.ine.add.PTCONT.435832,R 25 DE ABRIL,26,7230-053,BARRANCOS,-6.977588286605968,38.13317736234105
pt.ine.add.PTCONT.435833,BR CANAS,2,7230-006,BARRANCOS,-6.977226562390672,38.13152521998057
pt.ine.add.PTCONT.435873,R NSA SRA DA CONCEIÇÃO,63,7230-034,BARRANCOS,-6.976203386747023,38.12770448574782
pt.ine.add.PTCONT.435874,R 1 DE DEZEMBRO,29,7230-042,BARRANCOS,-6.975757825462676,38.132087311161676
pt.ine.add.PTCONT.435907,R S JOÃO DE DEUS,31,7230-047,BARRANCOS,-6.9750808597443505,38.130900505600415
pt.ine.add.PTCONT.435908,R FORÇAS ARMADAS,46,7230-019,BARRANCOS,-6.975520017712925,38.13053547961463
pt.ine.add.PTCONT.435909,R DR FILIPE DE FIGUEIREDO,26,7230-012,BARRANCOS,-6.977871026681187,38.12971181189606
pt.ine.add.PTCONT.436505,R 25 DE ABRIL,18,7230-053,BARRANCOS,-6.977332576236041,38.13348114057169
pt.ine.add.PTCONT.436506,R ENSINASOLA,4,7230-022,BARRANCOS,-6.9764251739680905,38.13460729803741
pt.ine.add.PTCONT.436507,R FORÇAS ARMADAS,11,7230-019,BARRANCOS,-6.976132778394258,38.1300100062506
pt.ine.add.PTCONT.436509,R VASCO DA GAMA,16,7230-052,BARRANCOS,-6.977472363609656,38.13257264224082
pt.ine.add.PTCONT.436541,TV PREGUICA,8,7230-041,BARRANCOS,-6.974749567470642,38.1294918890939
pt.ine.add.PTCONT.437113,BR GUARDA FISCAL,7,7230-021,BARRANCOS,-6.975872334126602,38.13783595607114
pt.ine.add.PTCONT.437116,R DAS BICAS,1 E,7230-025,BARRANCOS,-6.975122701842212,38.128252373768404
pt.ine.add.PTCONT.437120,R ENSINASOLA,50,7230-022,BARRANCOS,-6.9762424822272315,38.136064899542056
pt.ine.add.PTCONT.437339,R AMARELEJA,14,7230-002,BARRANCOS,-6.97775090505332,38.13516086489879
pt.ine.add.PTCONT.437340,R SENTINELA,20,7230-050,BARRANCOS,-6.975260911579672,38.131776119787446
pt.ine.add.PTCONT.437344,R AMARELEJA,7,7230-002,BARRANCOS,-6.978369131757393,38.13501379742411
pt.ine.add.PTCONT.437345,R SENTINELA,7,7230-050,BARRANCOS,-6.975365819115978,38.13163301543693
pt.ine.add.PTCONT.437349,R CERRO,20,7230-007,BARRANCOS,-6.976137295427097,38.13261355129566
pt.ine.add.PTCONT.437350,R CERRO,16,7230-007,BARRANCOS,-6.976046493678269,38.13258563091047
pt.ine.add.PTCONT.437364,R JERONIMO VASQUES,4A,7230-020,BARRANCOS,-6.976362517457167,38.129183472646424
pt.ine.add.PTCONT.437371,R DR LEITE DE VASCONCELOS,27,7230-014,BARRANCOS,-6.976949328557688,38.131747707806625
pt.ine.add.PTCONT.437388,R D MARIA DAS DORES FIALHOGARCIA,5,7230-010,BARRANCOS,-6.976292506111601,38.1285611858925
pt.ine.add.PTCONT.437389,R D MARIA DAS DORES FIALHO GARCIA,25,7230-010,BARRANCOS,-6.9767898293650426,38.12884535101712
pt.ine.add.PTCONT.437393,R NSA SRA DA CONCEIÇÃO,24,7230-034,BARRANCOS,-6.976231481701309,38.12809213472716
pt.ine.add.PTCONT.437953,R LIDADOR,9,7230-026,BARRANCOS,-6.975813087353609,38.13508773571531
pt.ine.add.PTCONT.437969,R TIMOR,13,7230-051,BARRANCOS,-6.9764162410926565,38.132282978497905
pt.ine.add.PTCONT.438265,R NOUDAR,26,7230-031,BARRANCOS,-6.975369965296573,38.13209249750652
pt.ine.add.PTCONT.438278,R 1 DE DEZEMBRO,89,7230-042,BARRANCOS,-6.976995651399765,38.13459489726296
pt.ine.add.PTCONT.438290,R DR MENDES RIBEIRO,7,7230-015,BARRANCOS,-6.9788984413701804,38.12964984278175
pt.ine.add.PTCONT.438291,R DR MENDES RIBEIRO,15,7230-015,BARRANCOS,-6.979047958209019,38.1295702339631
pt.ine.add.PTCONT.438292,R NSA SRA DA CONCEIÇÃO,6A,7230-034,BARRANCOS,-6.976088134049448,38.12922581352674
pt.ine.add.PTCONT.438297,R MOÇAMBIQUE,16,7230-028,BARRANCOS,-6.976551488282794,38.13166271330978
pt.ine.add.PTCONT.438298,R S BENTO,15,7230-046,BARRANCOS,-6.974157613623373,38.13014368168352
pt.ine.add.PTCONT.438300,R DR HIGINO DE SOUSA,14,7230-013,BARRANCOS,-6.976463815120092,38.13143663370285
pt.ine.add.PTCONT.438301,LG S SEBASTIÃO,2,7230-048,BARRANCOS,-6.974867741327839,38.129952495759056
pt.ine.add.PTCONT.438314,HRD BUTEFA,,7230-015,BARRANCOS,-7.137338783257603,38.16383761493604
pt.ine.add.PTCONT.438319,BR GUARDA FISCAL,14,7230-021,BARRANCOS,-6.9755872250776925,38.137833146629546
pt.ine.add.PTCONT.438325,R NSA SRA DA CONCEIÇÃO,26,7230-034,BARRANCOS,-6.976244448440526,38.12799316720306
pt.ine.add.PTCONT.438897,R JERONIMO VASQUES,4,7230-020,BARRANCOS,-6.976329872239102,38.12908405594413
pt.ine.add.PTCONT.439071,R A PARQUE EMPRESARIAL,,7230-003,BARRANCOS,-6.988299162140318,38.13456147375342
pt.ine.add.PTCONT.439090,PQ NATUREZA DE NOUDAR,APT 5,7230-039,BARRANCOS,-7.039699990518562,38.175355971913795
pt.ine.add.PTCONT.439099,R S BENTO,56,7230-046,BARRANCOS,-6.973404291904421,38.12946059754719
pt.ine.add.PTCONT.439102,TV PREGUICA,18,7230-041,BARRANCOS,-6.974648648436004,38.129382789981165
pt.ine.add.PTCONT.439104,MTE MALTA,,7230-015,BARRANCOS,-7.132381592854296,38.12747222768393
pt.ine.add.PTCONT.439105,MTE GALAPERO,,7230-023,BARRANCOS,-6.977661785944246,38.12272804146728
pt.ine.add.PTCONT.439626,PQ NATUREZA DE NOUDAR,APT 5,7230-039,BARRANCOS,-7.039699990518562,38.175355971913795
pt.ine.add.PTCONT.439865,R S JOAO DEUS,6,7230-047,BARRANCOS,-6.975311221317263,38.13147933020625
pt.ine.add.PTCONT.439868,R QUILIGRITO,14,7230-044,BARRANCOS,-6.9754437305064725,38.13464267218138
pt.ine.add.PTCONT.439871,R 1 DE DEZEMBRO,46,7230-042,BARRANCOS,-6.976317818539975,38.134182834324015
pt.ine.add.PTCONT.439881,R 25 DE ABRIL,33,7230-053,BARRANCOS,-6.9774501644244395,38.133257081309985
pt.ine.add.PTCONT.439901,R LUIS DE CAMÕES,32,7230-027,BARRANCOS,-6.9786885035150386,38.129945065358875
pt.ine.add.PTCONT.439903,R IGREJA,5,7230-023,BARRANCOS,-6.975666079960568,38.12923066412579
pt.ine.add.PTCONT.439905,BR GUARDA FISCAL,9,7230-021,BARRANCOS,-6.975905551370346,38.13789934384427
pt.ine.add.PTCONT.440419,R IGREJA,5,7230-023,BARRANCOS,-6.975666079960568,38.12923066412579
pt.ine.add.PTCONT.440599,R S JOÃO DE DEUS,41,7230-047,BARRANCOS,-6.97497481399747,38.131115667709174
pt.ine.add.PTCONT.440609,R DE ESPANHA,15,7230-017,BARRANCOS,-6.976095534692575,38.13670306589346
pt.ine.add.PTCONT.441080,,,7230-039,BARRANCOS,-7.006336977130835,38.12975409938662
pt.ine.add.PTCONT.441042,R ANGOLA,,7230-003,BARRANCOS,-6.9784588453233125,38.13366338192264
pt.ine.add.PTCONT.441078,BR ADUA,33,7230-001,BARRANCOS,-6.97788984906599,38.13213532503019
pt.ine.add.PTCONT.441079,R DR LEITE DE VASCONCELOS,30,7230-014,BARRANCOS,-6.976980128401368,38.13196421862085
pt.ine.add.PTCONT.441111,R CRUZ,21,7230-008,BARRANCOS,-6.974376694654702,38.12999269597969
pt.ine.add.PTCONT.441112,R NSA SRA DA CONCEIÇÃO,5,7230-034,BARRANCOS,-6.9761260401143455,38.12899196185367
pt.ine.add.PTCONT.441246,R D MARIA DAS DORES FIALHO GARCIA,35,7230-010,BARRANCOS,-6.977004780767268,38.128955570713345
pt.ine.add.PTCONT.441422,R 1 DE DEZEMBRO,57,7230-042,BARRANCOS,-6.976496979252142,38.1336711056868
pt.ine.add.PTCONT.441438,R AMARELEJA,30,7230-002,BARRANCOS,-6.97809557934882,38.135002099106266
pt.ine.add.PTCONT.441439,R AMARELEJA,30,7230-002,BARRANCOS,-6.97809557934882,38.135002099106266
pt.ine.add.PTCONT.441440,R NOUDAR,14,7230-031,BARRANCOS,-6.975433101170224,38.131705747794484
pt.ine.add.PTCONT.441448,R 25 DE ABRIL,35,7230-053,BARRANCOS,-6.97750931334939,38.133122533494195
pt.ine.add.PTCONT.441453,R 1 DE MAIO,9,7230-043,BARRANCOS,-6.976542012384288,38.13009511431773
pt.ine.add.PTCONT.441466,LG S SEBASTIÃO,1,7230-048,BARRANCOS,-6.9749361601210085,38.129953170389925
pt.ine.add.PTCONT.441468,R S BENTO,52,7230-046,BARRANCOS,-6.973460594546981,38.1295061966767
pt.ine.add.PTCONT.442171,BR ADUA,23,7230-001,BARRANCOS,-6.977771554067934,38.1324044211011
pt.ine.add.PTCONT.442177,R S JOÃO DE DEUS,14,7230-047,BARRANCOS,-6.974971097217444,38.130629163844034
pt.ine.add.PTCONT.442180,R MOÇAMBIQUE,17,7230-028,BARRANCOS,-6.976357061703233,38.13169683335324
pt.ine.add.PTCONT.442185,R POCO NOVO,36,7230-038,BARRANCOS,-6.979416946785503,38.130763001360904
pt.ine.add.PTCONT.442189,R CRUZ,12,7230-008,BARRANCOS,-6.974608601718226,38.129751749824074
pt.ine.add.PTCONT.442190,MTE CERQUEIRO,,7230-015,BARRANCOS,-7.040580820342465,38.13392430933164
pt.ine.add.PTCONT.442191,R BICAS,,7230-023,BARRANCOS,-6.976083189323266,38.12664928881282
pt.ine.add.PTCONT.442192,R IGREJA,34,7230-023,BARRANCOS,-6.975364885772735,38.128804289052006
pt.ine.add.PTCONT.442749,R BICAS,12,7230-023,BARRANCOS,-6.975468913693251,38.12799453527433
pt.ine.add.PTCONT.443000,TV POÇO VELHO,7,7230-040,BARRANCOS,-6.978506336990416,38.12992525755983
pt.ine.add.PTCONT.443007,R POCO NOVO,22,7230-038,BARRANCOS,-6.979416946785503,38.130763001360904
pt.ine.add.PTCONT.443031,R PINHAO,11,7230-037,BARRANCOS,-6.974967285247011,38.132313744052986
pt.ine.add.PTCONT.443041,R DR LEITE DE VASCONCELOS,22,7230-014,BARRANCOS,-6.97692083739183,38.13210777344863
pt.ine.add.PTCONT.443053,R POÇO NOVO,16,7230-038,BARRANCOS,-6.978700243101209,38.130647855894445
pt.ine.add.PTCONT.443057,R NOVA,8,7230-032,BARRANCOS,-6.978105286502045,38.130768128305114
pt.ine.add.PTCONT.443058,R S BENTO,34,7230-046,BARRANCOS,-6.973776033123458,38.129752544070996
pt.ine.add.PTCONT.443059,R S BENTO,I8,7230-046,BARRANCOS,-6.97405797666537,38.12995351684933
pt.ine.add.PTCONT.443066,R POÇO NOVO,7,7230-038,BARRANCOS,-6.978373664482508,38.130383394812675
pt.ine.add.PTCONT.443088,R NSA SRA DA CONCEIÇÃO,32,7230-034,BARRANCOS,-6.976350912206748,38.12775098192964
pt.ine.add.PTCONT.443635,R 1 DE DEZEMBRO,105,7230-042,BARRANCOS,-6.977507262741884,38.134699027006825
pt.ine.add.PTCONT.443774,R FONTAÍNHAS,,7230-018,BARRANCOS,-6.977421050228234,38.13004070576507
pt.ine.add.PTCONT.444065,EN 386 MONTE DA VIADEIRA,,7230-039,BARRANCOS,-7.089352685332029,38.14823224498784
pt.ine.add.PTCONT.444066,R ESPANHA,26,7230-017,BARRANCOS,-6.9755890547099515,38.1369953608605
pt.ine.add.PTCONT.444084,R NOVA DO BALDIO,3,7230-033,BARRANCOS,-6.9769767107611536,38.135106799310506
pt.ine.add.PTCONT.444085,R AMARELEJA,16,7230-002,BARRANCOS,-6.97784227869915,38.13515275501072
pt.ine.add.PTCONT.444086,R 1 DE DEZEMBRO,62,7230-042,BARRANCOS,-6.976642700305308,38.134555388088586
pt.ine.add.PTCONT.444087,MTE BRAGAS,,7230-042,BARRANCOS,-6.957506288864061,38.15360782540992
pt.ine.add.PTCONT.444088,R S JOÃO DE DEUS,8,7230-047,BARRANCOS,-6.974847227528749,38.13052884727265
pt.ine.add.PTCONT.444089,R S JOÃO DE DEUS,6,7230-047,BARRANCOS,-6.974847939308983,38.1304838110282
pt.ine.add.PTCONT.444090,R S BENTO,40,7230-046,BARRANCOS,-6.973721012507862,38.129625879869096
pt.ine.add.PTCONT.444091,TV PREGUICA,6,7230-041,BARRANCOS,-6.974806440414852,38.12950145859103
pt.ine.add.PTCONT.444092,R CÓNEGO ALMEIDA,16,7230-005,BARRANCOS,-6.975157658345696,38.12964905992584
pt.ine.add.PTCONT.444118,R 1 DE DEZEMBRO,28,7230-042,BARRANCOS,-6.975561263263593,38.132256538593516
pt.ine.add.PTCONT.444119,PC LIBERDADE,2,7230-025,BARRANCOS,-6.975819321903107,38.12963756350651
pt.ine.add.PTCONT.444662,R DR LEITE DE VASCONCELOS,20,7230-014,BARRANCOS,-6.97688577428236,38.13216148021738
pt.ine.add.PTCONT.444663,EN 386,,7230-039,BARRANCOS,-7.048337254659718,38.14543723879449
pt.ine.add.PTCONT.444697,R ENSINASOLA,28,7230-022,BARRANCOS,-6.976502471720697,38.13549090664471
pt.ine.add.PTCONT.444698,R NOVA DO BALDIO,7,7230-033,BARRANCOS,-6.976949785994245,38.135333154915216
pt.ine.add.PTCONT.444699,MTE BOTELHO,,7230-042,BARRANCOS,-6.978014640571203,38.14013623060335
pt.ine.add.PTCONT.444700,R S BENTO,36,7230-046,BARRANCOS,-6.973753939363188,38.129707282741265
pt.ine.add.PTCONT.444701,R NSA SRA DA CONCEIÇÃO,47,7230-034,BARRANCOS,-6.975991879702205,38.12809878333828
pt.ine.add.PTCONT.444720,R FORÇAS ARMADAS,9,7230-019,BARRANCOS,-6.97614517689804,38.12994706779238
pt.ine.add.PTCONT.444721,R FORÇAS ARMADAS,43,7230-019,BARRANCOS,-6.975505057593739,38.130760548503474
pt.ine.add.PTCONT.445130,R S BENTO,5,7230-046,BARRANCOS,-6.974463790117821,38.130254806060364
pt.ine.add.PTCONT.445349,R CERRO,7,7230-007,BARRANCOS,-6.975969940108031,38.13237767780926
pt.ine.add.PTCONT.445326,R S JOÃO DE DEUS,12,7230-047,BARRANCOS,-6.9749145080749795,38.130601579916195
pt.ine.add.PTCONT.445342,R ANGOLA,30,7230-003,BARRANCOS,-6.978345753231574,38.13287851747882
pt.ine.add.PTCONT.445343,R AMARELEJA,24,7230-002,BARRANCOS,-6.978206495396092,38.135201380016085
pt.ine.add.PTCONT.445347,R 25 DE ABRIL,6,7230-053,BARRANCOS,-6.976583659893591,38.13396023597315
pt.ine.add.PTCONT.445357,R TIMOR,14,7230-051,BARRANCOS,-6.976233216307999,38.13231721060221
pt.ine.add.PTCONT.445358,R TIMOR,14 A,7230-051,BARRANCOS,-6.976233216307999,38.13231721060221
pt.ine.add.PTCONT.445360,R QUILIGRITO,7,7230-044,BARRANCOS,-6.976150059115267,38.134694674933606
pt.ine.add.PTCONT.445363,CM 1023-2,,7230-014,BARRANCOS,-6.98078842924877,38.15523491806575
pt.ine.add.PTCONT.445367,R CRUZ,17,7230-008,BARRANCOS,-6.974581951117981,38.12999472061257
pt.ine.add.PTCONT.445380,MTE CUMBRES,,7230-023,BARRANCOS,-7.008147491320026,38.11953758532745
pt.ine.add.PTCONT.445942,R NSA SRA DA CONCEIÇÃO,71,7230-034,BARRANCOS,-6.976286049556399,38.127525126708576
pt.ine.add.PTCONT.446142,R 25 DE ABRIL,21,7230-053,BARRANCOS,-6.977013557124332,38.13345998371949
pt.ine.add.PTCONT.446294,R QUILIGRITO,,7230-044,BARRANCOS,-6.974561634701275,38.134165525224915
pt.ine.add.PTCONT.446324,R PINHAO,5,7230-037,BARRANCOS,-6.97526320700551,38.132352696056415
pt.ine.add.PTCONT.446325,R ANGOLA,,7230-003,BARRANCOS,-6.9770876990747785,38.13382105943626
pt.ine.add.PTCONT.446326,R ANGOLA,1,7230-003,BARRANCOS,-6.9770876990747785,38.13382105943626
pt.ine.add.PTCONT.446327,R ANGOLA,,7230-003,BARRANCOS,-6.9770876990747785,38.13382105943626
pt.ine.add.PTCONT.446328,R S BENTO,62,7230-046,BARRANCOS,-6.973257620270501,38.12936005417894
pt.ine.add.PTCONT.446329,TV PREGUICA,9,7230-041,BARRANCOS,-6.973993112720676,38.129006968168795
pt.ine.add.PTCONT.446330,R 1 DE DEZEMBRO,27A,7230-042,BARRANCOS,-6.9757244685973845,38.132032930578845
pt.ine.add.PTCONT.446331,R MOÇAMBIQUE,5,7230-028,BARRANCOS,-6.975998862746416,38.13199059074006
pt.ine.add.PTCONT.446364,R DQ DO CADAVAL,10,7230-016,BARRANCOS,-6.977558314166563,38.13001503024077
pt.ine.add.PTCONT.447062,R SANTO ANTÓNIO,1,7230-045,BARRANCOS,-6.977213207634931,38.13237190187773
pt.ine.add.PTCONT.447069,R 1 DE DEZEMBRO,53,7230-042,BARRANCOS,-6.9764751670225245,38.13360783035406
pt.ine.add.PTCONT.447070,MTE ZE DUERO,,7230-042,BARRANCOS,-6.975535726128347,38.1418144577126
pt.ine.add.PTCONT.447074,R S JOAO DEUS,24,7230-047,BARRANCOS,-6.97496910443028,38.13075526532996
pt.ine.add.PTCONT.447075,R S JOAO DEUS,20,7230-047,BARRANCOS,-6.97496910443028,38.13075526532996
pt.ine.add.PTCONT.447076,R S JOAO DEUS,18,7230-047,BARRANCOS,-6.97496910443028,38.13075526532996
pt.ine.add.PTCONT.447082,R S BENTO,31,7230-046,BARRANCOS,-6.9738197932870305,38.12987008845813
pt.ine.add.PTCONT.447094,R CÓNEGO ALMEIDA,2,7230-005,BARRANCOS,-6.97542377091304,38.12940844932004
pt.ine.add.PTCONT.447099,R ESPANHA,24,7230-017,BARRANCOS,-6.975646787319108,38.13695088658543
pt.ine.add.PTCONT.447862,R ESCOLA,3,7230-011,BARRANCOS,-6.978154256430502,38.13417388037454
pt.ine.add.PTCONT.447869,R FORÇAS ARMADAS,44,7230-019,BARRANCOS,-6.9755435355167235,38.13049066811681
pt.ine.add.PTCONT.447874,R CERRO,43,7230-007,BARRANCOS,-6.977033629008184,38.13291065360635
pt.ine.add.PTCONT.447897,R D MARIA DAS DORES FIALHO GARCIA,39,7230-010,BARRANCOS,-6.9770837492269155,38.12901039985961
pt.ine.add.PTCONT.447906,R NOUDAR,5,7230-031,BARRANCOS,-6.975572076153417,38.13157198766825
pt.ine.add.PTCONT.448679,R S JOÃO DE DEUS,1,7230-047,BARRANCOS,-6.9749623984833535,38.13045791367536
pt.ine.add.PTCONT.448687,R TIMOR,,7230-051,BARRANCOS,-6.976077264797024,38.1320814495769
pt.ine.add.PTCONT.448692,R DR LEITE DE VASCONCELOS,15,7230-014,BARRANCOS,-6.976759483186525,38.13221428889951
pt.ine.add.PTCONT.449273,R S JOÃO DE DEUS,1,7230-047,BARRANCOS,-6.9749623984833535,38.13045791367536
pt.ine.add.PTCONT.449312,BR ADUA,27,7230-001,BARRANCOS,-6.978093266230579,38.13225443795639
pt.ine.add.PTCONT.449696,R 25 DE ABRIL,30,7230-053,BARRANCOS,-6.977727260580597,38.13304359967914
pt.ine.add.PTCONT.449697,R AMARELEJA,20,7230-002,BARRANCOS,-6.978046981919021,38.13519080282595
pt.ine.add.PTCONT.449698,R 1 DE DEZEMBRO,61,7230-042,BARRANCOS,-6.976483585136254,38.13379709488137
pt.ine.add.PTCONT.449714,R D MARIA DAS DORES FIALHO GARCIA,23,7230-010,BARRANCOS,-6.976733525106977,38.128799753453436
pt.ine.add.PTCONT.449715,R D BELA PULIDO,9,7230-009,BARRANCOS,-6.978011601019622,38.130199661778526
pt.ine.add.PTCONT.450524,R 25 DE ABRIL,57,7230-053,BARRANCOS,-6.97820573978838,38.13235463907004
pt.ine.add.PTCONT.450525,R POÇO NOVO,12,7230-038,BARRANCOS,-6.978541448945158,38.13059224322204
pt.ine.add.PTCONT.450526,R LUIS DE CAMÕES,16,7230-027,BARRANCOS,-6.978110964733234,38.13040783793951
pt.ine.add.PTCONT.450527,MTE GAMOS,,7230-023,BARRANCOS,-6.984391706949226,38.10733514612562
pt.ine.add.PTCONT.450528,R ENSINASOLA,54,7230-022,BARRANCOS,-6.97537945324797,38.13510147961809
pt.ine.add.PTCONT.450529,R AMARELEJA,32,7230-002,BARRANCOS,-6.978153450838715,38.134948616282074
pt.ine.add.PTCONT.450571,R FORÇAS ARMADAS,29,7230-019,BARRANCOS,-6.975794121858739,38.13051115465864
pt.ine.add.PTCONT.451096,MTE ZE FRANCISCO,,7230-042,BARRANCOS,-6.978558802819871,38.14034877973366
pt.ine.add.PTCONT.451101,R JERONIMO VASQUES,6,7230-020,BARRANCOS,-6.976453172998134,38.12922039999344
pt.ine.add.PTCONT.451109,R S BENTO,13,7230-046,BARRANCOS,-6.974226175008354,38.13013534948335
pt.ine.add.PTCONT.451115,R LUIS DE CAMÕES,24,7230-027,BARRANCOS,-6.978549395388757,38.13008783661107
pt.ine.add.PTCONT.451122,ESTR 258,5,7230-017,BARRANCOS,-6.978989396535752,38.135461317529945
pt.ine.add.PTCONT.451123,ESTR 258,,7230-017,BARRANCOS,-6.978989396535752,38.135461317529945
pt.ine.add.PTCONT.451124,R CONEGO ALMEIDA,6,7230-005,BARRANCOS,-6.975388281207389,38.12948917742579
pt.ine.add.PTCONT.451125,R CONG ALMEIDA,4,7230-005,BARRANCOS,-6.975388281207389,38.12948917742579
pt.ine.add.PTCONT.451135,R ENSINASOLA,62,7230-022,BARRANCOS,-6.975704925061213,38.13615869878798
pt.ine.add.PTCONT.451627,LG MONTES CLAROS,2,7230-029,BARRANCOS,-6.975363807350258,38.13103842458859
pt.ine.add.PTCONT.451795,R FONTAÍNHAS,5,7230-018,BARRANCOS,-6.976745312977191,38.1309439293947
pt.ine.add.PTCONT.451902,EN 386 CARDADOR DE BAIXO,,7230-039,BARRANCOS,-7.109610646093747,38.16554509826931
pt.ine.add.PTCONT.451903,R NOVA,7,7230-032,BARRANCOS,-6.978195802949602,38.13081406160171
pt.ine.add.PTCONT.451939,R CRUZ,11,7230-008,BARRANCOS,-6.974606608370158,38.12987785131272
pt.ine.add.PTCONT.451940,R FORÇAS ARMADAS,30,7230-019,BARRANCOS,-6.975592135938694,38.13030196533815
pt.ine.add.PTCONT.451941,R BOAVISTA,6,7230-004,BARRANCOS,-6.976536295057643,38.12973471183086
pt.ine.add.PTCONT.451942,R 1 DE MAIO,3,7230-043,BARRANCOS,-6.976419420827721,38.12991373408151
pt.ine.add.PTCONT.451943,R D BELA PULIDO,11,7230-009,BARRANCOS,-6.978010323326084,38.13028072711281
pt.ine.add.PTCONT.451944,R DR FILIPE DE FIGUEIREDO,18,7230-012,BARRANCOS,-6.977915645282834,38.12977531130473
pt.ine.add.PTCONT.451995,R PRAÇA,6,7230-025,BARRANCOS,-6.976069052216004,38.12971209294153
pt.ine.add.PTCONT.452469,LG S SEBASTIÃO,5,7230-048,BARRANCOS,-6.974820562876702,38.1300511257284
pt.ine.add.PTCONT.452474,LG S SEBASTIÃO,9,7230-048,BARRANCOS,-6.9746938469071775,38.13013095398998
pt.ine.add.PTCONT.452670,BC MIRADOURO,2,7230-042,BARRANCOS,-6.976593753116354,38.13332072125037
pt.ine.add.PTCONT.452697,R ANGOLA,16,7230-003,BARRANCOS,-6.978031325054622,38.133289823799906
pt.ine.add.PTCONT.452707,BR FERRAGIAL,,7230-011,BARRANCOS,-6.977330909731223,38.13430991993018
pt.ine.add.PTCONT.452708,BR ESPANHOIS,,7230-011,BARRANCOS,-6.977330909731223,38.13430991993018
pt.ine.add.PTCONT.452709,BR ESPANHOIS,,7230-011,BARRANCOS,-6.977330909731223,38.13430991993018
pt.ine.add.PTCONT.452722,CM 1023-2,,7230-014,BARRANCOS,-6.986862925269196,38.17386111374105
pt.ine.add.PTCONT.452731,R S BENTO,12,7230-046,BARRANCOS,-6.97417101090221,38.1300176927308
pt.ine.add.PTCONT.452746,R NSA SRA DA CONCEIÇÃO,57,7230-034,BARRANCOS,-6.976120723523228,38.127883844717026
pt.ine.add.PTCONT.453269,R DR LEITE DE VASCONCELOS,3,7230-014,BARRANCOS,-6.976571625500137,38.13255476809454
pt.ine.add.PTCONT.453473,BR FERRAGIAL,5,7230-011,BARRANCOS,-6.977330909731223,38.13430991993018
pt.ine.add.PTCONT.453708,R CERRO,28,7230-007,BARRANCOS,-6.9764203937932,38.132742460586755
pt.ine.add.PTCONT.453748,R DR LEITE VASCONCELOS,1,7230-014,BARRANCOS,-6.976524447559278,38.13265339871538
pt.ine.add.PTCONT.453749,R TIMOR,2,7230-051,BARRANCOS,-6.9759505465937055,38.1321612791329
pt.ine.add.PTCONT.453750,R DQ DO CADAVAL,22,7230-016,BARRANCOS,-6.9777587863707495,38.13104398890441
pt.ine.add.PTCONT.453751,MTE MINA DE APARIS,,7230-015,BARRANCOS,-7.07882551833628,38.125084904615974
pt.ine.add.PTCONT.453752,R 1 DE DEZEMBRO,72,7230-042,BARRANCOS,-6.977116830941725,38.13486634939901
pt.ine.add.PTCONT.453753,R ANGOLA,,7230-011,BARRANCOS,-6.977441215133705,38.1338245382172
pt.ine.add.PTCONT.453786,R ANGOLA,,7230-011,BARRANCOS,-6.977441215133705,38.1338245382172
pt.ine.add.PTCONT.453787,R S BENTO,7,7230-046,BARRANCOS,-6.974407059049315,38.13023622914194
pt.ine.add.PTCONT.453788,R S SEBASTIÃO,8,7230-049,BARRANCOS,-6.975489343774513,38.12958926866873
pt.ine.add.PTCONT.453789,R IGREJA,J1,7230-023,BARRANCOS,-6.975394683941527,38.129083851063385
pt.ine.add.PTCONT.453790,R IGREJA,J1,7230-023,BARRANCOS,-6.975394683941527,38.129083851063385
pt.ine.add.PTCONT.453791,R S JOÃO DE DEUS,43,7230-047,BARRANCOS,-6.974905682357777,38.13116002932403
pt.ine.add.PTCONT.453833,R DR FILIPE DE FIGUEIREDO,13,7230-012,BARRANCOS,-6.977626122767391,38.1293310394471
pt.ine.add.PTCONT.453834,R IGREJA,2,7230-023,BARRANCOS,-6.976240098714866,38.12971377768599
pt.ine.add.PTCONT.454104,R ANGOLA,,7230-011,BARRANCOS,-6.977441215133705,38.1338245382172
pt.ine.add.PTCONT.454332,R SENTINELA,26,7230-050,BARRANCOS,-6.975236112335422,38.13190199644206
pt.ine.add.PTCONT.454337,BC MIRADOURO,1,7230-042,BARRANCOS,-6.976539009399104,38.133176043822566
pt.ine.add.PTCONT.454340,R FORÇAS ARMADAS,52,7230-019,BARRANCOS,-6.975415538961949,38.13065156240784
pt.ine.add.PTCONT.454349,R DR MENDES RIBEIRO,3,7230-015,BARRANCOS,-6.978771446695292,38.12974769005577
pt.ine.add.PTCONT.454353,CM 1023-2,,7230-014,BARRANCOS,-7.013257660123053,38.18583601279184
pt.ine.add.PTCONT.454354,R MOÇAMBIQUE,20,7230-028,BARRANCOS,-6.976942756688267,38.13144134892993
pt.ine.add.PTCONT.454355,R S JOÃO DE DEUS,26,7230-047,BARRANCOS,-6.974944732114908,38.13085412019604
pt.ine.add.PTCONT.454364,R NOVA,9,7230-032,BARRANCOS,-6.9780928895194565,38.13083106698639
pt.ine.add.PTCONT.454365,R S BENTO,64,7230-046,BARRANCOS,-6.973201032762048,38.12933246944574
pt.ine.add.PTCONT.455157,R CERRO,54,7230-007,BARRANCOS,-6.9772240803953425,38.13312873556985
pt.ine.add.PTCONT.455161,R 1 DE DEZEMBRO,52,7230-042,BARRANCOS,-6.976395796712343,38.13430071470263
pt.ine.add.PTCONT.455165,R PINHAO,3,7230-037,BARRANCOS,-6.975376957478058,38.13237183459016
pt.ine.add.PTCONT.455166,R DAS FORÇAS ARMADAS,50,7230-019,BARRANCOS,-6.975473266576756,38.13060708809234
pt.ine.add.PTCONT.455167,R FORÇAS ARMADAS,32,7230-019,BARRANCOS,-6.975512029068436,38.1303191932072
pt.ine.add.PTCONT.455170,R D BELA PULIDO,4,7230-009,BARRANCOS,-6.977969821488749,38.12995601721476
pt.ine.add.PTCONT.455196,BR GUARDA FISCAL,5,7230-021,BARRANCOS,-6.975782664288859,38.13773597747767
pt.ine.add.PTCONT.455198,R ESPANHA,8,7230-017,BARRANCOS,-6.9760983793660065,38.13652292102381
pt.ine.add.PTCONT.455707,R BOAVISTA,12,7230-004,BARRANCOS,-6.976639917926182,38.12967267150893
