id,street,house,postcode,city,lon,lat
pt.ine.add.AC25.1,R ASSUMADA,32,9960-010,FAJÃ GRANDE,-31.261269979935815,39.45225141553433
pt.ine.add.AC25.2,R ASSUMADA,34,9960-010,FAJÃ GRANDE,-31.261302367271828,39.452351008182035
pt.ine.add.AC25.3,R PADRE JOSE LUIS DE FRAGA,4,9960-040,FAJÃ GRANDE,-31.26153820014329,39.453615913170495
pt.ine.add.AC25.4,R PADRE JOSE LUIS DE FRAGA,12,9960-040,FAJÃ GRANDE,-31.26098522187339,39.453886948972006
pt.ine.add.AC25.5,R PADRE JOSE LUIS DE FRAGA,14,9960-040,FAJÃ GRANDE,-31.260796424494366,39.45400125301559
pt.ine.add.AC25.6,R PADRE JOSE LUIS DE FRAGA,18,9960-040,FAJÃ GRANDE,-31.260804455565147,39.45414553066806
pt.ine.add.AC25.7,R PADRE JOSE LUIS DE FRAGA,26,9960-040,FAJÃ GRANDE,-31.260464850498792,39.45424856838874
pt.ine.add.AC25.8,R PADRE JOSE LUIS DE FRAGA,19,9960-040,FAJÃ GRANDE,-31.260217738172187,39.45437100883698
pt.ine.add.AC25.9,R PADRE JOSE LUIS DE FRAGA,32,9960-040,FAJÃ GRANDE,-31.259924602368773,39.454474740289186
pt.ine.add.AC25.10,R ASSUMADA,20,9960-010,FAJÃ GRANDE,-31.26039090795142,39.451616586975284
pt.ine.add.AC25.11,R SENADOR ANDRE DE FREITAS,23,9960-030,FAJÃ GRANDE,-31.262910154739217,39.454528393312756
pt.ine.add.AC25.12,R SENADOR ANDRE DE FREITAS,15,9960-030,FAJÃ GRANDE,-31.262663967718023,39.45414630141223
pt.ine.add.AC25.13,R SENADOR ANDRE DE FREITAS,,9960-030,FAJÃ GRANDE,-31.262393652115836,39.45379988778494
pt.ine.add.AC25.14,R COURELAS,6,9960-020,FAJÃ GRANDE,-31.262808332129797,39.453481729760654
pt.ine.add.AC25.15,R COURELAS,10,9960-020,FAJÃ GRANDE,-31.263127829008905,39.45325224687033
pt.ine.add.AC25.16,R COURELAS,12,9960-020,FAJÃ GRANDE,-31.263554791400164,39.452907240035145
pt.ine.add.AC25.17,R PADRE FRANCISCO DE FREITAS TOMAS,22,9960-476,LAJES DAS FLORES,-31.182289461354845,39.37979380158348
pt.ine.add.AC25.18,R PADRE FRANCISCO DE FREITAS TOMAS,16,9960-476,LAJES DAS FLORES,-31.18324083113505,39.37981767383074
pt.ine.add.AC25.19,R PADRE FRANCISCO DE FREITAS TOMAS,2,9960-476,LAJES DAS FLORES,-31.18364567218321,39.37942756138657
pt.ine.add.AC25.20,R PEIXOTO PIMENTEL,,9960-431,LAJES DAS FLORES,-31.184493463430034,39.379864260307
pt.ine.add.AC25.21,R PEIXOTO PIMENTEL,24,9960-431,LAJES DAS FLORES,-31.184560992707734,39.37994640311946
pt.ine.add.AC25.22,R PEIXOTO PIMENTEL,38,9960-431,LAJES DAS FLORES,-31.184876940889502,39.38119469644507
pt.ine.add.AC25.23,R PADRE FRANCISCO DE FREITAS TOMAS,4,9960-476,LAJES DAS FLORES,-31.18420777491286,39.37968861350417
pt.ine.add.AC25.24,R PEIXOTO PIMENTEL,30,9960-431,LAJES DAS FLORES,-31.18440055908143,39.38031330409351
pt.ine.add.AC25.56,R MARQUINHAS DO CARMO,3,9960-030,FAJÃ GRANDE,-31.263276575045353,39.454281591425
pt.ine.add.AC25.57,R SENADOR ANDRE DE FREITAS,3,9960-030,FAJÃ GRANDE,-31.262168241807444,39.45351721364514
pt.ine.add.AC25.58,R SENADOR ANDRE DE FREITAS,1,9960-030,FAJÃ GRANDE,-31.26210077586112,39.45342610677388
pt.ine.add.AC25.59,R ASSUMADA,25,9960-010,FAJÃ GRANDE,-31.261854596992155,39.45304401327388
pt.ine.add.AC25.60,R ASSUMADA,23,9960-010,FAJÃ GRANDE,-31.261786459804487,39.4529799257277
pt.ine.add.AC25.61,R ASSUMADA,19,9960-010,FAJÃ GRANDE,-31.26165130603648,39.45280671803227
pt.ine.add.AC25.62,R ASSUMADA,17,9960-010,FAJÃ GRANDE,-31.261377673911525,39.45212688807681
pt.ine.add.AC25.63,R ASSUMADA,5,9960-010,FAJÃ GRANDE,-31.261198966488674,39.451835900547806
pt.ine.add.AC25.64,R FONTINHA,1,9960-010,FAJÃ GRANDE,-31.26091506977974,39.451101856859175
pt.ine.add.AC25.65,R ASSUMADA,6,9960-010,FAJÃ GRANDE,-31.26111483987275,39.45054623396314
pt.ine.add.AC25.66,R COURELAS,,9960-020,FAJÃ GRANDE,-31.263137030076745,39.45241446836255
pt.ine.add.AC25.67,R COURELAS,13,9960-020,FAJÃ GRANDE,-31.262937270048642,39.4529700948008
pt.ine.add.AC25.68,R COURELAS,5,9960-020,FAJÃ GRANDE,-31.262741313189185,39.453372610238134
pt.ine.add.AC25.69,R COURELAS,3,9960-020,FAJÃ GRANDE,-31.262624241213214,39.45340690033158
pt.ine.add.AC25.70,R COURELAS,7,9960-020,FAJÃ GRANDE,-31.262457394486784,39.45263857000494
pt.ine.add.AC25.71,R COURELAS,5,9960-020,FAJÃ GRANDE,-31.26228604345957,39.45251888118903
pt.ine.add.AC25.72,R DR JOSE RODRIGUES FARIA,7,9960-441,LAJES DAS FLORES,-31.17648268474351,39.38120756682415
pt.ine.add.AC25.73,R JOÃO AUGUSTO DA SILVEIRA,,9960-441,LAJES DAS FLORES,-31.17594451387959,39.38091982320844
pt.ine.add.AC25.74,R MAURÍCIO ANTÓNIO FRAGA,5,9960-441,LAJES DAS FLORES,-31.17868541815457,39.38088168184391
pt.ine.add.AC25.75,R JOÃO AUGUSTO DA SILVEIRA,,9960-400,LAJES DAS FLORES,-31.175265458050095,39.379800959437055
pt.ine.add.AC25.76,R PADRE LUIS PIMENTEL GOMES,4 A,9960-431,LAJES DAS FLORES,-31.173979797139957,39.379240192694226
pt.ine.add.AC25.77,R PADRE LUIS PIMENTEL GOMES,4 B,9960-431,LAJES DAS FLORES,-31.173958934909056,39.37914976653545
pt.ine.add.AC25.78,R ROBERTO MESQUITA,14,9960-444,LAJES DAS FLORES,-31.17502341328113,39.378842116331455
pt.ine.add.AC25.79,R ROBERTO MESQUITA,4,9960-444,LAJES DAS FLORES,-31.176911345467747,39.37856538436442
pt.ine.add.AC25.80,R DR JOSE DE FREITAS PIMENTEL,12,9960-439,LAJES DAS FLORES,-31.179613738554586,39.37911225857037
pt.ine.add.AC25.81,R MAURÍCIO ANTÓNIO FRAGA,3,9960-441,LAJES DAS FLORES,-31.178922201726,39.380705191598075
pt.ine.add.AC25.82,CC ALÉM RIBEIRA,2,9960-400,LAJES DAS FLORES,-31.17476915629851,39.379243571185484
pt.ine.add.AC25.122,ESTR EXTRA MUNICIPAL DA PONTA,,9960-030,FAJÃ GRANDE,-31.257866194430825,39.46012011392164
pt.ine.add.AC25.123,CAM FURNAS,,9960-030,FAJÃ GRANDE,-31.26577084587084,39.452588930401
pt.ine.add.AC25.124,ESTR REGIONAL,,9960-030,FAJÃ GRANDE,-31.25734677950169,39.44599390530295
pt.ine.add.AC25.125,ESTR REGIONAL,,9960-030,FAJÃ GRANDE,-31.257041772133807,39.446574974098944
pt.ine.add.AC25.126,CAM AREAL,,9960-030,FAJÃ GRANDE,-31.26412298165202,39.45155523683184
pt.ine.add.AC25.127,R PICO REDONDO,10,9960-110,FAJÃZINHA,-31.253331713539293,39.43646430223786
pt.ine.add.AC25.128,R PICO REDONDO,4,9960-110,FAJÃZINHA,-31.25306871073336,39.43582966099934
pt.ine.add.AC25.129,R PICO REDONDO,,9960-110,FAJÃZINHA,-31.252327715330033,39.43525991511596
pt.ine.add.AC25.130,R PICO REDONDO,7,9960-110,FAJÃZINHA,-31.25249729673964,39.434983157904846
pt.ine.add.AC25.131,R ENGENHO,3,9960-110,FAJÃZINHA,-31.25323472052148,39.43430047783149
pt.ine.add.AC25.132,R OUTEIRO,6,9960-130,FAJÃZINHA,-31.254968487000042,39.43373185730008
pt.ine.add.AC25.133,R CANADA COMPRIDA,4,9960-110,FAJÃZINHA,-31.25417713967614,39.43378304834908
pt.ine.add.AC25.134,R CANADA COMPRIDA,6,9960-110,FAJÃZINHA,-31.254208609829327,39.43391866882684
pt.ine.add.AC25.135,R CANADA COMPRIDA,05,9960-110,FAJÃZINHA,-31.25420553017602,39.43497277698436
pt.ine.add.AC25.136,R CANADA PEQUENA,3,9960-110,FAJÃZINHA,-31.254866581694003,39.43409072273545
pt.ine.add.AC25.137,R CANADA MANCEDO,4,9960-110,FAJÃZINHA,-31.255164285567147,39.43426637759993
pt.ine.add.AC25.138,R PADRE JOÃO FRAGA VIEIRA,,9960-441,LAJES DAS FLORES,-31.18734199040314,39.380151949722155
pt.ine.add.AC25.139,R PADRE JOÃO FRAGA VIEIRA,11,9960-441,LAJES DAS FLORES,-31.187054895001737,39.38003034721171
pt.ine.add.AC25.140,R PEIXOTO PIMENTEL,19,9960-431,LAJES DAS FLORES,-31.184997953575916,39.38055688350916
pt.ine.add.AC25.141,R PEIXOTO PIMENTEL,19A,9960-431,LAJES DAS FLORES,-31.185010725241636,39.380512033404045
pt.ine.add.AC25.142,R PADRE JOÃO FRAGA VIEIRA,36,9960-476,LAJES DAS FLORES,-31.184754139151114,39.37966110126984
pt.ine.add.AC25.143,R PADRE JOÃO FRAGA VIEIRA,30,9960-476,LAJES DAS FLORES,-31.185050967298704,39.37985494029974
pt.ine.add.AC25.144,R PADRE JOÃO FRAGA VIEIRA,26,9960-476,LAJES DAS FLORES,-31.185191159782615,39.37982108804847
pt.ine.add.AC25.145,R PADRE JOÃO FRAGA VIEIRA,24,9960-476,LAJES DAS FLORES,-31.186179445168523,39.379764423270174
pt.ine.add.AC25.146,R PADRE JOÃO FRAGA VIEIRA,22,9960-476,LAJES DAS FLORES,-31.186377894765716,39.37972246807395
pt.ine.add.AC25.147,R PADRE JOÃO FRAGA VIEIRA,18,9960-476,LAJES DAS FLORES,-31.18646747040961,39.37985000291125
pt.ine.add.AC25.148,R PADRE FRANCISCO DE FREITAS TOMAS,11,9960-476,LAJES DAS FLORES,-31.182639244169938,39.37973619769917
pt.ine.add.AC25.149,R PADRE FRANCISCO DE FREITAS TOMAS,13,9960-476,LAJES DAS FLORES,-31.182443362633713,39.37967907799902
pt.ine.add.AC25.150,AV EMIGRANTE,18,9960-431,LAJES DAS FLORES,-31.183229209062187,39.37847502076243
pt.ine.add.AC25.196,R FALCA,8,9960-110,FAJÃZINHA,-31.250144933122893,39.4328755144882
pt.ine.add.AC25.197,R FALCA,7,9960-110,FAJÃZINHA,-31.250082009565954,39.43260427164999
pt.ine.add.AC25.198,R FALCA,1,9960-110,FAJÃZINHA,-31.251606289548302,39.4329785844283
pt.ine.add.AC25.199,R CANTO,4,9960-110,FAJÃZINHA,-31.251093843105224,39.434421466724196
pt.ine.add.AC25.200,R FALCA,11,9960-110,FAJÃZINHA,-31.250375985746558,39.4333925534102
pt.ine.add.AC25.201,R PEDREIRA,5,9960-110,FAJÃZINHA,-31.25074461109729,39.433983740333495
pt.ine.add.AC25.202,R PEDREIRA,,9960-110,FAJÃZINHA,-31.25052529077126,39.433926381742474
pt.ine.add.AC25.203,R PEDREIRA,,9960-110,FAJÃZINHA,-31.250964932691954,39.433536561160864
pt.ine.add.AC25.204,R CANTO,9,9960-110,FAJÃZINHA,-31.251175270598292,39.4348821943928
pt.ine.add.AC25.205,R ROSSIO,7,9960-150,FAJÃZINHA,-31.254058006230895,39.43297037158614
pt.ine.add.AC25.206,R ROSSIO,6,9960-150,FAJÃZINHA,-31.254042119535704,39.43314132055837
pt.ine.add.AC25.207,R ROSSIO,4,9960-150,FAJÃZINHA,-31.25428309512573,39.43326206669758
pt.ine.add.AC25.208,R ENGENHO,2,9960-110,FAJÃZINHA,-31.253103222696296,39.43398315715947
pt.ine.add.AC25.209,R ROCAS,7,9960-140,FAJÃZINHA,-31.251867467957883,39.43368528058381
pt.ine.add.AC25.210,R ROCAS,5,9960-140,FAJÃZINHA,-31.252100204027688,39.4336707593755
pt.ine.add.AC25.211,R OUTEIRO,3,9960-130,FAJÃZINHA,-31.25586436218757,39.43368222868759
pt.ine.add.AC25.212,R ROSSIO,1,9960-150,FAJÃZINHA,-31.25446045609276,39.43313859100158
pt.ine.add.AC25.213,R LADEIRA,2,9960-120,FAJÃZINHA,-31.254548800026402,39.43239209792833
pt.ine.add.AC25.214,R PADRE FRANCISCO DE FREITAS TOMAS,1,9960-476,LAJES DAS FLORES,-31.183929791726346,39.379215760373945
pt.ine.add.AC25.215,AV EMIGRANTE,20,9960-431,LAJES DAS FLORES,-31.183523692966958,39.378758925816626
pt.ine.add.AC25.216,R JOÃO GERMANO DE DEUS,5,9960-435,LAJES DAS FLORES,-31.181112073663495,39.37953213098172
pt.ine.add.AC25.217,R PADRE JOÃO FRAGA VIEIRA,29,9960-476,LAJES DAS FLORES,-31.1854193512698,39.37952732192652
pt.ine.add.AC25.218,R PADRE JOÃO FRAGA VIEIRA,33,9960-476,LAJES DAS FLORES,-31.1847810824614,39.379517363682055
pt.ine.add.AC25.219,AV PEIXOTO PIMENTEL,25,9960-431,LAJES DAS FLORES,-31.18450496297795,39.378972461951875
pt.ine.add.AC25.220,AV PEIXOTO PIMENTEL,13,9960-431,LAJES DAS FLORES,-31.18452146855939,39.37878351211889
pt.ine.add.AC25.221,AV PEIXOTO PIMENTEL,11,9960-431,LAJES DAS FLORES,-31.184477149892327,39.37870173153326
pt.ine.add.AC25.222,R AUTONOMIA,13,9960-430,LAJES DAS FLORES,-31.172772049214174,39.377473313484394
pt.ine.add.AC25.223,R DR JOSE DE FREITAS PIMENTEL,1,9960-439,LAJES DAS FLORES,-31.180475911397625,39.37944109317991
pt.ine.add.AC25.224,R DR JOSE DE FREITAS PIMENTEL,3,9960-439,LAJES DAS FLORES,-31.180315080998625,39.37937550829192
pt.ine.add.AC25.225,R DR JOSE DE FREITAS PIMENTEL,11,9960-439,LAJES DAS FLORES,-31.179471301112947,39.37878567404312
pt.ine.add.AC25.226,R DR PADRE AMÉRICO CAETANO VIEIRA,4,9960-443,LAJES DAS FLORES,-31.1791188105219,39.378500850865045
pt.ine.add.AC25.262,R LADEIRA,6,9960-120,FAJÃZINHA,-31.255068135220878,39.432066526751704
pt.ine.add.AC25.263,LG S JOSE,4,9960-110,FAJÃZINHA,-31.255314585837752,39.432899132668446
pt.ine.add.AC25.264,R FALCA,,9960-110,FAJÃZINHA,-31.250553783678587,39.43232305442854
pt.ine.add.AC25.265,PASSAGEM,7,9960-110,FAJÃZINHA,-31.25179603791433,39.432359756389104
pt.ine.add.AC25.266,R ROSSIO,2,9960-150,FAJÃZINHA,-31.254087081018465,39.43273655153086
pt.ine.add.AC25.267,R PASSAGEM,3,9960-110,FAJÃZINHA,-31.25390372841757,39.43263468998193
pt.ine.add.AC25.268,R PASSAGEM,6,9960-110,FAJÃZINHA,-31.252804299202374,39.43199649536666
pt.ine.add.AC25.269,R PASSAGEM,4,9960-110,FAJÃZINHA,-31.253363121749906,39.43195083106981
pt.ine.add.AC25.270,R LADEIRA,1,9960-120,FAJÃZINHA,-31.254447195752306,39.4322734445018
pt.ine.add.AC25.271,R LADEIRA,1,9960-120,FAJÃZINHA,-31.254140732910365,39.43244904123258
pt.ine.add.AC25.272,R PASSAGEM,2,9960-110,FAJÃZINHA,-31.253967645807755,39.43240139312076
pt.ine.add.AC25.273,ER 1-2A RIBEIRA ALAGOA,,9960-110,FAJÃZINHA,-31.24657155524819,39.43452455140668
pt.ine.add.AC25.274,R BARREIRA VERMELHA,14,9960-220,FAZENDA,-31.164439829719242,39.395073514649475
pt.ine.add.AC25.275,R BARREIRA VERMELHA,12,9960-220,FAZENDA,-31.164152007745155,39.394978873717804
pt.ine.add.AC25.276,R BARREIRA VERMELHA,8,9960-220,FAZENDA,-31.164228026664507,39.39473680800283
pt.ine.add.AC25.277,CAN ESTREITA,2,9960-220,FAZENDA,-31.165253625826068,39.393707849520545
pt.ine.add.AC25.278,TV MARIA ANTONIA FRAGA,1,9960-482,LAJES DAS FLORES,-31.180890499287706,39.379123221859636
pt.ine.add.AC25.279,R DR JOSE DE FREITAS PIMENTEL,7 A,9960-439,LAJES DAS FLORES,-31.17994826488461,39.37874808832517
pt.ine.add.AC25.280,R DR PADRE AMÉRICO CAETANO VIEIRA,2,9960-443,LAJES DAS FLORES,-31.179292041816236,39.37808910819644
pt.ine.add.AC25.281,R BALEEIROS,9,9960-445,LAJES DAS FLORES,-31.171185230525825,39.37822322572715
pt.ine.add.AC25.282,R DR JOSE DE FREITAS PIMENTEL,11,9960-439,LAJES DAS FLORES,-31.17891661513081,39.3786868929905
pt.ine.add.AC25.283,R DR JOSE DE FREITAS PIMENTEL,21,9960-439,LAJES DAS FLORES,-31.17773668317971,39.378524257147106
pt.ine.add.AC25.284,R ROBERTO MESQUITA,1,9960-444,LAJES DAS FLORES,-31.177356071853296,39.3784281954588
pt.ine.add.AC25.285,R ROBERTO MESQUITA,1,9960-444,LAJES DAS FLORES,-31.177356071853296,39.3784281954588
pt.ine.add.AC25.286,R ROBERTO MESQUITA,3,9960-444,LAJES DAS FLORES,-31.17699796789144,39.37835951487127
pt.ine.add.AC25.287,R DR PADRE AMÉRICO CAETANO VIEIRA,5,9960-443,LAJES DAS FLORES,-31.17799477332438,39.377528204033226
pt.ine.add.AC25.288,R ROBERTO MESQUITA,9,9960-444,LAJES DAS FLORES,-31.176437663491512,39.37847687087898
pt.ine.add.AC25.336,ESTR REGIONAL,38,9960-220,FAZENDA,-31.16459410484184,39.39317487362657
pt.ine.add.AC25.337,ESTR REGIONAL,36,9960-220,FAZENDA,-31.164461430547437,39.392920504500346
pt.ine.add.AC25.338,R EIRINHA VELHA,1,9960-220,FAZENDA,-31.164951476641875,39.392387646498584
pt.ine.add.AC25.339,R EIRINHA VELHA,13,9960-220,FAZENDA,-31.166508320724677,39.39324110323185
pt.ine.add.AC25.340,R BARREIRA VERMELHA,11,9960-220,FAZENDA,-31.16370124649828,39.395341161324524
pt.ine.add.AC25.341,R BARREIRA VERMELHA,9,9960-220,FAZENDA,-31.163751454813294,39.39519779663779
pt.ine.add.AC25.342,R BARREIRA VERMELHA,7,9960-220,FAZENDA,-31.163992775029797,39.39440874066755
pt.ine.add.AC25.343,ESTR REGIONAL,42,9960-220,FAZENDA,-31.164335956299112,39.393720399894384
pt.ine.add.AC25.344,R TABULEIRO,4,9960-220,FAZENDA,-31.16295940670582,39.39307698817863
pt.ine.add.AC25.345,R EIRINHA VELHA,12,9960-220,FAZENDA,-31.1658779051046,39.39248334733062
pt.ine.add.AC25.346,ESTR REGIONAL,30,9960-220,FAZENDA,-31.165114592818696,39.391480225924305
pt.ine.add.AC25.347,R TABULEIRO,11,9960-220,FAZENDA,-31.162362723638545,39.39324775942505
pt.ine.add.AC25.348,ESTR REGIONAL,31,9960-220,FAZENDA,-31.166006073859226,39.38847598799944
pt.ine.add.AC25.349,ESTR REGIONAL,33,9960-220,FAZENDA,-31.16592129251185,39.38860979889622
pt.ine.add.AC25.350,R ROBERTO MESQUITA,7,9960-444,LAJES DAS FLORES,-31.177121278135363,39.378082141250566
pt.ine.add.AC25.351,R DR PADRE AMÉRICO CAETANO VIEIRA,,9960-443,LAJES DAS FLORES,-31.178301304550654,39.37779429111765
pt.ine.add.AC25.352,R DR PADRE AMÉRICO CAETANO VIEIRA,,9960-443,LAJES DAS FLORES,-31.17851476713753,39.37806792999974
pt.ine.add.AC25.353,R JOGO DA BOLA,13,9960-444,LAJES DAS FLORES,-31.175881812393122,39.37842310647455
pt.ine.add.AC25.354,LG ADAO PINHEIRO DA SILVA,,9960-484,LAJES DAS FLORES,-31.178012958850754,39.378168189844324
pt.ine.add.AC25.355,LG ADAO PINHEIRO DA SILVA,3,9960-484,LAJES DAS FLORES,-31.177509149467912,39.377899011403805
pt.ine.add.AC25.356,R NSA SRA DO ROSÁRIO,1,9960-440,LAJES DAS FLORES,-31.17414348947148,39.37741375886902
pt.ine.add.AC25.357,R NSA SRA DO ROSÁRIO,5,9960-440,LAJES DAS FLORES,-31.174713750840294,39.37735963919472
pt.ine.add.AC25.358,R NSA SRA DO ROSÁRIO,7,9960-440,LAJES DAS FLORES,-31.17459301353866,39.377537942035175
pt.ine.add.AC25.359,R AUTONOMIA,21,9960-430,LAJES DAS FLORES,-31.175037627265564,39.37695927652269
pt.ine.add.AC25.401,R PADRE FRANCISCO CRISTIANO KORTH,7,9960-220,FAZENDA,-31.165542155030394,39.38934262736152
pt.ine.add.AC25.402,R PADRE FRANCISCO CRISTIANO KORTH,15,9960-220,FAZENDA,-31.16546053210586,39.39024232441911
pt.ine.add.AC25.403,R PADRE FRANCISCO CRISTIANO KORTH,17,9960-220,FAZENDA,-31.165353242136227,39.390348750301776
pt.ine.add.AC25.404,R SENADOR MACHADO SERPA,1,9960-220,FAZENDA,-31.16524595183799,39.390455176075925
pt.ine.add.AC25.405,R SENADOR MACHADO SERPA,13,9960-220,FAZENDA,-31.164556956654497,39.39104796525898
pt.ine.add.AC25.406,R SENADOR MACHADO SERPA,17,9960-220,FAZENDA,-31.16431443631533,39.3914405710434
pt.ine.add.AC25.407,R MADEIRA,3,9960-220,FAZENDA,-31.164154577303425,39.39178042195044
pt.ine.add.AC25.408,R MADEIRA,5,9960-220,FAZENDA,-31.164138012451307,39.391969367130464
pt.ine.add.AC25.409,R TABULEIRO,5,9960-220,FAZENDA,-31.163248604484323,39.39267611269527
pt.ine.add.AC25.410,R TABULEIRO,9,9960-220,FAZENDA,-31.16272345752611,39.39277593677216
pt.ine.add.AC25.411,R SENADOR MACHADO SERPA,8,9960-220,FAZENDA,-31.16452264928027,39.39147088640638
pt.ine.add.AC25.412,R SENADOR MACHADO SERPA,6,9960-220,FAZENDA,-31.16491369537047,39.39117072195983
pt.ine.add.AC25.413,ESTR REGIONAL,41,9960-220,FAZENDA,-31.164766862733202,39.391456720220866
pt.ine.add.AC25.414,ESTR REGIONAL,24,9960-220,FAZENDA,-31.16653393893621,39.38960153064047
pt.ine.add.AC25.415,AV EMIGRANTE,,9960-431,LAJES DAS FLORES,-31.176492750650574,39.37725239192676
pt.ine.add.AC25.416,AV EMIGRANTE,,9960-431,LAJES DAS FLORES,-31.17738627806273,39.3763744177201
pt.ine.add.AC25.417,LAD ANEL,,9960-446,LAJES DAS FLORES,-31.176331931238515,39.38610656901216
pt.ine.add.AC25.418,CAM FAJA DE LOPO VAZ,,9960-446,LAJES DAS FLORES,-31.2109830827939,39.37500387732852
pt.ine.add.AC25.419,CAM FAJA DE LOPO VAZ,,9960-446,LAJES DAS FLORES,-31.20715182443805,39.375016973163824
pt.ine.add.AC25.420,CAM FAJA DE LOPO VAZ,,9960-446,LAJES DAS FLORES,-31.207016029775573,39.37487973166605
pt.ine.add.AC25.421,R PORTO,17,9960-520,LOMBA LGF,-31.153634955706153,39.40409251184896
pt.ine.add.AC25.422,R PORTO,13,9960-520,LOMBA LGF,-31.153992243585193,39.40375581046578
pt.ine.add.AC25.423,R PORTO,5,9960-520,LOMBA LGF,-31.15550305610305,39.403275230915106
pt.ine.add.AC25.424,R PORTO,7,9960-520,LOMBA LGF,-31.155558488978123,39.40337521798604
pt.ine.add.AC25.425,R PORTO,3,9960-520,LOMBA LGF,-31.15543767595544,39.40311201735017
pt.ine.add.AC25.426,R TERRA CHA,33,9960-580,LOMBA LGF,-31.156847942429977,39.40556702522259
pt.ine.add.AC25.427,R TERRA CHA,27,9960-580,LOMBA LGF,-31.15672096686404,39.405096502565705
pt.ine.add.AC25.428,R TERRA CHA,25,9960-580,LOMBA LGF,-31.156759351064586,39.404961963695285
pt.ine.add.AC25.429,R TERRA CHA,21,9960-580,LOMBA LGF,-31.156692792858404,39.40440230033565
pt.ine.add.AC25.430,R TERRA CHA,9,9960-580,LOMBA LGF,-31.156145785676788,39.403564726556844
pt.ine.add.AC25.431,R TERRA CHA,1,9960-580,LOMBA LGF,-31.15594987808286,39.40306608068825
pt.ine.add.AC25.460,R DR JOSE FRESTAS PIMENTEL,24,9960-220,FAZENDA,-31.166077699759636,39.3892880034295
pt.ine.add.AC25.461,R DR JOSE FRESTAS PIMENTEL,22,9960-220,FAZENDA,-31.16623117661899,39.38919131484521
pt.ine.add.AC25.462,R DR JOSE FRESTAS PIMENTEL,16,9960-220,FAZENDA,-31.166664801149555,39.38859449056584
pt.ine.add.AC25.463,R DR JOSE FRESTAS PIMENTEL,12,9960-220,FAZENDA,-31.16704374417745,39.38831214755607
pt.ine.add.AC25.464,R DR JOSE FRESTAS PIMENTEL,6,9960-220,FAZENDA,-31.167409664093622,39.38808365718475
pt.ine.add.AC25.465,R DR JOSE FRESTAS PIMENTEL,2,9960-220,FAZENDA,-31.168066442238366,39.38783271729036
pt.ine.add.AC25.466,ESTR REGIONAL,39,9960-220,FAZENDA,-31.165881669517987,39.3901228280502
pt.ine.add.AC25.467,R PADRE FRANCISCO CRISTIANO KORTH,4,9960-220,FAZENDA,-31.165641658939453,39.38953340335585
pt.ine.add.AC25.468,R PADRE FRANCISCO CRISTIANO KORTH,2,9960-220,FAZENDA,-31.165761968802883,39.38937312342888
pt.ine.add.AC25.469,ESTR REGIONAL,37,9960-220,FAZENDA,-31.16588350693458,39.38960929590714
pt.ine.add.AC25.470,R DR JOSE DE FREITAS PIMENTEL,7,9960-220,FAZENDA,-31.166753824282168,39.388298568721666
pt.ine.add.AC25.471,R MANUEL FREITAS DIAS,1,9960-220,FAZENDA,-31.168985988043445,39.38818957022665
pt.ine.add.AC25.472,R PROF FRANCISCO RODRIGUES VIEIRA,8,9960-220,FAZENDA,-31.167834021295977,39.38739658380883
pt.ine.add.AC25.473,R PROF FRANCISCO RODRIGUES VIEIRA,4,9960-220,FAZENDA,-31.16775625072608,39.38681872840229
pt.ine.add.AC25.474,R RIBEIRINHA,5,9960-520,LOMBA LGF,-31.15620077507541,39.40279976396637
pt.ine.add.AC25.475,R RIBEIRINHA,3,9960-520,LOMBA LGF,-31.156285355776344,39.40267496736652
pt.ine.add.AC25.476,R CABECO,5,9960-520,LOMBA LGF,-31.156058182425618,39.40204067872536
pt.ine.add.AC25.477,R CABECO,3,9960-520,LOMBA LGF,-31.156164793182704,39.40196128054904
pt.ine.add.AC25.478,R OUTEIRO,,9960-520,LOMBA LGF,-31.15721309071061,39.40272570970406
pt.ine.add.AC25.479,R OUTEIRO,,9960-520,LOMBA LGF,-31.157867431373234,39.40301537983339
pt.ine.add.AC25.480,R ALQUEVE NOVO,,9960-520,LOMBA LGF,-31.15857366114209,39.40354012313223
pt.ine.add.AC25.481,R TERRA PEREIRA,01,9960-580,LOMBA LGF,-31.157307087253567,39.405772516655404
pt.ine.add.AC25.482,R TERRA CHA,5,9960-520,LOMBA LGF,-31.157528370545865,39.40574899298989
pt.ine.add.AC25.483,R TERRA DE PEREIRA,02,9960-520,LOMBA LGF,-31.158964336910053,39.40502391796535
pt.ine.add.AC25.484,R TERRA CHA,9,9960-580,LOMBA LGF,-31.156281057346913,39.4037200378883
pt.ine.add.AC25.485,R S CATARINA,15,9960-520,LOMBA LGF,-31.15451877319456,39.401845075886214
pt.ine.add.AC25.486,R S CATARINA,11,9960-520,LOMBA LGF,-31.15478481658884,39.40188533627757
pt.ine.add.AC25.487,R S CATARINA,1,9960-520,LOMBA LGF,-31.155397194297528,39.40244464895083
pt.ine.add.AC25.488,R PORTO,4,9960-520,LOMBA LGF,-31.15512732927595,39.40298996734046
pt.ine.add.AC25.489,R RIBEIRINHA,8,9960-520,LOMBA LGF,-31.155667018865483,39.40278229124486
pt.ine.add.AC25.490,R PORTO,8,9960-520,LOMBA LGF,-31.154847061650347,39.403048590007266
pt.ine.add.AC25.491,R PORTO,10,9960-520,LOMBA LGF,-31.154672220597543,39.40307284550934
pt.ine.add.AC25.522,ESTR REGIONAL,10,9960-220,FAZENDA,-31.167824583650535,39.385981888625295
pt.ine.add.AC25.523,ESTR REGIONAL,10,9960-220,FAZENDA,-31.167824583650535,39.385981888625295
pt.ine.add.AC25.524,ESTR REGIONAL,6,9960-220,FAZENDA,-31.16867167448239,39.38511226270748
pt.ine.add.AC25.525,R PICO,,9960-220,FAZENDA,-31.169198475340313,39.3853908510223
pt.ine.add.AC25.526,R PICO,1,9960-220,FAZENDA,-31.169054238162197,39.386911245794586
pt.ine.add.AC25.527,R PROF FRANCISCO RODRIGUES VIEIRA,6,9960-220,FAZENDA,-31.168271519452823,39.387538621914516
pt.ine.add.AC25.528,R PROF FRANCISCO RODRIGUES VIEIRA,6,9960-220,FAZENDA,-31.168271519452823,39.387538621914516
pt.ine.add.AC25.529,ESTR REGIONAL,29,9960-230,FAZENDA,-31.166409881635822,39.38813097018111
pt.ine.add.AC25.530,ESTR REGIONAL,5,9960-230,FAZENDA,-31.170386336420705,39.38303093904778
pt.ine.add.AC25.531,ESTR REGIONAL,9,9960-230,FAZENDA,-31.16949348835102,39.38476480416392
pt.ine.add.AC25.532,ESTR REGIONAL,13,9960-220,FAZENDA,-31.168966290192664,39.384945713505644
pt.ine.add.AC25.533,ESTR REGIONAL,1S,9960-220,FAZENDA,-31.16861028157167,39.384795951249046
pt.ine.add.AC25.534,ESTR REGIONAL,17,9960-220,FAZENDA,-31.16835354421824,39.38484596791677
pt.ine.add.AC25.2007,EM FURNAS,,9960-030,FAJÃ GRANDE,-31.265879650014835,39.45241936602123
pt.ine.add.AC25.535,R PROF MARIA DE FREITAS VIEIRA,1,9960-220,FAZENDA,-31.168192242570875,39.384798378585934
pt.ine.add.AC25.536,R PROF MARIA DE FREITAS VIEIRA,7,9960-220,FAZENDA,-31.167910644742502,39.384911071739594
pt.ine.add.AC25.537,R PORTO,12,9960-520,LOMBA LGF,-31.154531730361036,39.40311566544188
pt.ine.add.AC25.538,R PORTO,14,9960-520,LOMBA LGF,-31.154203602533496,39.40322758600108
pt.ine.add.AC25.539,R NOVA,3,9960-520,LOMBA LGF,-31.157568950127907,39.40111858990576
pt.ine.add.AC25.540,R NOVA,1,9960-520,LOMBA LGF,-31.15748058744755,39.40094600352276
pt.ine.add.AC25.541,R CRUZ,,9960-520,LOMBA LGF,-31.157574638606867,39.40090244432839
pt.ine.add.AC25.542,R CRUZ,7,9960-520,LOMBA LGF,-31.157728863859077,39.400778749826074
pt.ine.add.AC25.543,R CRUZ,1,9960-520,LOMBA LGF,-31.1582569206924,39.40057087718011
pt.ine.add.AC25.544,R GROTA,5,9960-520,LOMBA LGF,-31.15935495881884,39.400326974727605
pt.ine.add.AC25.545,R QUARTEIRO,10,9960-550,LOMBA LGF,-31.157452379988783,39.4020177251933
pt.ine.add.AC25.546,R QUARTEIRO,10,9960-550,LOMBA LGF,-31.157238457718776,39.40176206106411
pt.ine.add.AC25.547,R QUARTEIRO,14,9960-550,LOMBA LGF,-31.15711598127705,39.40156190445946
pt.ine.add.AC25.548,R CRUZ,15,9960-520,LOMBA LGF,-31.15698094879925,39.40139758803708
pt.ine.add.AC25.549,R CRUZ,13,9960-520,LOMBA LGF,-31.157077371733635,39.40126396864421
pt.ine.add.AC25.550,R S CATARINA,4,9960-520,LOMBA LGF,-31.155039489261338,39.40191640587241
pt.ine.add.AC25.551,ESTR REGIONAL,,9960-520,LOMBA LGF,-31.153638911390594,39.40174101323977
pt.ine.add.AC25.581,R PROF MARIA DE FREITAS VIEIRA,11,9960-220,FAZENDA,-31.16727522017962,39.385234426336574
pt.ine.add.AC25.582,R PROF MARIA DE FREITAS VIEIRA,13,9960-220,FAZENDA,-31.167383030424364,39.385551469750645
pt.ine.add.AC25.583,R PROF MARIA DE FREITASVIEIRA,4,9960-220,FAZENDA,-31.167880837723953,39.38516287814288
pt.ine.add.AC25.584,ESTR REGIONAL,25,9960-220,FAZENDA,-31.166593404571554,39.38777346913043
pt.ine.add.AC25.585,R PROF FRANCISCO RODRIGUESVIEIRA,3,9960-220,FAZENDA,-31.167556592846054,39.386905681730866
pt.ine.add.AC25.586,R PROF FRANCISCO RODRIGUESVIEIRA,16,9960-220,FAZENDA,-31.1675073413671,39.38701302402648
pt.ine.add.AC25.587,R PROF FRANCISCO RODRIGUESVIEIRA,18,9960-220,FAZENDA,-31.167492200943347,39.38714793324592
pt.ine.add.AC25.588,ESTR REGIONAL,,9960-220,FAZENDA,-31.166550442892316,39.400945175901825
pt.ine.add.AC25.589,R CALHAU GRANDE,2,9960-340,LAJEDO,-31.248337707277866,39.39322280371139
pt.ine.add.AC25.590,R GROTAO,1,9960-350,LAJEDO,-31.24791791727379,39.392829054652196
pt.ine.add.AC25.591,R IGREJA,9,9960-360,LAJEDO,-31.247442461113206,39.39280387206407
pt.ine.add.AC25.592,R CAMPANÁRIO,,9960-300,LAJEDO,-31.246785912808996,39.392127243974734
pt.ine.add.AC25.593,R IGREJA,1,9960-360,LAJEDO,-31.248481834723336,39.392567249950545
pt.ine.add.AC25.594,R CALHAU GRANDE,1,9960-360,LAJEDO,-31.248616844481173,39.392740471344936
pt.ine.add.AC25.595,R CANADA DA SENHORA,1,9960-520,LOMBA LGF,-31.156491489077478,39.40190339057177
pt.ine.add.AC25.596,R ADRO,3,9960-520,LOMBA LGF,-31.15661990491553,39.40143691539112
pt.ine.add.AC25.597,R QUARTEIRO,5,9960-550,LOMBA LGF,-31.157266170905032,39.40203279471484
pt.ine.add.AC25.598,R CANADA DA SENHORA,3,9960-520,LOMBA LGF,-31.156636469706186,39.40213093394546
pt.ine.add.AC25.599,R MARJAO,2,9960-530,LOMBA LGF,-31.156200581782343,39.401484327555565
pt.ine.add.AC25.600,R RAMAL DA ESTRADA REGIONAL CASA MORADIA,4,9960-520,LOMBA LGF,-31.156451959032395,39.400758517004434
pt.ine.add.AC25.601,R CRUZ,20,9960-520,LOMBA LGF,-31.156845679831328,39.401242277530116
pt.ine.add.AC25.602,R CRUZ,18,9960-520,LOMBA LGF,-31.15711836073255,39.40103036280977
pt.ine.add.AC25.603,R PAU QUEIMADO,,9960-520,LOMBA LGF,-31.159349264496154,39.39966015766769
pt.ine.add.AC25.604,R PAU QUEIMADO,,9960-520,LOMBA LGF,-31.159800558455792,39.3997213577599
pt.ine.add.AC25.605,R GROTA,2,9960-520,LOMBA LGF,-31.159055984477686,39.399772643657435
pt.ine.add.AC25.606,R CRUZ,2,9960-520,LOMBA LGF,-31.158004383830086,39.400458760088846
pt.ine.add.AC25.607,R CRUZ,4,9960-520,LOMBA LGF,-31.157790938016053,39.40018508483859
pt.ine.add.AC25.608,R CRUZ,6,9960-520,LOMBA LGF,-31.15760401748137,39.40066865437823
pt.ine.add.AC25.609,R CRUZ,14,9960-520,LOMBA LGF,-31.157145607538617,39.400877627591505
pt.ine.add.AC25.610,R GROTA,16,9960-520,LOMBA LGF,-31.157213123418696,39.40095978572509
pt.ine.add.AC25.640,R CALHAU GRANDE,8,9960-360,LAJEDO,-31.24888021312783,39.39288859529678
pt.ine.add.AC25.641,R CAETANO TOMAS,3,9960-360,LAJEDO,-31.249280722509308,39.39266036621358
pt.ine.add.AC25.642,R GROTA,1,9960-360,LAJEDO,-31.248767620678134,39.3922832355259
pt.ine.add.AC25.643,R PADRE JOSE FURTADO MOTA,2,9960-360,LAJEDO,-31.248629908518527,39.3922180926599
pt.ine.add.AC25.644,R IGREJA,4,9960-360,LAJEDO,-31.247515373976157,39.392210315942386
pt.ine.add.AC25.645,R CAMPANÁRIO,2,9960-360,LAJEDO,-31.246438488067806,39.391626461291466
pt.ine.add.AC25.646,R JOSE ROSARIA,2,9960-360,LAJEDO,-31.248807172433217,39.39209462265196
pt.ine.add.AC25.647,EM J,J2,9960-330,LAJEDO,-31.24201141683387,39.38527071227718
pt.ine.add.AC25.648,R JOSE BAPTISTA SERPA,6,9960-330,LAJEDO,-31.242367964416324,39.384942733009645
pt.ine.add.AC25.649,R JOSE BAPTISTA SERPA,2,9960-330,LAJEDO,-31.241824355199896,39.38393441614423
pt.ine.add.AC25.650,R JOSE BAPTISTA SERPA,6,9960-330,LAJEDO,-31.241187083804846,39.383420226533225
pt.ine.add.AC25.651,R LARANJEIRA,,9960-330,LAJEDO,-31.243326080171975,39.38516443438624
pt.ine.add.AC25.652,R CABASTIAO,,9960-330,LAJEDO,-31.242269691264433,39.38515748626955
pt.ine.add.AC25.653,R ESTRADA MUNICIPAL,,9960-330,LAJEDO,-31.24097982245081,39.385201057678906
pt.ine.add.AC25.654,R LOURAL,1,9960-330,LAJEDO,-31.239190812073605,39.38293051981771
pt.ine.add.AC25.655,R LAGEDO,,9960-330,LAJEDO,-31.241657258514536,39.37948999542561
pt.ine.add.AC25.656,R GROTA,6,9960-520,LOMBA LGF,-31.158879734587313,39.40029242354365
pt.ine.add.AC25.657,R GROTA,8,9960-520,LOMBA LGF,-31.15879587205669,39.400390204037365
pt.ine.add.AC25.658,R PAU QUEIMADO,,9960-520,LOMBA LGF,-31.160881071174664,39.40014389050118
pt.ine.add.AC25.659,ESTR REGIONAL,4,9960-520,LOMBA LGF,-31.157409310924614,39.398800536758614
pt.ine.add.AC25.660,ESTR REGIONAL,2,9960-520,LOMBA LGF,-31.158447625669176,39.39817728380793
pt.ine.add.AC25.661,R CABO BAIXO CASAS,10,9960-630,MOSTEIRO LGF,-31.25178606297234,39.41370014406482
pt.ine.add.AC25.662,R CABO BAIXO CASAS,6,9960-630,MOSTEIRO LGF,-31.25152531168312,39.41344394718837
pt.ine.add.AC25.663,R CABO BAIXO CASAS,2,9960-630,MOSTEIRO LGF,-31.251343587905417,39.413279036919334
pt.ine.add.AC25.664,R DIREITA,,9960-630,MOSTEIRO LGF,-31.25094080821606,39.41312882189918
pt.ine.add.AC25.665,R ENG PINELO,5,9960-630,MOSTEIRO LGF,-31.250493838567465,39.412887841822595
pt.ine.add.AC25.666,R BOA VISTA,8,9960-630,MOSTEIRO LGF,-31.249136605577842,39.41235385336516
pt.ine.add.AC25.667,R BOA VISTA,6,9960-630,MOSTEIRO LGF,-31.248886127542715,39.41215186463644
pt.ine.add.AC25.668,R OUTEIRO,5,9960-630,MOSTEIRO LGF,-31.250636351997695,39.41369186602695
pt.ine.add.AC25.669,R OUTEIRO,3,9960-630,MOSTEIRO LGF,-31.25017529167943,39.413549781595286
pt.ine.add.AC25.670,R ENG PINECO,4,9960-630,MOSTEIRO LGF,-31.24951255062844,39.41264782899253
pt.ine.add.AC25.671,R ENG PINECO,5,9960-630,MOSTEIRO LGF,-31.24967397527563,39.41269530799165
pt.ine.add.AC25.672,R ENG PINECO,6,9960-630,MOSTEIRO LGF,-31.249928737040786,39.41272617152778
pt.ine.add.AC25.701,R NSA SRA DO CARMO,,9960-060,FAJÃ GRANDE,-31.255443138138116,39.47150823736795
pt.ine.add.AC25.702,R NSA SRA DO CARMO,,9960-060,FAJÃ GRANDE,-31.255324868373446,39.467866496073235
pt.ine.add.AC25.703,R NSA SRA DO CARMO,,9960-060,FAJÃ GRANDE,-31.255218713480765,39.4679279717167
pt.ine.add.AC25.704,R NSA SRA DO CARMO,,9960-060,FAJÃ GRANDE,-31.2552063385357,39.46842332609448
pt.ine.add.AC25.705,R NSA SRA DO CARMO,,9960-060,FAJÃ GRANDE,-31.255045151399393,39.468826348761574
pt.ine.add.AC25.706,R PIQUES,3,9960-330,LAJEDO,-31.242134299150017,39.38129919139898
pt.ine.add.AC25.707,R PIQUES,1,9960-330,LAJEDO,-31.241920201061767,39.3815031842363
pt.ine.add.AC25.708,R PROF SERPA,5,9960-330,LAJEDO,-31.240597219446826,39.383330217018
pt.ine.add.AC25.709,R PROF SERPA,,9960-330,LAJEDO,-31.240660295071514,39.383592458860726
pt.ine.add.AC25.710,R PROF SERPA,11,9960-330,LAJEDO,-31.24083950176511,39.38431596313354
pt.ine.add.AC25.711,,,9960-330,LAJEDO,-31.243522811112005,39.38102283790528
pt.ine.add.AC25.712,,,9960-330,LAJEDO,-31.24474177399362,39.37963568762526
pt.ine.add.AC25.713,R JOÃO GERMANO DE DEUS,4,9960-410,LAJES DAS FLORES,-31.18156349463287,39.37958423801493
pt.ine.add.AC25.714,ER 1,,9960-434,LAJES DAS FLORES,-31.185611161341416,39.38422445858614
pt.ine.add.AC25.715,LAD JOSE VIEIRA NOIA,10,9960-441,LAJES DAS FLORES,-31.18125458377941,39.3807506920586
pt.ine.add.AC25.716,R DIREITA,10,9960-630,MOSTEIRO LGF,-31.250948142025248,39.41330012016827
pt.ine.add.AC25.717,R LARGO JOSÉ FREITAS SILVA,1,9960-630,MOSTEIRO LGF,-31.251098408480292,39.41332940960659
pt.ine.add.AC25.718,R OUTEIRO,8,9960-630,MOSTEIRO LGF,-31.250689775360144,39.41341336291802
pt.ine.add.AC25.719,R OUTEIRO,,9960-630,MOSTEIRO LGF,-31.25046646585406,39.413518122568114
pt.ine.add.AC25.720,R OUTEIRO,,9960-630,MOSTEIRO LGF,-31.25037583022847,39.4134266601616
pt.ine.add.AC25.721,R CABO CIMA DAS CASAS,,9960-600,MOSTEIRO LGF,-31.248262193192293,39.41155682558992
pt.ine.add.AC25.761,R NSA SRA DO CARMO,,9960-060,FAJÃ GRANDE,-31.254600659702298,39.46893680401689
pt.ine.add.AC25.762,R NSA SRA DO CARMO,,9960-060,FAJÃ GRANDE,-31.2548500018942,39.46919282208672
pt.ine.add.AC25.763,R NSA SRA DO CARMO,,9960-060,FAJÃ GRANDE,-31.254859146521493,39.46929206735668
pt.ine.add.AC25.764,R NSA SRA DO CARMO,,9960-060,FAJÃ GRANDE,-31.255052395435577,39.47086267624045
pt.ine.add.AC25.765,R NSA SRA DO CARMO,,9960-040,FAJÃ GRANDE,-31.255568939905828,39.47159121344639
pt.ine.add.AC25.766,R NSA SRA DO CARMO,,9960-040,FAJÃ GRANDE,-31.25563424205084,39.47130387919062
pt.ine.add.AC25.767,R NSA SRA DO CARMO,,9960-040,FAJÃ GRANDE,-31.255619999744173,39.47094327284239
pt.ine.add.AC25.768,R NSA SRA DO CARMO,,9960-040,FAJÃ GRANDE,-31.25506117196229,39.47051142513564
pt.ine.add.AC25.769,R NSA SRA DO CARMO,13,9960-040,FAJÃ GRANDE,-31.25530259465586,39.468758133980316
pt.ine.add.AC25.770,R NSA SRA DO CARMO,,9960-040,FAJÃ GRANDE,-31.255849792332214,39.46779328395421
pt.ine.add.AC25.771,R NSA SRA DO CARMO,,9960-040,FAJÃ GRANDE,-31.255988707067495,39.47107494200508
pt.ine.add.AC25.772,R NSA SRA DO CARMO,,9960-040,FAJÃ GRANDE,-31.25593930087657,39.47119132844388
pt.ine.add.AC25.773,R NSA SRA DO CARMO,,9960-040,FAJÃ GRANDE,-31.25622704197676,39.47177227299087
pt.ine.add.AC25.774,R AREAL,3,9960-040,FAJÃ GRANDE,-31.255428380007924,39.47023763179392
pt.ine.add.AC25.775,CAM MUNICIPAL,8,9960-030,FAJÃ GRANDE,-31.257384588852098,39.45752707374867
pt.ine.add.AC25.776,R PADRE JOSE LUIS FRAGA,,9960-040,FAJÃ GRANDE,-31.259773973710438,39.45492297805719
pt.ine.add.AC25.777,R PADRE JOSE LUIS FRAGA,21,9960-040,FAJÃ GRANDE,-31.259791423444387,39.454688983310135
pt.ine.add.AC25.778,LAD JOSE VIEIRA NOIA,4,9960-441,LAJES DAS FLORES,-31.180878632262512,39.38047451722835
pt.ine.add.AC25.779,R DIVINO ESPIRITO SANTO,6,9960-437,LAJES DAS FLORES,-31.184430913198746,39.38227793047326
pt.ine.add.AC25.780,R DIVINO ESPIRITO SANTO,,9960-437,LAJES DAS FLORES,-31.184430913198746,39.38227793047326
pt.ine.add.AC25.781,R DIVINO ESPIRITO SANTO,,9960-437,LAJES DAS FLORES,-31.184430913198746,39.38227793047326
pt.ine.add.AC25.782,LAD PINHEIROS,1,9960-474,LAJES DAS FLORES,-31.188247007436534,39.38466197724843
pt.ine.add.AC25.783,LAD PINHEIROS,3,9960-474,LAJES DAS FLORES,-31.188088720096854,39.3844973340256
pt.ine.add.AC25.784,R TRAVESSA,,9960-474,LAJES DAS FLORES,-31.188147463575934,39.38177726666025
pt.ine.add.AC25.785,R LOPO VAZ,1,9960-474,LAJES DAS FLORES,-31.188915274949725,39.38171714451923
pt.ine.add.AC25.786,R ASSUMADA,,9960-474,LAJES DAS FLORES,-31.189027835478772,39.38185404513474
pt.ine.add.AC25.787,R LAVRADOR,,9960-474,LAJES DAS FLORES,-31.188967189822023,39.385547149901214
pt.ine.add.AC25.831,R PADRE JOSE LUIS FRAGA,19,9960-040,FAJÃ GRANDE,-31.260073615323048,39.45455805890283
pt.ine.add.AC25.832,R PADRE JOSE LUIS FRAGA,17,9960-040,FAJÃ GRANDE,-31.260130134568875,39.45462197358535
pt.ine.add.AC25.833,R PADRE JOSE LUIS FRAGA,15,9960-040,FAJÃ GRANDE,-31.260598882956042,39.45446680987106
pt.ine.add.AC25.834,R PADRE JOSE LUIS FRAGA,11,9960-040,FAJÃ GRANDE,-31.260868558065567,39.45437173563709
pt.ine.add.AC25.917,R LAVRADOR,10,9960-476,LAJES DAS FLORES,-31.186037526657216,39.38255527189592
pt.ine.add.AC25.835,R PADRE JOSE LUIS FRAGA,5,9960-040,FAJÃ GRANDE,-31.261369467368315,39.45432516797845
pt.ine.add.AC25.836,CAM BAIXO,3,9960-030,FAJÃ GRANDE,-31.26154799140511,39.454156650329665
pt.ine.add.AC25.837,CAM BAIXO,8,9960-030,FAJÃ GRANDE,-31.26158732596151,39.45397704153383
pt.ine.add.AC25.838,CAM BAIXO,6,9960-030,FAJÃ GRANDE,-31.261763608161104,39.45389858847807
pt.ine.add.AC25.839,CAM BAIXO,4,9960-030,FAJÃ GRANDE,-31.261779482599824,39.453727638719926
pt.ine.add.AC25.840,R PADRE JOSE LUIS FRAGA,1,9960-040,FAJÃ GRANDE,-31.261750006535063,39.4535109617346
pt.ine.add.AC25.841,R SENADOR ANDRE DE FREITAS,12,9960-030,FAJÃ GRANDE,-31.262320138469793,39.453951956524485
pt.ine.add.AC25.842,R SENADOR ANDRE DE FREITAS,22,9960-030,FAJÃ GRANDE,-31.262757107813787,39.45460719527173
pt.ine.add.AC25.843,R SENADOR ANDRE DE FREITAS,24,9960-030,FAJÃ GRANDE,-31.262823903982042,39.454725321290304
pt.ine.add.AC25.844,R TRONQUEIRA,2,9960-030,FAJÃ GRANDE,-31.262509102227646,39.45476566664272
pt.ine.add.AC25.845,R TRONQUEIRA,6,9960-030,FAJÃ GRANDE,-31.26225485328455,39.45470780787113
pt.ine.add.AC25.846,R MONTE,1,9960-474,LAJES DAS FLORES,-31.18751258235876,39.384776674154665
pt.ine.add.AC25.847,R MONTE,1,9960-474,LAJES DAS FLORES,-31.187601700163302,39.38492222069361
pt.ine.add.AC25.848,LAD ANEL,34,9960-446,LAJES DAS FLORES,-31.172249724428053,39.383699933204774
pt.ine.add.AC25.849,R DR JOSÉ RODRIGUES FARIA,,9960-441,LAJES DAS FLORES,-31.170685253961814,39.383143758611354
pt.ine.add.AC25.850,LAD ANEL,32,9960-446,LAJES DAS FLORES,-31.1720000439987,39.38347977310501
pt.ine.add.AC25.851,URB CAMINHO DE CIMA,,9960-441,LAJES DAS FLORES,-31.17331451448367,39.38338329449459
pt.ine.add.AC25.852,LAD ANEL,36,9960-446,LAJES DAS FLORES,-31.172178120794737,39.38332940384995
pt.ine.add.AC25.853,R DR JOSE RODRIGUES FARIA,8,9960-441,LAJES DAS FLORES,-31.172875291478963,39.382862834166104
pt.ine.add.AC25.854,R DR JOSE RODRIGUES FARIA,16,9960-441,LAJES DAS FLORES,-31.173650872375433,39.38250560966747
pt.ine.add.AC25.855,R DR JOSE RODRIGUES FARIA,14,9960-441,LAJES DAS FLORES,-31.173892236187484,39.38259949763765
pt.ine.add.AC25.856,R MAURÍCIO ANTÓNIO FRAGA,,9960-441,LAJES DAS FLORES,-31.17724276414347,39.38144472623272
pt.ine.add.AC25.857,R DR JOSE RODRIGUES FARIA,,9960-441,LAJES DAS FLORES,-31.17615199380999,39.382761089046724
pt.ine.add.AC25.858,R DR JOSE RODRIGUES FARIA,,9960-441,LAJES DAS FLORES,-31.17313916155715,39.38298410679416
pt.ine.add.AC25.859,R DR JOSE RODRIGUES FARIA,18,9960-441,LAJES DAS FLORES,-31.17350432935775,39.38278261445084
pt.ine.add.AC25.899,R TRONQUEIRA,10,9960-030,FAJÃ GRANDE,-31.261761526660187,39.45491666989904
pt.ine.add.AC25.900,R TRONQUEIRA,12,9960-030,FAJÃ GRANDE,-31.261676168423527,39.45507757095142
pt.ine.add.AC25.901,R TRONQUEIRA,18,9960-030,FAJÃ GRANDE,-31.261474182301733,39.45525474778404
pt.ine.add.AC25.902,R TRONQUEIRA,22,9960-030,FAJÃ GRANDE,-31.261552594805167,39.4553730482051
pt.ine.add.AC25.903,R TRONQUEIRA,26,9960-030,FAJÃ GRANDE,-31.26115848098539,39.45533111537435
pt.ine.add.AC25.904,CAM MUNICIPAL,2,9960-030,FAJÃ GRANDE,-31.258636391715772,39.458131468585336
pt.ine.add.AC25.905,ESTR MUNICIPAL,2,9960-030,FAJÃ GRANDE,-31.262432280888227,39.457854894915094
pt.ine.add.AC25.906,R TRONQUEIRA,43,9960-030,FAJÃ GRANDE,-31.26109418931186,39.4574474667359
pt.ine.add.AC25.907,R TRONQUEIRA,41,9960-030,FAJÃ GRANDE,-31.26127608420798,39.457143852448326
pt.ine.add.AC25.908,R TRONQUEIRA,37,9960-030,FAJÃ GRANDE,-31.261449048542936,39.45673198620946
pt.ine.add.AC25.909,R TRONQUEIRA,23,9960-030,FAJÃ GRANDE,-31.261765494070108,39.45569157581535
pt.ine.add.AC25.910,R TRONQUEIRA,3,9960-030,FAJÃ GRANDE,-31.262598909927902,39.45489314650688
pt.ine.add.AC25.911,R TRONQUEIRA,1,9960-030,FAJÃ GRANDE,-31.262831715362502,39.45487860538039
pt.ine.add.AC25.912,R VIA D ÁGUA,2,9960-030,FAJÃ GRANDE,-31.263014243115926,39.455016480061055
pt.ine.add.AC25.913,R VIA D ÁGUA,8,9960-030,FAJÃ GRANDE,-31.26307902515792,39.45521566445205
pt.ine.add.AC25.914,R VIA D ÁGUA,14,9960-030,FAJÃ GRANDE,-31.26326869505202,39.45553384233901
pt.ine.add.AC25.915,LAD PINHEIROS,6,9960-476,LAJES DAS FLORES,-31.187935282843938,39.38459405247197
pt.ine.add.AC25.916,R PEIXOTO PIMENTEL,,9960-431,LAJES DAS FLORES,-31.18581096002438,39.382785995264484
pt.ine.add.AC25.918,R LAVRADOR,6,9960-476,LAJES DAS FLORES,-31.186745405568143,39.38301680228802
pt.ine.add.AC25.919,LAD PINHEIROS,,9960-476,LAJES DAS FLORES,-31.187270168555692,39.38337636630868
pt.ine.add.AC25.920,R LAVRADOR,2,9960-476,LAJES DAS FLORES,-31.186438067391926,39.383228248010425
pt.ine.add.AC25.921,R LAVRADOR,,9960-476,LAJES DAS FLORES,-31.186602875927793,39.383140718659355
pt.ine.add.AC25.922,R DR JOSE RODRIGUES FARIA,17,9960-441,LAJES DAS FLORES,-31.171557774457643,39.3830763881699
pt.ine.add.AC25.923,R DR JOSE RODRIGUES FARIA,19,9960-441,LAJES DAS FLORES,-31.170759824985083,39.38295572428976
pt.ine.add.AC25.924,R PADRE LUIS PIMENTEL GOMES,6,9960-431,LAJES DAS FLORES,-31.1724591485555,39.38056779191152
pt.ine.add.AC25.925,R LOMBO,7,9960-480,LAJES DAS FLORES,-31.174278784532444,39.38068646429206
pt.ine.add.AC25.926,R LOMBO,,9960-480,LAJES DAS FLORES,-31.174311487283177,39.38076806634984
pt.ine.add.AC25.927,R LOMBO,11,9960-480,LAJES DAS FLORES,-31.17435462167668,39.380894881443574
pt.ine.add.AC25.928,R DR JOSE RODRIGUES FARIA,13,9960-441,LAJES DAS FLORES,-31.172366065460526,39.38280077523007
pt.ine.add.AC25.929,R PADRE LUIS PIMENTEL GOMES,19,9960-431,LAJES DAS FLORES,-31.170669017356214,39.38243172442652
pt.ine.add.AC25.930,R BALEEIROS,,9960-445,LAJES DAS FLORES,-31.170921784694976,39.37897591230564
pt.ine.add.AC25.969,R CAMBADA,1,9960-030,FAJÃ GRANDE,-31.263400881695762,39.457229667480085
pt.ine.add.AC25.970,R CAMBADA,7,9960-030,FAJÃ GRANDE,-31.262887438556564,39.45731209584255
pt.ine.add.AC25.971,R TRONQUEIRA,31,9960-030,FAJÃ GRANDE,-31.26197884329721,39.45599209007287
pt.ine.add.AC25.972,R TRONQUEIRA,,9960-030,FAJÃ GRANDE,-31.261883210324722,39.45609877859401
pt.ine.add.AC25.973,R VIA D ÁGUA,4,9960-030,FAJÃ GRANDE,-31.262690930741662,39.45539907286906
pt.ine.add.AC25.974,R VIA D ÁGUA,,9960-030,FAJÃ GRANDE,-31.263155578515413,39.45681155052319
pt.ine.add.AC25.975,R VIA D ÁGUA,17,9960-030,FAJÃ GRANDE,-31.263857632133753,39.45568679547454
pt.ine.add.AC25.976,R VIA D ÁGUA,15,9960-030,FAJÃ GRANDE,-31.26379016195695,39.45559568952125
pt.ine.add.AC25.977,R VIA D ÁGUA,11,9960-030,FAJÃ GRANDE,-31.263503293171855,39.45544724789568
pt.ine.add.AC25.978,R VIA D ÁGUA,9,9960-030,FAJÃ GRANDE,-31.263208165652426,39.45516353451559
pt.ine.add.AC25.979,R VIA D ÁGUA,1,9960-030,FAJÃ GRANDE,-31.263076138594922,39.454864237343564
pt.ine.add.AC25.980,R SENADOR ANDRE DE FREITAS,27,9960-030,FAJÃ GRANDE,-31.2630689983151,39.45468393375236
pt.ine.add.AC25.981,R SENADOR ANDRE DE FREITAS,2S,9960-030,FAJÃ GRANDE,-31.26296555715005,39.454637339180366
pt.ine.add.AC25.982,R MARQUINHAS DO CARMO,8,9960-030,FAJÃ GRANDE,-31.264054983761906,39.45382470384632
pt.ine.add.AC25.983,CAM MUNICIPAL,,9960-030,FAJÃ GRANDE,-31.26405069815585,39.4549328511211
pt.ine.add.AC25.984,R PADRE JOSE LUIS DE FRAGA,18,9960-040,FAJÃ GRANDE,-31.257570623366494,39.45472780192062
pt.ine.add.AC25.985,R ASSUMADA,18,9960-010,FAJÃ GRANDE,-31.26102089600919,39.45198640484522
pt.ine.add.AC25.986,R BALEEIROS,18,9960-445,LAJES DAS FLORES,-31.17148577450349,39.37827299967743
pt.ine.add.AC25.987,R BALEEIROS,36,9960-445,LAJES DAS FLORES,-31.171671594187973,39.37782542710073
pt.ine.add.AC25.988,R DR JOSE DE FREITAS PIMENTEL,,9960-439,LAJES DAS FLORES,-31.17132532416172,39.381306801483476
pt.ine.add.AC25.989,R DR JOSE DE FREITAS PIMENTEL,,9960-439,LAJES DAS FLORES,-31.170811878296206,39.38140684697802
pt.ine.add.AC25.990,CAM PESCADOR,,9960-445,LAJES DAS FLORES,-31.173353546267425,39.377878880280676
pt.ine.add.AC25.991,CAM PESCADOR,,9960-445,LAJES DAS FLORES,-31.173636985215825,39.377694123488226
pt.ine.add.AC25.992,R DR JOSE DE FREITAS PIMENTEL,1,9960-439,LAJES DAS FLORES,-31.17355407678792,39.37864786777744
pt.ine.add.AC25.993,R LAVRADOR,51N,9960-474,LAJES DAS FLORES,-31.18575392257401,39.38229857249088
pt.ine.add.AC25.994,R PEIXOTO PIMENTEL,21,9960-431,LAJES DAS FLORES,-31.185122049208854,39.38114446161994
pt.ine.add.AC25.995,R PADRE JOÃO FRAGA VIEIRA,,9960-476,LAJES DAS FLORES,-31.187141628432677,39.380716449689864
pt.ine.add.AC25.996,R PADRE JOÃO FRAGA VIEIRA,14,9960-476,LAJES DAS FLORES,-31.18715598280114,39.381059048744596
pt.ine.add.AC25.997,R TRAVESSA,2,9960-476,LAJES DAS FLORES,-31.187855001934256,39.381862809684016
pt.ine.add.AC25.1026,R NSA SRA DO CARMO,,9960-060,FAJÃ GRANDE,-31.25479766946711,39.469426291777054
pt.ine.add.AC25.1027,R TRONQUEIRA,32,9960-030,FAJÃ GRANDE,-31.261466976535246,39.456011466890764
pt.ine.add.AC25.1028,R VIA D ÁGUA,30,9960-030,FAJÃ GRANDE,-31.263656300765998,39.45630546828685
pt.ine.add.AC25.1029,R SENADOR ANDRE DE FREITAS,,9960-030,FAJÃ GRANDE,-31.262769647090472,39.45410283122381
pt.ine.add.AC25.1030,R ASSUMADA,,9960-010,FAJÃ GRANDE,-31.26157024078797,39.452327984067715
pt.ine.add.AC25.1031,R PICO REDONDO,8,9960-110,FAJÃZINHA,-31.253097929356567,39.436055346534346
pt.ine.add.AC25.1032,R ENGENHO,1,9960-110,FAJÃZINHA,-31.253646479844686,39.433630922316496
pt.ine.add.AC25.1033,R ROSSIO,3,9960-150,FAJÃZINHA,-31.254329629133718,39.432794252098454
pt.ine.add.AC25.1034,TV S JOSE,1,9960-150,FAJÃZINHA,-31.25476002734945,39.432773682776336
pt.ine.add.AC25.1035,R PADRE FRANCISCO CRISTIANO KORTH,13,9960-220,FAZENDA,-31.165446047933788,39.38990873176643
pt.ine.add.AC25.1036,R MANUEL FREITAS DIAS,8,9960-220,FAZENDA,-31.168187685747196,39.387636410051165
pt.ine.add.AC25.1037,R CALHAU GRANDE,,9960-360,LAJEDO,-31.24880178439758,39.393238801423706
pt.ine.add.AC25.1038,R CABASTIAO,2,9960-330,LAJEDO,-31.242752572686346,39.38627300268033
pt.ine.add.AC25.1039,R OUTEIROS,2,9960-330,LAJEDO,-31.243971228934996,39.38166030317428
pt.ine.add.AC25.1040,R ASSUMADA,,9960-474,LAJES DAS FLORES,-31.189723657045555,39.38233338957452
pt.ine.add.AC25.1041,R DR JOSE DE FREITAS PIMENTEL,7,9960-439,LAJES DAS FLORES,-31.173471535340727,39.379142114431225
pt.ine.add.AC25.1042,R PEIXOTO PIMENTEL,,9960-431,LAJES DAS FLORES,-31.184043138137774,39.3802176261411
pt.ine.add.AC25.1043,R PADRE FRANCISCO DE FREITAS TOMAS,10,9960-476,LAJES DAS FLORES,-31.18387940365419,39.37936814160752
pt.ine.add.AC25.1044,AV EMIGRANTE,16,9960-431,LAJES DAS FLORES,-31.18283791942081,39.37834277068849
pt.ine.add.AC25.1045,R PADRE JOÃO FRAGA VIEIRA,,9960-476,LAJES DAS FLORES,-31.185608761302575,39.379386118370476
pt.ine.add.AC25.1046,AV PEIXOTO PIMENTEL,1,9960-431,LAJES DAS FLORES,-31.179266315752233,39.37684534283297
pt.ine.add.AC25.1047,R AUTONOMIA,15,9960-430,LAJES DAS FLORES,-31.172981399349162,39.37745858198757
pt.ine.add.AC25.1048,LG ADAO PINHEIRO DA SILVA,,9960-484,LAJES DAS FLORES,-31.177347856922978,39.37785143494643
pt.ine.add.AC25.1049,AV EMIGRANTE,6,9960-431,LAJES DAS FLORES,-31.177344202659295,39.37665306457264
pt.ine.add.AC25.1050,R S CATARINA,9,9960-520,LOMBA LGF,-31.154966041039142,39.402059397804656
pt.ine.add.AC25.1051,R OUTEIRO,6,9960-520,LOMBA LGF,-31.157607307443303,39.402749974784435
pt.ine.add.AC25.1052,R ADRO,1,9960-520,LOMBA LGF,-31.156759916307657,39.401412104936206
pt.ine.add.AC25.1053,R QUARTEIRO,9,9960-550,LOMBA LGF,-31.157042063458597,39.401722909944276
pt.ine.add.AC25.1084,R LADEIRA,15,9960-120,FAJÃZINHA,-31.254947572584562,39.43177640172592
pt.ine.add.AC25.1085,R EIRINHA VELHA,11,9960-220,FAZENDA,-31.165863752095802,39.39302371456096
pt.ine.add.AC25.1086,R EIRINHA VELHA,11,9960-220,FAZENDA,-31.166359079991548,39.393175681719484
pt.ine.add.AC25.1087,R SENADOR MACHADO SERPA,7,9960-220,FAZENDA,-31.164934269667555,39.39082867257424
pt.ine.add.AC25.1088,R DR JOSE FRESTAS PIMENTEL,2,9960-220,FAZENDA,-31.167912264127843,39.38795642686233
pt.ine.add.AC25.1089,R PROF MARIA DE FREITASVIEIRA,17,9960-220,FAZENDA,-31.167373605189287,39.38591171531084
pt.ine.add.AC25.1090,ESTR REGIONAL,21,9960-220,FAZENDA,-31.1675045679583,39.38578764065488
pt.ine.add.AC25.1091,CAM PESCADOR,26,9960-445,LAJES DAS FLORES,-31.171890905157266,39.37787392320379
pt.ine.add.AC25.1092,R PADRE LUIS PIMENTEL GOMES,,9960-431,LAJES DAS FLORES,-31.174085413637506,39.379196801235494
pt.ine.add.AC25.1093,AV PEIXOTO PIMENTEL,,9960-431,LAJES DAS FLORES,-31.18042853836299,39.37724194277741
pt.ine.add.AC25.1094,R NSA SRA DO ROSÁRIO,3,9960-440,LAJES DAS FLORES,-31.174351900574763,39.37743504964032
pt.ine.add.AC25.1095,R TERRA CHA,12,9960-520,LOMBA LGF,-31.156745109321687,39.40594380764144
pt.ine.add.AC25.1130,R CAMBADA,5,9960-030,FAJÃ GRANDE,-31.26297501092951,39.45752964041882
pt.ine.add.AC25.1131,CAM MUNICIPAL,,9960-030,FAJÃ GRANDE,-31.264097600162728,39.45538404370917
pt.ine.add.AC25.1132,R ASSUMADA,,9960-010,FAJÃ GRANDE,-31.26125436422048,39.45194484717288
pt.ine.add.AC25.1133,R OUTEIRO,8,9960-130,FAJÃZINHA,-31.255117899975488,39.4337971684443
pt.ine.add.AC25.1134,R CANTO,6,9960-110,FAJÃZINHA,-31.250980978263716,39.43475313414093
pt.ine.add.AC25.1135,R NSA SRA DO CARMO,,9960-040,FAJÃ GRANDE,-31.25579295765713,39.470999926781126
pt.ine.add.AC25.1136,R TRONQUEIRA,14,9960-030,FAJÃ GRANDE,-31.261650243833518,39.4551853014848
pt.ine.add.AC25.1137,R TRONQUEIRA,9,9960-030,FAJÃ GRANDE,-31.2622170878863,39.45482437141787
pt.ine.add.AC25.1138,R PADRE JOSE LUIS DE FRAGA,6,9960-040,FAJÃ GRANDE,-31.261487696159456,39.45377733525903
pt.ine.add.AC25.1139,R MARQUINHAS CARMO,7,9960-030,FAJÃ GRANDE,-31.263229454979996,39.45383940506138
pt.ine.add.AC25.1140,R MARQUINHAS DO CARMO,,9960-030,FAJÃ GRANDE,-31.264156890894668,39.452997319188235
pt.ine.add.AC25.1141,R CANADA COMPRIDA,1,9960-110,FAJÃZINHA,-31.254396161093563,39.434317918546455
pt.ine.add.AC25.1142,R CANADA PEQUENA,4,9960-110,FAJÃZINHA,-31.254702406892218,39.434151327858004
pt.ine.add.AC25.1143,R EIRINHA VELHA,10,9960-220,FAZENDA,-31.16559745196509,39.39255100332881
pt.ine.add.AC25.1158,R DR JOSE DE FREITAS PIMENTEL,11,9960-220,FAZENDA,-31.16648169429922,39.38849249606605
pt.ine.add.AC25.1159,R DR JOSE DE FREITAS PIMENTEL,11,9960-220,FAZENDA,-31.16648169429922,39.38849249606605
pt.ine.add.AC25.1160,R OUTEIROS,,9960-330,LAJEDO,-31.24323208340875,39.38150498396589
pt.ine.add.AC25.1161,AV PEIXOTO PIMENTEL,44,9960-431,LAJES DAS FLORES,-31.185598214126678,39.38382782227876
pt.ine.add.AC25.1162,R PEIXOTO PIMENTEL,31,9960-431,LAJES DAS FLORES,-31.186151785183654,39.38397160372283
pt.ine.add.AC25.1163,CAM PESCADOR,,9960-445,LAJES DAS FLORES,-31.17225816360929,39.37759137848729
pt.ine.add.AC25.1164,R DR JOSE DE FREITAS PIMENTEL,9,9960-439,LAJES DAS FLORES,-31.172618610768737,39.379795448753214
pt.ine.add.AC25.1165,R ROBERTO MESQUITA,2,9960-444,LAJES DAS FLORES,-31.177259954402402,39.37855282760398
pt.ine.add.AC25.1166,R DR JOSE DE FREITAS PIMENTEL,18,9960-439,LAJES DAS FLORES,-31.177363693630532,39.3785814826927
pt.ine.add.AC25.1167,R ROBERTO MESQUITA,,9960-444,LAJES DAS FLORES,-31.17701859953982,39.3784589467814
pt.ine.add.AC25.1168,CAM FAJA DE LOPO VAZ,,9960-446,LAJES DAS FLORES,-31.208760216204254,39.37522194837337
pt.ine.add.AC25.1169,R CANADA DA SENHORA,4,9960-520,LOMBA LGF,-31.1564962196601,39.402164750272384
pt.ine.add.AC25.1170,R PORTO,26,9960-520,LOMBA LGF,-31.15358071287863,39.40394749371971
pt.ine.add.AC25.1179,R GROTA,11,9960-520,LOMBA LGF,-31.158956734757293,39.40133878176704
pt.ine.add.AC25.1180,R GROTA,,9960-520,LOMBA LGF,-31.159470086937155,39.399923354593696
pt.ine.add.AC25.1195,R NSA SRA DO CARMO,,9960-060,FAJÃ GRANDE,-31.254438932140765,39.46982634779635
pt.ine.add.AC25.1196,ESTR MUNICIPAL,4,9960-030,FAJÃ GRANDE,-31.25822570645215,39.45828749393745
pt.ine.add.AC25.1197,R COURELAS,11,9960-020,FAJÃ GRANDE,-31.262919831475614,39.45320409032895
pt.ine.add.AC25.1198,R ROCAS,2,9960-140,FAJÃZINHA,-31.25322327548695,39.43336327978879
pt.ine.add.AC25.1199,R EIRINHA VELHA,7,9960-220,FAZENDA,-31.165648409231043,39.39282210217079
pt.ine.add.AC25.1200,R BARREIRA VERMELHA,3,9960-220,FAZENDA,-31.164444000775372,39.394028439476536
pt.ine.add.AC25.1201,R SENADOR MACHADO SERPA,3,9960-220,FAZENDA,-31.165148852049512,39.39061582155468
pt.ine.add.AC25.1202,R SENADOR MACHADO SERPA,12,9960-220,FAZENDA,-31.164449231988634,39.39161388528522
pt.ine.add.AC25.1203,TV SENADOR ANDRE DE FREITAS,1,9960-220,FAZENDA,-31.165547250876095,39.39047794804182
pt.ine.add.AC25.1204,R DR JOSE DE FREITAS PIMENTEL,9,9960-220,FAZENDA,-31.166635404583648,39.388386800750894
pt.ine.add.AC25.1205,ESTR REGIONAL,19,9960-220,FAZENDA,-31.168460585495176,39.38474854501171
pt.ine.add.AC25.1206,R GROTA,3,9960-360,LAJEDO,-31.24888459554622,39.39224895690935
pt.ine.add.AC25.1207,LAD JOSE VIEIRA NOIA,8,9960-441,LAJES DAS FLORES,-31.18131354430414,39.38071557441322
pt.ine.add.AC25.1208,R DR JOSE DE FREITAS PIMENTEL,15,9960-439,LAJES DAS FLORES,-31.17099834913017,39.38182423268925
pt.ine.add.AC25.1209,R DR JOSE DE FREITAS PIMENTEL,5,9960-439,LAJES DAS FLORES,-31.173209792300202,39.37893978719655
pt.ine.add.AC25.1210,R LAVRADOR,3,9960-474,LAJES DAS FLORES,-31.186940650025345,39.38265044076742
pt.ine.add.AC25.1211,R PADRE JOÃO FRAGA VIEIRA,32,9960-476,LAJES DAS FLORES,-31.1849713659509,39.37979062916012
pt.ine.add.AC25.1212,R PADRE JOÃO FRAGA VIEIRA,28,9960-476,LAJES DAS FLORES,-31.185087415266338,39.379792439830915
pt.ine.add.AC25.1213,R PADRE JOÃO FRAGA VIEIRA,23,9960-476,LAJES DAS FLORES,-31.185841325096657,39.37937172581127
pt.ine.add.AC25.1214,AV PEIXOTO PIMENTEL,5,9960-431,LAJES DAS FLORES,-31.179656654010238,39.37701362946155
pt.ine.add.AC25.1215,LG ADAO PINHEIRO DA SILVA,,9960-484,LAJES DAS FLORES,-31.177121278135363,39.378082141250566
pt.ine.add.AC25.1216,R NSA SRA DO ROSÁRIO,,9960-440,LAJES DAS FLORES,-31.174350129035826,39.37794858439857
pt.ine.add.AC25.1217,R TERRA CHA,37,9960-580,LOMBA LGF,-31.157044337047406,39.406047657579336
pt.ine.add.AC25.1218,R CANADA DA SENHORA,6,9960-520,LOMBA LGF,-31.156504033435613,39.402309031205895
pt.ine.add.AC25.1219,R QUARTEIRO,2,9960-550,LOMBA LGF,-31.157035652498262,39.40240755455447
pt.ine.add.AC25.1220,R QUARTEIRO,6,9960-550,LOMBA LGF,-31.157388174446044,39.402250963301185
pt.ine.add.AC25.1249,R VIA D ÁGUA,16,9960-030,FAJÃ GRANDE,-31.263418833570903,39.45557212427915
pt.ine.add.AC25.1250,R ASSUMADA,6,9960-010,FAJÃ GRANDE,-31.260362864183843,39.45040884762919
pt.ine.add.AC25.1251,R COURELAS,15,9960-020,FAJÃ GRANDE,-31.26306237684084,39.45308008199224
pt.ine.add.AC25.1252,R TENDA,14,9960-110,FAJÃZINHA,-31.251903605928142,39.435028293667315
pt.ine.add.AC25.1253,R PEDREIRA,,9960-110,FAJÃZINHA,-31.251004857053253,39.433798447728805
pt.ine.add.AC25.1254,R ROCAS,1,9960-140,FAJÃZINHA,-31.252987165473606,39.433512900571245
pt.ine.add.AC25.1255,R MADEIRA,1,9960-220,FAZENDA,-31.16420430968289,39.3916550691304
pt.ine.add.AC25.1256,R TABULEIRO,1,9960-220,FAZENDA,-31.16401320801007,39.392300761244705
pt.ine.add.AC25.1257,R MANUEL FREITAS DIAS,2,9960-220,FAZENDA,-31.168894855301854,39.38856654929005
pt.ine.add.AC25.1270,R PROF FRANCISCO RODRIGUES VIEIRA,6,9960-220,FAZENDA,-31.16775248125016,39.38696282662792
pt.ine.add.AC25.1271,R CABASTIAO,6,9960-330,LAJEDO,-31.242554648690675,39.38536902011691
pt.ine.add.AC25.1272,R OUTEIROS,,9960-360,LAJEDO,-31.240127154496548,39.3761602117136
pt.ine.add.AC25.1273,ER 1 2A,35,9960-431,LAJES DAS FLORES,-31.18754064174766,39.38503839766509
pt.ine.add.AC25.1274,R BALEEIROS,,9960-445,LAJES DAS FLORES,-31.171283089898708,39.37847704041968
pt.ine.add.AC25.1275,CAM PESCADOR,24,9960-445,LAJES DAS FLORES,-31.17187554082684,39.378017839613044
pt.ine.add.AC25.1276,CAM PESCADOR,24,9960-445,LAJES DAS FLORES,-31.17187554082684,39.378017839613044
pt.ine.add.AC25.1277,R JOÃO AUGUSTO DA SILVEIRA,3,9960-400,LAJES DAS FLORES,-31.175152458918905,39.37968205853425
pt.ine.add.AC25.1278,R PADRE FRANCISCO DE FREITAS TOMAS,5,9960-476,LAJES DAS FLORES,-31.183708599558184,39.37923933654203
pt.ine.add.AC25.1279,R DR PADRE AMÉRICO CAETANO VIEIRA,,9960-443,LAJES DAS FLORES,-31.17813121729972,39.377638459538026
pt.ine.add.AC25.1280,CAM FAJA DE LOPO VAZ,,9960-446,LAJES DAS FLORES,-31.208474343968486,39.37550586316351
pt.ine.add.AC25.1292,R MARJAO,4,9960-530,LOMBA LGF,-31.15607526222674,39.40139224262158
pt.ine.add.AC25.1293,R CABO BAIXO CASAS,3,9960-630,MOSTEIRO LGF,-31.251213392177675,39.4133761881072
pt.ine.add.AC25.1307,R NSA SRA DO CARMO,,9960-060,FAJÃ GRANDE,-31.255656076591382,39.46763721064818
pt.ine.add.AC25.1308,R NSA SRA DO CARMO,11,9960-060,FAJÃ GRANDE,-31.255157608119333,39.468512692936876
pt.ine.add.AC25.1309,R NSA SRA DO CARMO,9,9960-040,FAJÃ GRANDE,-31.255509360594626,39.46839183415293
pt.ine.add.AC25.1310,R PORTO,,9960-030,FAJÃ GRANDE,-31.263803269016112,39.45740686397337
pt.ine.add.AC25.1311,R SENADOR ANDRE DE FREITAS,18,9960-030,FAJÃ GRANDE,-31.26259736936461,39.454487680422716
pt.ine.add.AC25.1312,R VIA D ÁGUA,28,9960-030,FAJÃ GRANDE,-31.263568951472404,39.456078917665025
pt.ine.add.AC25.1313,R VIA D ÁGUA,34,9960-030,FAJÃ GRANDE,-31.263567342714495,39.45707898633281
pt.ine.add.AC25.1314,R ASSUMADA,10,9960-010,FAJÃ GRANDE,-31.260258268400303,39.45087579481664
pt.ine.add.AC25.1315,R SENADOR ANDRE DE FREITAS,21,9960-030,FAJÃ GRANDE,-31.262912169818225,39.454447334800555
pt.ine.add.AC25.1316,R ASSUMADA,27,9960-010,FAJÃ GRANDE,-31.26189860307786,39.45314377944176
pt.ine.add.AC25.1317,R EIRINHA VELHA,18,9960-220,FAZENDA,-31.166110565216208,39.392910478347886
pt.ine.add.AC25.1318,R MANUEL FREITAS DIAS,4,9960-220,FAZENDA,-31.168957360279247,39.3883963461145
pt.ine.add.AC25.1319,R DR JOSE FREITAS,,9960-220,FAZENDA,-31.166849738424443,39.38818295234298
pt.ine.add.AC25.1320,R AVELINO LOPES,2,9960-360,LAJEDO,-31.24886668228161,39.39250096501542
pt.ine.add.AC25.1321,ESTR MUNICIPAL,2,9960-330,LAJEDO,-31.24125588340303,39.38530434106734
pt.ine.add.AC25.1322,R PEIXOTO PIMENTEL,27,9960-431,LAJES DAS FLORES,-31.1855361620307,39.38263755116135
pt.ine.add.AC25.1323,R PADRE JOÃO FRAGA VIEIRA,20,9960-476,LAJES DAS FLORES,-31.18649371093457,39.37973328358363
pt.ine.add.AC25.1324,R PADRE JOÃO FRAGA VIEIRA,,9960-476,LAJES DAS FLORES,-31.18537759701934,39.37934647302736
pt.ine.add.AC25.1325,R DR JOSE DE FREITAS PIMENTEL,15,9960-439,LAJES DAS FLORES,-31.17992823757899,39.379072130410705
pt.ine.add.AC25.1326,LG ADAO PINHEIRO DA SILVA,7,9960-484,LAJES DAS FLORES,-31.17763070927975,39.37813517250765
pt.ine.add.AC25.1327,LG ADAO PINHEIRO DA SILVA,5,9960-484,LAJES DAS FLORES,-31.177562955691254,39.378062032078844
pt.ine.add.AC25.1328,R CANADA DA SENHORA,10,9960-520,LOMBA LGF,-31.156788554226114,39.40252977625452
pt.ine.add.AC25.1329,R S CATARINA,5,9960-520,LOMBA LGF,-31.15537848627267,39.40227316573074
pt.ine.add.AC25.1330,R NOVA,13,9960-520,LOMBA LGF,-31.158264967313432,39.402913557811374
pt.ine.add.AC25.1331,R MARJAO,,9960-520,LOMBA LGF,-31.15613850754406,39.40163651038906
pt.ine.add.AC25.1332,R ENG PINELO,1,9960-630,MOSTEIRO LGF,-31.25023084306759,39.41272170724191
pt.ine.add.AC25.1363,R NSA SRA DO CARMO,,9960-040,FAJÃ GRANDE,-31.25502054133106,39.47027656005403
pt.ine.add.AC25.1364,R COURELAS,4,9960-020,FAJÃ GRANDE,-31.262574635624855,39.453532296951614
pt.ine.add.AC25.1365,R COURELAS,3,9960-020,FAJÃ GRANDE,-31.26208163253744,39.45232661918677
pt.ine.add.AC25.1366,ESTR REGIONAL,,9960-030,FAJÃ GRANDE,-31.256913541832397,39.44659107156919
pt.ine.add.AC25.1367,R FALCA,3,9960-110,FAJÃZINHA,-31.250302226780022,39.432625605089896
pt.ine.add.AC25.1368,R ENGENHO,4,9960-110,FAJÃZINHA,-31.253005132677185,39.43418891047396
pt.ine.add.AC25.1369,R PORTO,2,9960-110,FAJÃZINHA,-31.25188615541435,39.432937742633015
pt.ine.add.AC25.1370,CAM PEDRA ESCOLARTES,8,9960-110,FAJÃZINHA,-31.251800991252946,39.432161613772145
pt.ine.add.AC25.1371,R LADEIRA,11,9960-120,FAJÃZINHA,-31.254518079739782,39.431760945898006
pt.ine.add.AC25.1372,R ROSSIO,1,9960-150,FAJÃZINHA,-31.254124846582705,39.4326199902379
pt.ine.add.AC25.1373,ESTR REGIONAL,40,9960-220,FAZENDA,-31.16459060446272,39.393751448013504
pt.ine.add.AC25.1374,ESTR REGIONAL,45,9960-220,FAZENDA,-31.163799124797297,39.39293708031618
pt.ine.add.AC25.1375,R PADRE FRANCISCO CRISTIANO KORTH,1,9960-220,FAZENDA,-31.165836560208927,39.38918509292165
pt.ine.add.AC25.1376,ESTR REGIONAL,7,9960-220,FAZENDA,-31.169266082870276,39.384581028217035
pt.ine.add.AC25.1377,R DR JOSE DE FREITASPIMENTEL,3,9960-220,FAZENDA,-31.167204287761948,39.38794527356596
pt.ine.add.AC25.1378,R AVELINO LOPES,1,9960-360,LAJEDO,-31.24870305196743,39.392543551086604
pt.ine.add.AC25.1379,R IGREJA,8,9960-360,LAJEDO,-31.247325823929856,39.392360628590474
pt.ine.add.AC25.1380,R CÓNEGO FRANCISCO CAETANO TOMAS,1,9960-360,LAJEDO,-31.249856241155786,39.39239872940035
pt.ine.add.AC25.1381,R CABASTIAO,1,9960-330,LAJEDO,-31.24250438228948,39.385521429382734
pt.ine.add.AC25.1382,CAM CIMA,2078 57,9960-441,LAJES DAS FLORES,-31.173016434883536,39.382792972199894
pt.ine.add.AC25.1383,R LOMBO,,9960-480,LAJES DAS FLORES,-31.17406603539291,39.38038579940921
pt.ine.add.AC25.1384,R LOMBO,,9960-480,LAJES DAS FLORES,-31.174133787404553,39.38045894181476
pt.ine.add.AC25.1385,R BALEEIROS,8,9960-445,LAJES DAS FLORES,-31.170869404173374,39.3787588519233
pt.ine.add.AC25.1386,R PADRE FRANCISCO DE FREITAS TOMAS,,9960-476,LAJES DAS FLORES,-31.184132142793814,39.379471195852645
pt.ine.add.AC25.1387,R PADRE FRANCISCO DE FREITAS TOMAS,3,9960-476,LAJES DAS FLORES,-31.18334464637577,39.37939583101283
pt.ine.add.AC25.1388,R PORTO,20,9960-520,LOMBA LGF,-31.153976626335595,39.40346724856286
pt.ine.add.AC25.1389,R NOVA,8,9960-520,LOMBA LGF,-31.157880229154337,39.402529052349266
pt.ine.add.AC25.1390,R CABO BAIXO CASAS,8,9960-630,MOSTEIRO LGF,-31.251626434689367,39.41358061583646
pt.ine.add.AC25.1439,R NSA SRA DO CARMO,,9960-060,FAJÃ GRANDE,-31.25561342079459,39.46748340367291
pt.ine.add.AC25.1440,R NSA SRA DO CARMO,,9960-040,FAJÃ GRANDE,-31.2556421852176,39.47191666583051
pt.ine.add.AC25.1441,R PORTO,4,9960-030,FAJÃ GRANDE,-31.263059872211702,39.45832377428414
pt.ine.add.AC25.1442,R PADRE JOSE LUIS FRAGA,7,9960-040,FAJÃ GRANDE,-31.261034569100982,39.45423907100109
pt.ine.add.AC25.1443,ESTR MUNICIPAL,4,9960-030,FAJÃ GRANDE,-31.2619852136638,39.457604947073925
pt.ine.add.AC25.1444,R TRONQUEIRA,27,9960-030,FAJÃ GRANDE,-31.261608185864972,39.455941499534376
pt.ine.add.AC25.1445,R VIA D ÁGUA,3,9960-030,FAJÃ GRANDE,-31.26314204005141,39.45501838919785
pt.ine.add.AC25.1446,R ASSUMADA,42,9960-010,FAJÃ GRANDE,-31.26180342210566,39.4532324550345
pt.ine.add.AC25.1447,R MARQUINHAS DO CARMO,5,9960-030,FAJÃ GRANDE,-31.263476763231274,39.454176463305515
pt.ine.add.AC25.1448,R LADEIRA,9,9960-120,FAJÃZINHA,-31.254954916480546,39.43194769947947
pt.ine.add.AC25.1449,ESTR REGIONAL,34,9960-220,FAZENDA,-31.164345085686268,39.392486196154195
pt.ine.add.AC25.1450,ESTR REGIONAL,28,9960-220,FAZENDA,-31.165584996087993,39.391253389779415
pt.ine.add.AC25.1451,LAD ANEL,30,9960-446,LAJES DAS FLORES,-31.17192327131568,39.38330737926725
pt.ine.add.AC25.1452,CC ALÉM RIBEIRA,3,9960-400,LAJES DAS FLORES,-31.1751374596022,39.379366477860756
pt.ine.add.AC25.1453,R PADRE JOÃO FRAGA VIEIRA,9,9960-441,LAJES DAS FLORES,-31.18713403249157,39.38011266946696
pt.ine.add.AC25.1454,R AUTONOMIA,17,9960-430,LAJES DAS FLORES,-31.172777781970133,39.37769865023541
pt.ine.add.AC25.1455,R AUTONOMIA,11,9960-430,LAJES DAS FLORES,-31.17262260045794,39.37741690666943
pt.ine.add.AC25.1456,R TERRA CHA,29,9960-580,LOMBA LGF,-31.15675815339151,39.40544847465527
pt.ine.add.AC25.1457,R PAU QUEIMADO,,9960-520,LOMBA LGF,-31.159872819812335,39.4000648743607
pt.ine.add.AC25.1458,R S CATARINA,2,9960-520,LOMBA LGF,-31.155199633578338,39.40200904429467
pt.ine.add.AC25.1459,R CANADA DA SENHORA,5,9960-520,LOMBA LGF,-31.15668053205878,39.40222173047148
pt.ine.add.AC25.1460,R CABO BAIXO CASAS,7,9960-630,MOSTEIRO LGF,-31.251439984323284,39.41360484242554
pt.ine.add.AC25.1517,R NSA SRA DO CARMO,,9960-040,FAJÃ GRANDE,-31.25511634871925,39.47062938090659
pt.ine.add.AC25.1518,R NSA SRA DO CARMO,,9960-040,FAJÃ GRANDE,-31.256058654574744,39.46967045974239
pt.ine.add.AC25.1519,R TRONQUEIRA,,9960-030,FAJÃ GRANDE,-31.261492040075986,39.45547125105709
pt.ine.add.AC25.1520,R VIA D ÁGUA,20,9960-030,FAJÃ GRANDE,-31.26353031318482,39.45576299603233
pt.ine.add.AC25.1521,R TRONQUEIRA,29,9960-030,FAJÃ GRANDE,-31.261839202555205,39.455999012428066
pt.ine.add.AC25.1522,R ASSUMADA,16,9960-010,FAJÃ GRANDE,-31.260850035339857,39.45138018943973
pt.ine.add.AC25.1523,R PADRE JOSE LUIS DEFRAGA,8,9960-040,FAJÃ GRANDE,-31.261355643841316,39.453946547757425
pt.ine.add.AC25.1524,R ASSOMADA,9,9960-010,FAJÃ GRANDE,-31.261994068896747,39.45210907395717
pt.ine.add.AC25.1525,R ROCAS,4,9960-140,FAJÃZINHA,-31.2525509998281,39.433299120089515
pt.ine.add.AC25.1526,ESTR REGIONAL,32,9960-220,FAZENDA,-31.164660555195624,39.39196860373538
pt.ine.add.AC25.1527,R SENADOR MACHADO SERPA,15,9960-220,FAZENDA,-31.164436641053637,39.39120824376301
pt.ine.add.AC25.1528,R PROF FRANCISCO RODRIGUES VIEIRA,2,9960-220,FAZENDA,-31.167810448923614,39.386522257049975
pt.ine.add.AC25.1529,R PADRE JOSE FURTADO MOTA,3,9960-360,LAJEDO,-31.248324962462455,39.39233963964288
pt.ine.add.AC25.1530,LAD PINHEIROS,2,9960-474,LAJES DAS FLORES,-31.188868092569468,39.38533837990332
pt.ine.add.AC25.1531,R DR JOSE DE FREITAS PIMENTEL,3,9960-439,LAJES DAS FLORES,-31.173319165745706,39.37875229756173
pt.ine.add.AC25.1532,R LAVRADOR,1,9960-474,LAJES DAS FLORES,-31.186983575408597,39.38278625793771
pt.ine.add.AC25.1533,R PADRE JOÃO FRAGA VIEIRA,12,9960-476,LAJES DAS FLORES,-31.187002648520185,39.38025477989096
pt.ine.add.AC25.1534,R DR JOSE DE FREITAS PIMENTEL,6,9960-439,LAJES DAS FLORES,-31.18017208007534,39.37951742918958
pt.ine.add.AC25.1535,CAM FAJA DE LOPO VAZ,,9960-446,LAJES DAS FLORES,-31.207551984505642,39.37525739720303
pt.ine.add.AC25.1536,R TERRA CHA,23,9960-580,LOMBA LGF,-31.15672997901154,39.40475427246212
pt.ine.add.AC25.1537,R TERRA CHA,31,9960-580,LOMBA LGF,-31.157120877803212,39.40534610498674
pt.ine.add.AC25.1538,R BOA VISTA,,9960-630,MOSTEIRO LGF,-31.249053527680793,39.41242468178417
pt.ine.add.AC25.1539,R OUTEIRO,6,9960-630,MOSTEIRO LGF,-31.25068707362814,39.41352144099507
pt.ine.add.AC25.1541,R MADEIRA,2,9960-220,FAZENDA,-31.16427210039509,39.392169699915584
pt.ine.add.AC25.1542,R DR JOSE FRESTAS PIMENTEL,10,9960-220,FAZENDA,-31.167254541616405,39.388243390378776
pt.ine.add.AC25.1543,R JOSE ROSARIA,8,9960-360,LAJEDO,-31.248824184908536,39.391878640664615
pt.ine.add.AC25.1544,R JOSE BAPTISTA SERPA,4,9960-330,LAJEDO,-31.24203229029023,39.384901620824884
pt.ine.add.AC25.1545,R LARANJEIRA,2,9960-330,LAJEDO,-31.243054168024358,39.385358546097656
pt.ine.add.AC25.1546,R DR JOSE RODRIGUES FARIA,11,9960-441,LAJES DAS FLORES,-31.17262490712072,39.382669693913684
pt.ine.add.AC25.1547,R PEIXOTO PIMENTEL,28,9960-431,LAJES DAS FLORES,-31.184384584434568,39.380033748606145
pt.ine.add.AC25.1548,R PADRE FRANCISCO DE FREITAS TOMAS,7,9960-476,LAJES DAS FLORES,-31.183096273271435,39.379572149404765
pt.ine.add.AC25.1549,CAM TERRA DE PEREIRA,9,9960-520,LOMBA LGF,-31.157422948517837,39.405341881222796
pt.ine.add.AC25.1550,R QUARTEIRO,7,9960-550,LOMBA LGF,-31.157164777029568,39.401914060560934
pt.ine.add.AC25.1551,LG JOSE FREITAS SILVA,9,9960-630,MOSTEIRO LGF,-31.25142000475089,39.41300988904552
pt.ine.add.AC25.1644,R CANADA COMPRIDA,,9960-110,FAJÃZINHA,-31.25444224566281,39.4338681169677
pt.ine.add.AC25.1591,R PADRE JOSE LUIS FRAGA,25,9960-040,FAJÃ GRANDE,-31.259690181162586,39.455020832152776
pt.ine.add.AC25.1592,R PADRE JOSE LUIS FRAGA,3,9960-040,FAJÃ GRANDE,-31.26128011084952,39.45417967423032
pt.ine.add.AC25.1593,R TRONQUEIRA,77,9960-030,FAJÃ GRANDE,-31.26201846410448,39.45486645179857
pt.ine.add.AC25.1594,R TRONQUEIRA,7,9960-030,FAJÃ GRANDE,-31.262344212496053,39.4548533009172
pt.ine.add.AC25.1595,R MARQUINHAS DO CARMO,4,9960-030,FAJÃ GRANDE,-31.26390639687137,39.45419188907328
pt.ine.add.AC25.1596,R PICO REDONDO,12,9960-110,FAJÃZINHA,-31.254011362063366,39.43669975572186
pt.ine.add.AC25.1597,R ENGENHO,,9960-110,FAJÃZINHA,-31.253419059673654,39.43389780274015
pt.ine.add.AC25.1598,R PICO REDONDO,1,9960-110,FAJÃZINHA,-31.253232890861476,39.435769058319956
pt.ine.add.AC25.1599,R CANADA COMPRIDA,2,9960-110,FAJÃZINHA,-31.25394687726817,39.43369850231967
pt.ine.add.AC25.1600,R BARREIRA VERMELHA,2,9960-220,FAZENDA,-31.16491918623507,39.39406296702119
pt.ine.add.AC25.1601,R PROF FRANCISCO RODRIGUESVIEIRA,1,9960-220,FAZENDA,-31.16762734563563,39.38642026440747
pt.ine.add.AC25.1602,CAM PESCADOR,30,9960-445,LAJES DAS FLORES,-31.17193041833983,39.377694346823674
pt.ine.add.AC25.1603,R PEIXOTO PIMENTEL,36,9960-431,LAJES DAS FLORES,-31.184632892748475,39.38030792026397
pt.ine.add.AC25.1604,R MAURÍCIO ANTÓNIO FRAGA,,9960-441,LAJES DAS FLORES,-31.178585991981937,39.380240424311026
pt.ine.add.AC25.1605,R PADRE JOÃO FRAGA VIEIRA,21,9960-476,LAJES DAS FLORES,-31.186140486844575,39.37947549968938
pt.ine.add.AC25.1606,AV PEIXOTO PIMENTEL,3,9960-431,LAJES DAS FLORES,-31.17946078262816,39.37695650494622
pt.ine.add.AC25.1607,R ROBERTO MESQUITA,11,9960-444,LAJES DAS FLORES,-31.175901270087405,39.37856756951024
pt.ine.add.AC25.1608,R OUTEIRO,6,9960-520,LOMBA LGF,-31.157452603400213,39.40289168110275
pt.ine.add.AC25.1609,ESTR REGIONAL,7,9960-520,LOMBA LGF,-31.153454538994712,39.402566989132595
pt.ine.add.AC25.1640,CAM BAIXO,1,9960-030,FAJÃ GRANDE,-31.2620920400326,39.453777360228514
pt.ine.add.AC25.1641,R VIA D ÁGUA,26,9960-030,FAJÃ GRANDE,-31.263443838665758,39.455968930936606
pt.ine.add.AC25.1642,R ASSUMADA,15,9960-010,FAJÃ GRANDE,-31.261432848068896,39.452244841120574
pt.ine.add.AC25.1643,R CANADA COMPRIDA,10,9960-110,FAJÃZINHA,-31.254153157949347,39.43427823099476
pt.ine.add.AC25.1645,R LADEIRA,4,9960-120,FAJÃZINHA,-31.25470405401848,39.43222324064712
pt.ine.add.AC25.1646,R BARREIRA,1,9960-220,FAZENDA,-31.164664732017865,39.39358143080189
pt.ine.add.AC25.1647,R TABULEIRO,2,9960-220,FAZENDA,-31.163621915504976,39.39260992847807
pt.ine.add.AC25.1648,ESTR REGIONAL,43,9960-220,FAZENDA,-31.16466692803441,39.391725438608255
pt.ine.add.AC25.1649,R NSA SRA DO CARMO,,9960-060,FAJÃ GRANDE,-31.255015835286645,39.46906917384714
pt.ine.add.AC25.1650,R NSA SRA DO CARMO,,9960-040,FAJÃ GRANDE,-31.255547948508685,39.47150080031051
pt.ine.add.AC25.1651,R PADRE JOSE LUIS FRAGA,13,9960-040,FAJÃ GRANDE,-31.26063799595579,39.454296207954286
pt.ine.add.AC25.1652,CAM MUNICIPAL,,9960-030,FAJÃ GRANDE,-31.24945128137426,39.44573114781516
pt.ine.add.AC25.1653,R OUTEIRO,,9960-110,FAJÃZINHA,-31.25623149398821,39.43573297469179
pt.ine.add.AC25.1654,R CANTO,6,9960-110,FAJÃZINHA,-31.250976472704373,39.43493326363367
pt.ine.add.AC25.1655,R TENDA,9,9960-110,FAJÃZINHA,-31.252278421970388,39.43490778956624
pt.ine.add.AC25.1656,R OUTEIRO,5,9960-130,FAJÃZINHA,-31.256240447672862,39.433976184713465
pt.ine.add.AC25.1657,LG S JOSE,9,9960-110,FAJÃZINHA,-31.254710273433457,39.432439570872916
pt.ine.add.AC25.1658,R EIRINHA VELHA,24,9960-220,FAZENDA,-31.166719605236445,39.39315433519255
pt.ine.add.AC25.1659,ESTR REGIONAL,26,9960-220,FAZENDA,-31.166214198218828,39.38983975601122
pt.ine.add.AC25.1660,R PADRE FRANCISCO CRISTIANO KORTH,11,9960-220,FAZENDA,-31.165415946845805,39.38972806012866
pt.ine.add.AC25.1661,R PROF FRANCISCO RODRIGUESVIEIRA,5,9960-220,FAZENDA,-31.167589351170168,39.38742876906662
pt.ine.add.AC25.1662,R CABASTIAO,8,9960-330,LAJEDO,-31.242229448577756,39.385373116355105
pt.ine.add.AC25.1663,R LOMBO,,9960-480,LAJES DAS FLORES,-31.17385798305453,39.37990501055496
pt.ine.add.AC25.1664,R PADRE JOÃO FRAGA VIEIRA,,9960-476,LAJES DAS FLORES,-31.186985168490317,39.38093024829163
pt.ine.add.AC25.1665,R PADRE FRANCISCO DE FREITAS TOMAS,20,9960-476,LAJES DAS FLORES,-31.182995025574293,39.37989492345778
pt.ine.add.AC25.1666,R PADRE FRANCISCO DE FREITAS TOMAS,18,9960-476,LAJES DAS FLORES,-31.183166063424018,39.38001472333704
pt.ine.add.AC25.1667,AV EMIGRANTE,,9960-431,LAJES DAS FLORES,-31.17699840359349,39.37566556965626
pt.ine.add.AC25.1668,R DR PADRE AMÉRICO CAETANO VIEIRA,,9960-443,LAJES DAS FLORES,-31.177665035488463,39.37726175260225
pt.ine.add.AC25.1669,AV EMIGRANTE,,9960-431,LAJES DAS FLORES,-31.17586071735674,39.37744970964894
pt.ine.add.AC25.1670,R PORTO,22,9960-520,LOMBA LGF,-31.153614145105454,39.403560602533496
pt.ine.add.AC25.1671,R OUTEIRO,,9960-630,MOSTEIRO LGF,-31.250023099118792,39.41313303660657
pt.ine.add.AC25.1715,R PORTO,6,9960-030,FAJÃ GRANDE,-31.26290502553649,39.45847462817238
pt.ine.add.AC25.1716,R CAMBADA,11,9960-030,FAJÃ GRANDE,-31.26231750028805,39.45686209689792
pt.ine.add.AC25.1717,R VIA D ÁGUA,19,9960-030,FAJÃ GRANDE,-31.264081266005533,39.45604151858018
pt.ine.add.AC25.1718,R ASSUMADA,40,9960-010,FAJÃ GRANDE,-31.261667595689595,39.45308626684706
pt.ine.add.AC25.1719,R SENADOR ANDRE DE FREITAS,15,9960-030,FAJÃ GRANDE,-31.262596052667554,39.45407320781137
pt.ine.add.AC25.1720,R NSA SRA DO CARMO,,9960-030,FAJÃ GRANDE,-31.256780359682782,39.467302690853906
pt.ine.add.AC25.1721,R CANTO,12,9960-110,FAJÃZINHA,-31.250798425201353,39.435083753159525
pt.ine.add.AC25.1722,R PEDREIRA,,9960-110,FAJÃZINHA,-31.250422789957604,39.43384375082623
pt.ine.add.AC25.1723,R LADEIRA,13,9960-120,FAJÃZINHA,-31.254841473365133,39.43183787860108
pt.ine.add.AC25.1724,R BARREIRA VERMELHA,10,9960-220,FAZENDA,-31.1641432339208,39.3948706172085
pt.ine.add.AC25.1725,R PADRE FRANCISCO CRISTIANO KORTH,9,9960-220,FAZENDA,-31.165435102525624,39.38944004724695
pt.ine.add.AC25.1726,R PADRE DR F CAETANO TOMAS,2,9960-360,LAJEDO,-31.24934699006514,39.39279651241467
pt.ine.add.AC25.1727,R SACO,,9960-360,LAJEDO,-31.248713516946943,39.3916607363804
pt.ine.add.AC25.1728,R JOSE BAPTISTA SERPA,4,9960-330,LAJEDO,-31.241331177136335,39.38369270290432
pt.ine.add.AC25.1729,R LONGUEIRA,2,9960-330,LAJEDO,-31.241428245327672,39.38306347555322
pt.ine.add.AC25.1730,LAD PINHEIROS,7,9960-474,LAJES DAS FLORES,-31.18829910230531,39.38354556423088
pt.ine.add.AC25.1731,R LAVRADOR,8,9960-476,LAJES DAS FLORES,-31.186140576063906,39.38261093807084
pt.ine.add.AC25.1732,R PADRE JOÃO FRAGA VIEIRA,13,9960-441,LAJES DAS FLORES,-31.18679543918411,39.379737987134064
pt.ine.add.AC25.1733,R DR PADRE AMÉRICO CAETANO VIEIRA,,9960-443,LAJES DAS FLORES,-31.178355346716057,39.37794830526384
pt.ine.add.AC25.1734,R PORTO,24,9960-520,LOMBA LGF,-31.153597310271568,39.40375855115261
pt.ine.add.AC25.1735,R CABECO,8,9960-520,LOMBA LGF,-31.15588666568631,39.40193885134297
pt.ine.add.AC25.1736,R OUTEIRO,16,9960-520,LOMBA LGF,-31.161007955641942,39.4041552676726
pt.ine.add.AC25.1737,R ENG PINELO,3,9960-630,MOSTEIRO LGF,-31.250461482932693,39.41278824626807
pt.ine.add.AC25.1742,R TRONQUEIRA,36,9960-030,FAJÃ GRANDE,-31.261418263278294,39.456100836909535
pt.ine.add.AC25.1743,VIA LOPO VAZ,4,9960-441,LAJES DAS FLORES,-31.188247526190302,39.38149951898427
pt.ine.add.AC25.1777,R NSA SRA DO CARMO,,9960-060,FAJÃ GRANDE,-31.25483829895668,39.46966115694181
pt.ine.add.AC25.1778,R NSA SRA DO CARMO,,9960-060,FAJÃ GRANDE,-31.254915875341226,39.47074349945404
pt.ine.add.AC25.1779,R NSA SRA DO CARMO,,9960-040,FAJÃ GRANDE,-31.256028365003115,39.46762477621596
pt.ine.add.AC25.1780,R PADRE JOSE LUIS FRAGA,27,9960-040,FAJÃ GRANDE,-31.259614239813857,39.454803459212044
pt.ine.add.AC25.1781,R PADRE JOSE LUIS FRAGA,9,9960-040,FAJÃ GRANDE,-31.260894483506462,39.45426400528363
pt.ine.add.AC25.1782,R SENADOR ANDRE DE FREITAS,4,9960-030,FAJÃ GRANDE,-31.261992409035575,39.45357765435411
pt.ine.add.AC25.1783,R SENADOR ANDRE DE FREITAS,6,9960-030,FAJÃ GRANDE,-31.262084230311082,39.453624076099594
pt.ine.add.AC25.1784,R TRONQUEIRA,15,9960-030,FAJÃ GRANDE,-31.26203049908641,39.455317123934385
pt.ine.add.AC25.1785,R ASSUMADA,30,9960-010,FAJÃ GRANDE,-31.261158287723156,39.45206954826069
pt.ine.add.AC25.1786,R MARQUINHAS DO CARMO,9,9960-030,FAJÃ GRANDE,-31.26391467618451,39.4538586483199
pt.ine.add.AC25.1787,R COURELAS,9,9960-020,FAJÃ GRANDE,-31.262655761563035,39.45307400694806
pt.ine.add.AC25.1788,R ENGENHO,5,9960-110,FAJÃZINHA,-31.25300999670299,39.43445927951781
pt.ine.add.AC25.1789,R CANADA COMPRIDA,,9960-110,FAJÃZINHA,-31.25380883729367,39.43503889961682
pt.ine.add.AC25.1790,R ROSSIO,6,9960-150,FAJÃZINHA,-31.25393849115356,39.433103725123225
pt.ine.add.AC25.1791,R LADEIRA,3,9960-120,FAJÃZINHA,-31.254543929895007,39.432121728727715
pt.ine.add.AC25.1792,R BARREIRA VERMELHA,5,9960-220,FAZENDA,-31.164174438964242,39.39412329335366
pt.ine.add.AC25.1793,R EIRINHA VELHA,16,9960-220,FAZENDA,-31.165813973329307,39.392707585198046
pt.ine.add.AC25.1794,ESTR REGIONAL,8,9960-220,FAZENDA,-31.16847555490165,39.38506412559083
pt.ine.add.AC25.1795,R PROF FRANCISCO RODRIGUES VIEIRA,2,9960-220,FAZENDA,-31.16846616636976,39.38719931266445
pt.ine.add.AC25.1796,R CAMPANÁRIO,3,9960-300,LAJEDO,-31.246719650872723,39.391991096425066
pt.ine.add.AC25.1797,ESTR REGIONAL,,9960-434,LAJES DAS FLORES,-31.18941539724358,39.38572531491914
pt.ine.add.AC25.1798,R NSA SRA DO ROSÁRIO,12,9960-440,LAJES DAS FLORES,-31.174418454512406,39.37844519948392
pt.ine.add.AC25.1799,R PEIXOTO PIMENTEL,23,9960-431,LAJES DAS FLORES,-31.185165436844503,39.38126226692132
pt.ine.add.AC25.1800,R ROBERTO MESQUITA,16,9960-444,LAJES DAS FLORES,-31.174794603784466,39.37871238825409
pt.ine.add.AC25.1801,R PADRE JOÃO FRAGA VIEIRA,,9960-476,LAJES DAS FLORES,-31.187104158860024,39.37947250248051
pt.ine.add.AC25.1802,R DR PADRE AMÉRICO CAETANO VIEIRA,6,9960-443,LAJES DAS FLORES,-31.179195362236285,39.37868224658746
pt.ine.add.AC25.1803,R BALEEIROS,7,9960-445,LAJES DAS FLORES,-31.171193779093848,39.37834048837554
pt.ine.add.AC25.1804,R DR JOSE DE FREITAS PIMENTEL,15,9960-439,LAJES DAS FLORES,-31.17862790218948,39.37862831357805
pt.ine.add.AC25.1805,AV EMIGRANTE,,9960-431,LAJES DAS FLORES,-31.175857084896556,39.37714331705536
pt.ine.add.AC25.1806,R TERRA CHA,19,9960-580,LOMBA LGF,-31.156695401629268,39.40430323371868
pt.ine.add.AC25.1807,R TERRA CHA,17,9960-580,LOMBA LGF,-31.15648432174101,39.40393949552598
pt.ine.add.AC25.1808,R CANADA DA SENHORA,2,9960-520,LOMBA LGF,-31.1564170950917,39.40208240772469
pt.ine.add.AC25.1809,R CO CABECO,10,9960-520,LOMBA LGF,-31.155870786829638,39.40210077628279
pt.ine.add.AC25.1810,R CABO BAIXO CASAS,5,9960-630,MOSTEIRO LGF,-31.251360733169697,39.41352256183417
pt.ine.add.AC25.1820,R DR JOSE DE FREITAS PIMENTEL,14,9960-439,LAJES DAS FLORES,-31.17940929900746,39.37893787151321
pt.ine.add.AC25.1821,R CANADA PEQUENA,2,9960-110,FAJÃZINHA,-31.254638115801445,39.43393412608612
pt.ine.add.AC25.1823,R TRONQUEIRA,4,9960-030,FAJÃ GRANDE,-31.26237080778735,39.45471855070157
pt.ine.add.AC25.1824,R TRONQUEIRA,17,9960-030,FAJÃ GRANDE,-31.26173960234283,39.455330794969896
pt.ine.add.AC25.1825,ESTR REGIONAL,,9960-060,FAJÃ GRANDE,-31.254913954114283,39.4689595267812
pt.ine.add.AC25.1826,R VIA D ÁGUA,12,9960-030,FAJÃ GRANDE,-31.263118780582964,39.45548655370756
pt.ine.add.AC25.1827,R ASSUMADA,14,9960-010,FAJÃ GRANDE,-31.260905208053973,39.45149814271562
pt.ine.add.AC25.1828,R COURELAS,2,9960-020,FAJÃ GRANDE,-31.26242114265305,39.45362911152238
pt.ine.add.AC25.1829,R SENADOR ANDRE DE FREITAS,29,9960-030,FAJÃ GRANDE,-31.262059009301083,39.453236275685335
pt.ine.add.AC25.1830,R ASSUMADA,2,9960-010,FAJÃ GRANDE,-31.261017420477327,39.45072497399056
pt.ine.add.AC25.1831,ESTR REGIONAL,,9960-030,FAJÃ GRANDE,-31.257360416774716,39.445913021007414
pt.ine.add.AC25.1832,R ESPINHACO,1,9960-100,FAJÃZINHA,-31.25226243882552,39.435547249664225
pt.ine.add.AC25.1833,R CANADA PEQUENA,5,9960-110,FAJÃZINHA,-31.25489453055946,39.43390193494597
pt.ine.add.AC25.1834,R EIRINHA VELHA,20,9960-220,FAZENDA,-31.16621337717378,39.39297516819477
pt.ine.add.AC25.1835,R MADEIRA,7,9960-220,FAZENDA,-31.16410913233028,39.392185147437175
pt.ine.add.AC25.1836,ESTR REGIONAL,10,9960-220,FAZENDA,-31.167824583650535,39.385981888625295
pt.ine.add.AC25.1837,ESTR REGIONAL,,9960-220,FAZENDA,-31.16930857625905,39.38517634739672
pt.ine.add.AC25.1838,R IGREJA,3,9960-360,LAJEDO,-31.24831662706021,39.39267288116231
pt.ine.add.AC25.1839,R DR JOSE RODRIGUES FARIA,10886,9960-441,LAJES DAS FLORES,-31.172998722534786,39.3830269503866
pt.ine.add.AC25.1840,R PORTO,18,9960-520,LOMBA LGF,-31.1540846665461,39.4033338161543
pt.ine.add.AC25.1841,R CABECO,14,9960-520,LOMBA LGF,-31.155841875901,39.40231655347984
pt.ine.add.AC25.1842,R GROTA,10,9960-520,LOMBA LGF,-31.15858692493992,39.40038689611373
pt.ine.add.AC25.1843,R CRUZ,1,9960-520,LOMBA LGF,-31.157355030043483,39.40086292600816
pt.ine.add.AC25.1844,R DIREITA,1,9960-630,MOSTEIRO LGF,-31.250585149139823,39.41295228461299
pt.ine.add.AC25.1845,R ENG PINECO,8,9960-630,MOSTEIRO LGF,-31.25042147149688,39.41299487191326
pt.ine.add.AC25.1846,R CABO BAIXO CASAS,,9960-630,MOSTEIRO LGF,-31.25153174678083,39.413651271485314
pt.ine.add.AC25.1870,R TRONQUEIRA,28,9960-030,FAJÃ GRANDE,-31.261349262850853,39.45560426374173
pt.ine.add.AC25.1871,R SENADOR ANDRE DE FREITAS,5,9960-030,FAJÃ GRANDE,-31.262281506667247,39.453636034517146
pt.ine.add.AC25.1872,R QUADA,,9960-070,FAJÃ GRANDE,-31.255835688748363,39.44042117722758
pt.ine.add.AC25.1873,AV EMIGRANTE,,9960-431,LAJES DAS FLORES,-31.17741896581607,39.3755640411234
pt.ine.add.AC25.1874,R AUTONOMIA,23,9960-430,LAJES DAS FLORES,-31.17543815272703,39.377181796290124
pt.ine.add.AC25.1887,ESTR REGIONAL,5,9960-230,FAZENDA,-31.170386336420705,39.38303093904778
pt.ine.add.AC25.1897,R LADEIRA,8,9960-120,FAJÃZINHA,-31.255106572927883,39.43192294558581
pt.ine.add.AC25.1898,R DR JOSE DE FREITAS PIMENTEL,19,9960-439,LAJES DAS FLORES,-31.17799151763478,39.37854626864375
pt.ine.add.AC25.1900,R EIRINHA VELHA,8,9960-220,FAZENDA,-31.16537074034734,39.39234020128784
pt.ine.add.AC25.1903,ER 1,,9960-434,LAJES DAS FLORES,-31.187325910521995,39.38526029841668
pt.ine.add.AC25.1904,R LARGO JOSÉ FREITAS SILVA,8,9960-630,MOSTEIRO LGF,-31.250763718415563,39.41324328711866
pt.ine.add.AC25.1906,R ASSUMADA,4,9960-010,FAJÃ GRANDE,-31.260024846544642,39.450448839054864
pt.ine.add.AC25.1909,R SENADOR MACHADO SERPA,4,9960-220,FAZENDA,-31.165138941704274,39.39099407858884
pt.ine.add.AC25.1910,AV EMIGRANTE,,9960-431,LAJES DAS FLORES,-31.177246089133572,39.37640826065461
pt.ine.add.AC25.1912,R NSA SRA DO CARMO,,9960-040,FAJÃ GRANDE,-31.256333421256574,39.47030526840755
pt.ine.add.AC25.1913,LAD JOSE VIEIRA NOIA,6,9960-441,LAJES DAS FLORES,-31.1811323059449,39.38054155310209
pt.ine.add.AC25.1914,ER 1 2A,,9960-474,LAJES DAS FLORES,-31.187804779557823,39.38515063151073
pt.ine.add.AC25.1917,ESTR REGIONAL,22,9960-220,FAZENDA,-31.166820577154738,39.38796625641926
pt.ine.add.AC25.1918,R CABECO,1,9960-520,LOMBA LGF,-31.156213124473076,39.40188996820738
pt.ine.add.AC25.1920,R ASSUMADA,3,9960-010,FAJÃ GRANDE,-31.26120031106997,39.45178186156381
pt.ine.add.AC25.1924,R SENADOR ANDRE DE FREITAS,14,9960-030,FAJÃ GRANDE,-31.262409720869424,39.454088443020495
pt.ine.add.AC25.1925,R DR JOSE RODRIGUES FARIA,,9960-441,LAJES DAS FLORES,-31.173063657314444,39.3832081674756
pt.ine.add.AC25.1928,ESTR REGIONAL,11,9960-220,FAZENDA,-31.16894943521757,39.38470218212102
pt.ine.add.AC25.1929,ESTR REGIONAL,16,9960-520,LOMBA LGF,-31.15463730383697,39.40043241529095
pt.ine.add.AC25.1931,R PADRE JOÃO FRAGA VIEIRA,3,9960-441,LAJES DAS FLORES,-31.187489736252953,39.38117236815737
pt.ine.add.AC25.1932,R PADRE FRANCISCO DE FREITAS TOMAS,9,9960-476,LAJES DAS FLORES,-31.182999463483654,39.37972380515235
pt.ine.add.AC25.1936,R DR JOSE FREITAS PIMENTEL,1,9960-220,FAZENDA,-31.167646971476643,39.38788917906797
pt.ine.add.AC25.1937,R CRUZ,8,9960-520,LOMBA LGF,-31.157496699249435,39.40077507217296
pt.ine.add.AC25.1939,R VIA D ÁGUA,22,9960-030,FAJÃ GRANDE,-31.263086837114034,39.45536894852623
pt.ine.add.AC25.1940,R LAVRADOR,12,9960-476,LAJES DAS FLORES,-31.185852073569478,39.382543369877816
pt.ine.add.AC25.1944,AV PEIXOTO PIMENTEL,17,9960-431,LAJES DAS FLORES,-31.184658795964925,39.37930822819663
pt.ine.add.AC25.1945,R LARANJEIRA,3,9960-330,LAJEDO,-31.243271437287312,39.38502846028702
pt.ine.add.AC25.1946,LG JOSE FREITAS SILVA,5,9960-630,MOSTEIRO LGF,-31.250768221052425,39.41306315697303
pt.ine.add.AC25.1948,CAM MUNICIPAL,,9960-030,FAJÃ GRANDE,-31.264284142956445,39.45582831112111
pt.ine.add.AC25.1949,R NSA SRA DO ROSÁRIO,2,9960-440,LAJES DAS FLORES,-31.173819033887145,39.37739064602632
pt.ine.add.AC25.1960,R PROF FRANCISCO RODRIGUESVIEIRA,1,9960-220,FAZENDA,-31.16762734563563,39.38642026440747
pt.ine.add.AC25.1963,R COURELAS,7,9960-020,FAJÃ GRANDE,-31.262825099482306,39.45327475377826
pt.ine.add.AC25.1964,R PROF MARIA DE FREITASVIEIRA,19,9960-220,FAZENDA,-31.167416258467988,39.386056544928536
pt.ine.add.AC25.1968,R DR JOSÉ RODRIGUES FARIA,,9960-441,LAJES DAS FLORES,-31.172152469347715,39.38297761624392
pt.ine.add.AC25.1970,R NSA SRA DO CARMO,,9960-060,FAJÃ GRANDE,-31.255066078360066,39.4679887496445
pt.ine.add.AC25.1972,R TRONQUEIRA,33,9960-030,FAJÃ GRANDE,-31.261602583905333,39.45616666185141
pt.ine.add.AC25.1973,R DR JOSE RODRIGUES FARIA,,9960-441,LAJES DAS FLORES,-31.173215467222565,39.38317451224476
pt.ine.add.AC25.1977,R SENADOR MACHADO SERPA,2,9960-220,FAZENDA,-31.165295962765736,39.390762299580004
pt.ine.add.AC25.1978,R PADRE JOÃO FRAGA VIEIRA,16,9960-476,LAJES DAS FLORES,-31.186663589065265,39.37989810967419
pt.ine.add.AC25.1982,R PADRE JOSE LUIS DE FRAGA,28,9960-040,FAJÃ GRANDE,-31.260359169545623,39.45429203644407
pt.ine.add.AC25.1984,AV EMIGRANTE,,9960-431,LAJES DAS FLORES,-31.17662566320384,39.37571378700087
pt.ine.add.AC25.1989,R PADRE FRANCISCO CRISTIANO KORTH,6,9960-220,FAZENDA,-31.16566539165232,39.389957240301
pt.ine.add.AC25.1990,CAM PESCADOR,28,9960-445,LAJES DAS FLORES,-31.171974016659423,39.37780315037036
pt.ine.add.AC25.1994,R PEDREIRA,2,9960-110,FAJÃZINHA,-31.250835824124565,39.43358867836822
pt.ine.add.AC25.1995,R PADRE FRANCISCO CRISTIANO KORTH,3,9960-220,FAZENDA,-31.165683554595716,39.3892637687228
pt.ine.add.AC25.1996,R BOA VISTA,4,9960-630,MOSTEIRO LGF,-31.248749729151147,39.41203268225031
pt.ine.add.AC25.1999,R PADRE JOSE LUIS DE FRAGA,36,9960-040,FAJÃ GRANDE,-31.257439295259697,39.45440147945219
pt.ine.add.AC25.2000,R EIRINHA VELHA,5,9960-220,FAZENDA,-31.165363897917903,39.39260137872152
pt.ine.add.AC25.2001,R TRONQUEIRA,20,9960-030,FAJÃ GRANDE,-31.26133275014961,39.455333721505816
pt.ine.add.AC25.2005,R ROBERTO MESQUITA,,9960-444,LAJES DAS FLORES,-31.178405773870942,39.37868790448737
pt.ine.add.AC25.2006,R ROBERTO MESQUITA,,9960-444,LAJES DAS FLORES,-31.178405773870942,39.37868790448737
pt.ine.add.AC25.2015,R ASSOMADA,2,9960-030,FAJÃ GRANDE,-31.259987166788694,39.44962837883443
pt.ine.add.AC25.2018,R ROCAS,1,9960-140,FAJÃZINHA,-31.251647021647766,39.433672956507145
pt.ine.add.AC25.2022,R PICO REDONDO,2,9960-110,FAJÃZINHA,-31.252651347429044,39.435327847692776
pt.ine.add.AC25.2024,R TRONQUEIRA,19,9960-030,FAJÃ GRANDE,-31.26165245097098,39.45556374793269
pt.ine.add.AC25.2025,R PADRE JOÃO FRAGA VIEIRA,8,9960-476,LAJES DAS FLORES,-31.187022780679484,39.38082271597509
pt.ine.add.AC25.2027,R BARREIRA VERMELHA,6,9960-220,FAZENDA,-31.164209298272226,39.3945653255278
pt.ine.add.AC25.2030,R DA FALCA,,9960-110,FAJÃZINHA,-31.25018912006843,39.43203826189499
pt.ine.add.AC25.2031,R DA CALDEIRA,,9960-220,FAZENDA,-31.1661723342619,39.38833445179472
pt.ine.add.AC25.2033,AV DO EMIGRANTE,,9960-431,LAJES DAS FLORES,-31.180000526961916,39.37628921005839
pt.ine.add.AC25.2037,R CANADA COMPRIDA,3,9960-110,FAJÃZINHA,-31.254345431478605,39.43448834447915
pt.ine.add.AC25.2043,R CABECO,2,9960-520,LOMBA LGF,-31.156122866577615,39.401789429329455
pt.ine.add.AC25.2044,R GROTAO,2,9960-350,LAJEDO,-31.247830805825902,39.393062000359315
pt.ine.add.AC25.2049,LAD PINHEIROS,8,9960-474,LAJES DAS FLORES,-31.188447759097002,39.38498044943822
pt.ine.add.AC25.2051,CAM PESCADOR,6,9960-445,LAJES DAS FLORES,-31.173691486479964,39.37783012719698
pt.ine.add.AC25.2065,R PORTO,2,9960-030,FAJÃ GRANDE,-31.263262782443594,39.4576420574692
pt.ine.add.AC25.2066,R PICO,2,9960-220,FAZENDA,-31.170233581257907,39.3871009907987
pt.ine.add.AC25.2068,R DR PADRE AMÉRICO CAETANO VIEIRA,,9960-443,LAJES DAS FLORES,-31.177870636909425,39.37739111153496
pt.ine.add.AC25.2069,R EIRINHA VELHA,9,9960-220,FAZENDA,-31.165750277018308,39.39292281689285
pt.ine.add.AC25.2075,R DR JOSE DE FREITAS PIMENTEL,2,9960-439,LAJES DAS FLORES,-31.18043431373326,39.37970172882603
pt.ine.add.AC25.2076,R SENADOR MACHADO SERPA,14,9960-220,FAZENDA,-31.164563647264476,39.39167875968861
pt.ine.add.AC25.2077,R DR JOSE DE FREITAS PIMENTEL,9,9960-439,LAJES DAS FLORES,-31.179733764187226,39.37896096896348
pt.ine.add.AC25.2079,R TERRA CHA,11,9960-580,LOMBA LGF,-31.1563376776867,39.40377499433985
pt.ine.add.AC25.2080,R LONGUEIRA,1,9960-330,LAJEDO,-31.241142848274478,39.382869952169074
pt.ine.add.AC25.2081,R LARGO JOSÉ FREITAS SILVA,2,9960-630,MOSTEIRO LGF,-31.250406257814266,39.41313880133618
pt.ine.add.AC25.2082,R DR JOSE RODRIGUES FARIA,9,9960-441,LAJES DAS FLORES,-31.175527078719572,39.38134575027332
pt.ine.add.AC25.2083,R ROBERTO MESQUITA,12,9960-444,LAJES DAS FLORES,-31.175173805374158,39.3788624954088
pt.ine.add.AC25.2084,R PADRE JOÃO FRAGA VIEIRA,1,9960-441,LAJES DAS FLORES,-31.18769350382369,39.38137376030684
pt.ine.add.AC25.2086,R PADRE JOÃO FRAGA VIEIRA,5,9960-441,LAJES DAS FLORES,-31.187265789017577,39.380853532775504
pt.ine.add.AC25.2087,R PADRE JOÃO FRAGA VIEIRA,7,9960-441,LAJES DAS FLORES,-31.18731575110069,39.38026866926232
pt.ine.add.AC25.2089,R PADRE JOÃO FRAGA VIEIRA,17,9960-476,LAJES DAS FLORES,-31.18637351714259,39.37944309358335
pt.ine.add.AC25.2096,R EIRINHA VELHA,22,9960-220,FAZENDA,-31.16634011080919,39.39301320555378
pt.ine.add.AC25.2099,R TABULEIRO,7,9960-220,FAZENDA,-31.16310695901131,39.39276397420939
pt.ine.add.AC25.2104,R LOMBO,3,9960-480,LAJES DAS FLORES,-31.173978829419184,39.380168193734164
pt.ine.add.AC25.2105,R MAURÍCIO ANTÓNIO FRAGA,1,9960-441,LAJES DAS FLORES,-31.17943282374068,39.38071318438305
pt.ine.add.AC25.2106,R SENADOR MACHADO SERPA,9,9960-220,FAZENDA,-31.16397682252683,39.39058831729303
pt.ine.add.AC25.2108,R PADRE FRANCISCO DE FREITAS TOMAS,14,9960-476,LAJES DAS FLORES,-31.183503378261175,39.37954246784438
pt.ine.add.AC25.2112,R LOMBO,2,9960-472,LAJES DAS FLORES,-31.174445009570523,39.3805449152563
pt.ine.add.AC25.2113,R PADRE LUIS PIMENTEL GOMES,2,9960-431,LAJES DAS FLORES,-31.17430566945691,39.3792092681792
pt.ine.add.AC25.2114,VIA LOPO VAZ,2,9960-431,LAJES DAS FLORES,-31.18886423363417,39.38144605347695
pt.ine.add.AC25.2119,VIA LOPO VAZ,6,9960-441,LAJES DAS FLORES,-31.188141448588272,39.38156093591089
pt.ine.add.AC25.2122,R PADRE FRANCISCO DE FREITAS TOMAS,8,9960-476,LAJES DAS FLORES,-31.18400659017318,39.37938814698385
pt.ine.add.AC25.2124,R PEIXOTO PIMENTEL,25,9960-431,LAJES DAS FLORES,-31.18544594355574,39.38208654154272
pt.ine.add.AC25.2126,URB ÂNGELO DE FREITAS HENRIQUES,,9960-432,LAJES DAS FLORES,-31.17936059606012,39.37768473683443
pt.ine.add.AC25.2127,URB ÂNGELO DE FREITAS HENRIQUES,,9960-432,LAJES DAS FLORES,-31.180315821086953,39.3780060190247
pt.ine.add.AC25.2128,URB ÂNGELO DE FREITAS HENRIQUES,,9960-432,LAJES DAS FLORES,-31.18039611775407,39.37804331457412
pt.ine.add.AC25.2129,URB ÂNGELO DE FREITAS HENRIQUES,,9960-432,LAJES DAS FLORES,-31.18090227803869,39.378222418598845
pt.ine.add.AC25.2130,URB ÂNGELO DE FREITAS HENRIQUES,,9960-432,LAJES DAS FLORES,-31.181443255013907,39.37840206473898
pt.ine.add.AC25.2131,URB ÂNGELO DE FREITAS HENRIQUES,,9960-432,LAJES DAS FLORES,-31.181200109310943,39.377929749784926
pt.ine.add.AC25.2132,URB ÂNGELO DE FREITAS HENRIQUES,22,9960-432,LAJES DAS FLORES,-31.17983086102642,39.37745783931399
pt.ine.add.AC25.2133,URB ÂNGELO DE FREITAS HENRIQUES,19,9960-432,LAJES DAS FLORES,-31.179336079566095,39.37728791863421
pt.ine.add.AC25.2134,URB ÂNGELO DE FREITAS HENRIQUES,12,9960-432,LAJES DAS FLORES,-31.17911840307532,39.37717639301083
pt.ine.add.AC25.2135,URB ÂNGELO DE FREITAS HENRIQUES,,9960-432,LAJES DAS FLORES,-31.18106178936384,39.37789154751997
pt.ine.add.AC25.2136,URB ÂNGELO DE FREITAS HENRIQUES,21,9960-432,LAJES DAS FLORES,-31.179657729298178,39.37741909068071
pt.ine.add.AC25.2137,URB ÂNGELO DE FREITAS HENRIQUES,27,9960-432,LAJES DAS FLORES,-31.18086591431714,39.37783442529561
pt.ine.add.AC25.2138,URB ÂNGELO FREITAS HENRIQUES,26,9960-432,LAJES DAS FLORES,-31.18070461945924,39.37778685344371
pt.ine.add.AC25.2139,URB ÂNGELO DE FREITAS HENRIQUES,23,9960-432,LAJES DAS FLORES,-31.179968477565595,39.37752306165518
pt.ine.add.AC25.2140,URB ÂNGELO DE FREITAS HENRIQUES,12,9960-432,LAJES DAS FLORES,-31.17976371359964,39.37780817375576
pt.ine.add.AC25.2141,URB ÂNGELO DE FREITAS HENRIQUES,31,9960-432,LAJES DAS FLORES,-31.18178633482147,39.378155151174255
pt.ine.add.AC25.2142,URB ÂNGELO DE FREITAS HENRIQUES,,9960-432,LAJES DAS FLORES,-31.1810747110701,39.3782881840946
pt.ine.add.AC25.2143,URB ÂNGELO DE FREITAS HENRIQUES,,9960-432,LAJES DAS FLORES,-31.181328143342814,39.37836422560518
pt.ine.add.AC25.2144,URB ÂNGELO DE FREITAS HENRIQUES,,9960-432,LAJES DAS FLORES,-31.18056878371894,39.37810007458389
pt.ine.add.AC25.2164,R DIVINO ESPÍRITO SANTO,,9960-437,LAJES DAS FLORES,-31.183975639456847,39.38147795482935
pt.ine.add.AC25.2145,URB ÂNGELO DE FREITAS HENRIQUES,20,9960-432,LAJES DAS FLORES,-31.179508508770702,39.37735368637441
pt.ine.add.AC25.2146,URB ÂNGELO DE FREITAS HENRIQUES,11,9960-432,LAJES DAS FLORES,-31.179913169284227,39.37786457154363
pt.ine.add.AC25.2147,URB ÂNGELO DE FREITAS HENRIQUES,,9960-432,LAJES DAS FLORES,-31.180810610090173,39.37817593568964
pt.ine.add.AC25.2148,URB ÂNGELO DE FREITAS HENRIQUES,16,9960-432,LAJES DAS FLORES,-31.17910693446331,39.377617697345265
pt.ine.add.AC25.2149,URB ÂNGELO DE FREITAS HENRIQUES,13,9960-432,LAJES DAS FLORES,-31.17959128303851,39.377742406367176
pt.ine.add.AC25.2150,URB ÂNGELO DE FREITAS HENRIQUES,30,9960-432,LAJES DAS FLORES,-31.181303381820896,39.37797641381981
pt.ine.add.AC25.2151,URB ÂNGELO DE FREITAS HENRIQUES,30,9960-432,LAJES DAS FLORES,-31.181614368878915,39.37807137427954
pt.ine.add.AC25.2152,URB ÂNGELO DE FREITAS HENRIQUES,,9960-432,LAJES DAS FLORES,-31.18117845160265,39.378316835808846
pt.ine.add.AC25.2153,URB ÂNGELO DE FREITAS HENRIQUES,,9960-432,LAJES DAS FLORES,-31.18064954835724,39.378119357528774
pt.ine.add.AC25.2154,URB ÂNGELO FREITAS HENRIQUES,19,9960-432,LAJES DAS FLORES,-31.181464677549048,39.37802398485942
pt.ine.add.AC25.2165,R DIVINO ESPÍRITO SANTO,9,9960-437,LAJES DAS FLORES,-31.183897671639045,39.38135059935024
pt.ine.add.AC25.2166,R DIVINO ESPÍRITO SANTO,25,9960-437,LAJES DAS FLORES,-31.182585038292835,39.38048317038056
pt.ine.add.AC25.2167,R DIVINO ESPÍRITO SANTO,35,9960-437,LAJES DAS FLORES,-31.18187799487368,39.379544104608854
pt.ine.add.AC25.2168,R DIVINO ESPÍRITO SANTO,23,9960-437,LAJES DAS FLORES,-31.18284104978497,39.380460140323294
pt.ine.add.AC25.2169,R DIVINO ESPÍRITO SANTO,27,9960-437,LAJES DAS FLORES,-31.182789098394597,39.380225072026725
pt.ine.add.AC25.2191,R DIVINO ESPÍRITO SANTO,44,9960-437,LAJES DAS FLORES,-31.181733360535436,39.37974907103313
pt.ine.add.AC25.2192,R DIVINO ESPÍRITO SANTO,,9960-437,LAJES DAS FLORES,-31.181899955203004,39.38003999090951
pt.ine.add.AC25.2193,R DIVINO ESPÍRITO SANTO,,9960-437,LAJES DAS FLORES,-31.181811708664775,39.38030890782404
pt.ine.add.AC25.2194,R DIVINO ESPÍRITO SANTO,38,9960-437,LAJES DAS FLORES,-31.18194722921211,39.380455183947795
pt.ine.add.AC25.2195,R DIVINO ESPÍRITO SANTO,32,9960-437,LAJES DAS FLORES,-31.182214845776564,39.38043233664786
pt.ine.add.AC25.2196,R DIVINO ESPÍRITO SANTO,4,9960-437,LAJES DAS FLORES,-31.18465631566793,39.38209224099853
pt.ine.add.AC25.2197,R DIVINO ESPÍRITO SANTO,18,9960-437,LAJES DAS FLORES,-31.183540876051463,39.3816783936404
pt.ine.add.AC25.2198,R DIVINO ESPÍRITO SANTO,16,9960-437,LAJES DAS FLORES,-31.18358286020764,39.381850236825706
pt.ine.add.AC25.2199,R DIVINO ESPÍRITO SANTO,6,9960-437,LAJES DAS FLORES,-31.184515651565306,39.382144104942
pt.ine.add.AC25.2200,R DIVINO ESPÍRITO SANTO,,9960-437,LAJES DAS FLORES,-31.18461823234649,39.38221778488908
pt.ine.add.AC25.2201,R DIVINO ESPÍRITO SANTO,,9960-437,LAJES DAS FLORES,-31.18461823234649,39.38221778488908
pt.ine.add.AC25.2217,R DIVINO ESPÍRITO SANTO,3,9960-437,LAJES DAS FLORES,-31.184636605779364,39.38195678529986
pt.ine.add.AC25.2232,R DIVINO ESPÍRITO SANTO,21,9960-437,LAJES DAS FLORES,-31.18280296423299,39.380585683597914
pt.ine.add.AC25.2237,R DIVINO ESPÍRITO SANTO,31,9960-437,LAJES DAS FLORES,-31.18241236477826,39.38042641321185
pt.ine.add.AC25.2238,R DIVINO ESPÍRITO SANTO,9,9960-437,LAJES DAS FLORES,-31.18257740502934,39.380329883265844
pt.ine.add.AC25.2239,R DIVINO ESPÍRITO SANTO,30,9960-437,LAJES DAS FLORES,-31.18235106840345,39.38055159365744
pt.ine.add.AC25.2250,R DIVINO ESPÍRITO SANTO,,9960-437,LAJES DAS FLORES,-31.18243136907448,39.380588887879135
pt.ine.add.AC25.2251,R DIVINO ESPÍRITO SANTO,10,9960-437,LAJES DAS FLORES,-31.184276141631972,39.381978188882734
pt.ine.add.AC25.2253,R DIVINO ESPÍRITO SANTO,14,9960-437,LAJES DAS FLORES,-31.18400135013485,39.381829741282395
pt.ine.add.AC25.2257,R DIVINO ESPÍRITO SANTO,36,9960-437,LAJES DAS FLORES,-31.181997622328897,39.38030280369451
pt.ine.add.AC25.2258,R DIVINO ESPÍRITO SANTO,20,9960-437,LAJES DAS FLORES,-31.183093250633526,39.38103170185532
pt.ine.add.AC25.2259,R DIVINO ESPÍRITO SANTO,,9960-437,LAJES DAS FLORES,-31.18509871746629,39.38204508505874
pt.ine.add.AC25.2268,R DIVINO ESPÍRITO SANTO,22,9960-437,LAJES DAS FLORES,-31.182911306175598,39.38088470187853
pt.ine.add.AC25.2269,R DIVINO ESPÍRITO SANTO,5,9960-437,LAJES DAS FLORES,-31.18434950805528,39.381835176083754
pt.ine.add.AC25.2271,R DIVINO ESPÍRITO SANTO,24,9960-437,LAJES DAS FLORES,-31.182831472111236,39.38082939552785
pt.ine.add.AC25.2279,R DIVINO ESPÍRITO SANTO,40,9960-437,LAJES DAS FLORES,-31.181814045966277,39.38021884562428
pt.ine.add.AC25.2280,R DIVINO ESPÍRITO SANTO,34,9960-437,LAJES DAS FLORES,-31.182157755428737,39.38039540499639
pt.ine.add.AC25.2281,R DIVINO ESPÍRITO SANTO,26,9960-437,LAJES DAS FLORES,-31.182557155497005,39.38066293221581
pt.ine.add.AC25.2282,R DIVINO ESPÍRITO SANTO,13,9960-437,LAJES DAS FLORES,-31.183487591403704,39.38104687042097
pt.ine.add.AC25.2283,R DIVINO ESPÍRITO SANTO,33,9960-437,LAJES DAS FLORES,-31.182119280874783,39.38008846803229
pt.ine.add.AC25.2291,R DIVINO ESPÍRITO SANTO,34,9960-437,LAJES DAS FLORES,-31.18383147390953,39.381664911391724
pt.ine.add.AC25.2293,R DIVINO ESPÍRITO SANTO,N 19,9960-437,LAJES DAS FLORES,-31.183110227851664,39.38082473993508
pt.ine.add.AC25.2302,R DIVINO ESPÍRITO SANTO,17,9960-437,LAJES DAS FLORES,-31.183269195905677,39.38096237089002
pt.ine.add.AC25.2314,R ROBERTO MESQUITA,8,9960-444,LAJES DAS FLORES,-31.17567515324973,39.378780260420605
pt.ine.add.AC25.2320,R LADEIRA,7,9960-120,FAJÃZINHA,-31.254733800562988,39.43196240085511
pt.ine.add.AC25.2321,R DR JOSE DE FREITAS PIMENTEL,23,9960-439,LAJES DAS FLORES,-31.177575623304495,39.378467674771464
pt.ine.add.AC25.2323,AV EMIGRANTE,6,9960-431,LAJES DAS FLORES,-31.175832933978278,39.37807095505775
pt.ine.add.AC25.2326,TERRA CHA,51,9960-520,LOMBA LGF,-31.15605838841498,39.402914634223976
pt.ine.add.AC25.2327,R PROF FRANCISCO RODRIGUES VIEIRA,10,9960-220,FAZENDA,-31.16803892622615,39.38755297859833
pt.ine.add.AC25.2330,R MARJAO,6,9960-530,LOMBA LGF,-31.155730096977486,39.40126964222089
pt.ine.add.AC25.2331,R CALHAU GRANDE,6,9960-360,LAJEDO,-31.248934647361956,39.393033573496226
pt.ine.add.AC25.2333,R CRUZ,2,9960-410,LAJES DAS FLORES,-31.181268696896225,39.379759826718654
pt.ine.add.AC25.2336,R SENADOR ANDRE DE FREITAS,2,9960-030,FAJÃ GRANDE,-31.26198303147644,39.45348741570846
pt.ine.add.AC25.2338,R VIA D ÁGUA,6,9960-030,FAJÃ GRANDE,-31.263046634093183,39.45511607226085
pt.ine.add.AC25.2340,R DR JOSE DE FREITAS PIMENTEL,,9960-439,LAJES DAS FLORES,-31.170811878296206,39.38140684697802
pt.ine.add.AC25.2342,R CÓNEGO FRANCISCO CAETANO TOMAS,9,9960-360,LAJEDO,-31.25038622606262,39.39210036511034
pt.ine.add.AC25.2345,R DR JOSE FREITAS PIMENTEL,,9960-220,FAZENDA,-31.16648169429922,39.38849249606605
pt.ine.add.AC25.2346,R CANADA MANCEDO,2,9960-110,FAJÃZINHA,-31.255305680902293,39.434187410316824
pt.ine.add.AC25.2348,R ROBERTO MESQUITA,6,9960-444,LAJES DAS FLORES,-31.17580350846744,39.37875524373112
pt.ine.add.AC25.2350,R BOA VISTA,2,9960-630,MOSTEIRO LGF,-31.24863767951484,39.41186881690314
pt.ine.add.AC25.2355,R ASSUMADA,17,9960-010,FAJÃ GRANDE,-31.26160752455341,39.45269794527987
pt.ine.add.AC25.2356,R ASSUMADA,21,9960-010,FAJÃ GRANDE,-31.261753623446737,39.45289834620005
pt.ine.add.AC25.2360,R PADRE FRANCISCO CRISTIANO KORTH,5,9960-220,FAZENDA,-31.16522519808576,39.38903129340685
pt.ine.add.AC25.2361,ESTR REGIONAL,,9960-220,FAZENDA,-31.164034405293897,39.399463913807956
pt.ine.add.AC25.2364,R DR JOSE RODRIGUES FARIA,,9960-441,LAJES DAS FLORES,-31.173174544483565,39.383408125936256
pt.ine.add.AC25.2369,R PADRE FRANCISCO DE FREITAS TOMAS,2,9960-476,LAJES DAS FLORES,-31.1843853494801,39.37955623709621
pt.ine.add.AC25.2374,R DIVINO ESPÍRITO SANTO,11,9960-437,LAJES DAS FLORES,-31.183692747824317,39.38119423194395
