id,street,house,postcode,city,lon,lat
pt.ine.add.PTCONT.1368062,R DO ROSSIO,31,7240-100,LUZ MOU,-7.374286203578742,38.34436129871993
pt.ine.add.PTCONT.1368063,MTE CASAO DO SR JOSE CAEIRO,,7240-100,LUZ MOU,-7.382333571829948,38.34253312164846
pt.ine.add.PTCONT.1368064,MTE DAS CANDEIAS,,7240-100,LUZ MOU,-7.350600442822632,38.31719527817574
pt.ine.add.PTCONT.1368065,R MANUEL JOAQUIM BAÇÃO LOPES,10,7240-224,MOURÃO,-7.339645586330631,38.38545741670788
pt.ine.add.PTCONT.1368100,TV DOS PINHEIROS,8,7240-271,MOURÃO,-7.345217454911694,38.382166221802535
pt.ine.add.PTCONT.1368101,R D MANUEL I,29,7240-251,MOURÃO,-7.344977497594762,38.37957377610603
pt.ine.add.PTCONT.1368139,R ÁLVARO AFONSO,7,7240-012,GRANJA MOU,-7.25415137910904,38.30199032230215
pt.ine.add.PTCONT.1368140,R DAS FLORES,18,7240-012,GRANJA MOU,-7.254313133787972,38.301513283909216
pt.ine.add.PTCONT.1368141,R PEDRO PITEIRA,31,7240-012,GRANJA MOU,-7.257073377899391,38.3021215506766
pt.ine.add.PTCONT.1368142,R PEDRO PITEIRA,16,7240-012,GRANJA MOU,-7.25684766295501,38.3024314662454
pt.ine.add.PTCONT.1368143,R DAS FLORES,58,7240-019,GRANJA MOU,-7.256040816846893,38.30105318288905
pt.ine.add.PTCONT.1368285,R DA CORREDOURA - CASA DO LAGAREIRO,,7240-011,GRANJA MOU,-7.255772749129489,38.30784902800906
pt.ine.add.PTCONT.1368295,R JOSÉ TEODORO DE ABREU BRAVO,7,7240-258,MOURÃO,-7.3441726336807385,38.384237938554605
pt.ine.add.PTCONT.1368306,R DA PEDREIRA,10,7240-243,MOURÃO,-7.34248814016213,38.38396254210611
pt.ine.add.PTCONT.1368377,R DR LIBANIO ESQUIVEL,19,7240-256,MOURÃO,-7.3407916251502705,38.38241973527325
pt.ine.add.PTCONT.1368744,R DA CANHOTA,17,7240-012,GRANJA MOU,-7.255483564947929,38.302520411211376
pt.ine.add.PTCONT.1368719,R D MANUEL I,28,7240-251,MOURÃO,-7.3448236899787895,38.379497076739135
pt.ine.add.PTCONT.1368724,BR ALTO DA ESCOLA,,7240-012,GRANJA MOU,-7.256075470353915,38.30644595409846
pt.ine.add.PTCONT.1368725,R DE SÃO SEBASTIÃO,6,7240-012,GRANJA MOU,-7.2560943160071805,38.30039003662377
pt.ine.add.PTCONT.1368726,R SACADURA CABRAL,8,7240-264,MOURÃO,-7.343049491886449,38.379850210139985
pt.ine.add.PTCONT.1368732,R JOAQUIM ANTÓNIO DE CASTRO,8,7240-019,GRANJA MOU,-7.255135730636412,38.30473630268655
pt.ine.add.PTCONT.1368733,R DE SÃO SEBASTIÃO,13,7240-012,GRANJA MOU,-7.256134925848197,38.30023662583538
pt.ine.add.PTCONT.1368734,R DO ALCANCE,23,7240-246,MOURÃO,-7.340778659643895,38.38162554046242
pt.ine.add.PTCONT.1368737,R DA CORREDOURA,10,7240-012,GRANJA MOU,-7.256189050008681,38.30460905334892
pt.ine.add.PTCONT.1368741,R JOAQUIM ANTÓNIO DE CASTRO,42,7240-012,GRANJA MOU,-7.253598884137774,38.30230148139991
pt.ine.add.PTCONT.1368745,MTE DO CHAPARRINHO,,7240-256,MOURÃO,-7.241777498835973,38.32663444648061
pt.ine.add.PTCONT.1368746,R DE SÃO SEBASTIÃO,30 A,7240-245,MOURÃO,-7.341682670838292,38.38483797553576
pt.ine.add.PTCONT.1368755,R JOAQUIM ANTÓNIO DE CASTRO,52,7240-012,GRANJA MOU,-7.253262916320509,38.301722412617956
pt.ine.add.PTCONT.1368756,R DA ESTRELA,6,7240-100,LUZ MOU,-7.373003791920076,38.34428667274546
pt.ine.add.PTCONT.1368761,R DAS FLORES,14 A,7240-012,GRANJA MOU,-7.254099076402711,38.30156724768
pt.ine.add.PTCONT.1368764,MTE DO CARVOEIRO,,7240-019,GRANJA MOU,-7.271758301469434,38.319255250538916
pt.ine.add.PTCONT.1368765,MTE DO TOCHO,,7240-100,LUZ MOU,-7.406810008951141,38.30598071072963
pt.ine.add.PTCONT.1368766,R JOÃO JOSE VASCONCELOS ROSADO,21,7240-254,MOURÃO,-7.343029896796183,38.384073645506305
pt.ine.add.PTCONT.1368779,ESTR DA CIRCUNVALAÇÃO,,7240-012,GRANJA MOU,-7.2577983699651485,38.30292746022814
pt.ine.add.PTCONT.1368780,PC REPUBLICA,17,7240-233,MOURÃO,-7.343693476732246,38.38301022785627
pt.ine.add.PTCONT.1368781,PC REPUBLICA,17,7240-233,MOURÃO,-7.343693476732246,38.38301022785627
pt.ine.add.PTCONT.1368782,PC REPUBLICA,16,7240-233,MOURÃO,-7.343693476732246,38.38301022785627
pt.ine.add.PTCONT.1369050,R JOSE JOAQUIM VASCONCELOS GUSMÃO,4,7240-257,MOURÃO,-7.343017510726767,38.383578057243795
pt.ine.add.PTCONT.1369130,AV PAPA JOÃO PAULO II,14,7240-238,MOURÃO,-7.341103626884133,38.380161451056836
pt.ine.add.PTCONT.1369134,R JOSE JOAQUIM VASCONCELOS GUSMÃO,4,7240-257,MOURÃO,-7.343017510726767,38.383578057243795
pt.ine.add.PTCONT.1369469,R SACADURA CABRAL,28,7240-264,MOURÃO,-7.344330143272669,38.37913677653797
pt.ine.add.PTCONT.1369474,R DR LIBANIO ESQUIVEL,21,7240-256,MOURÃO,-7.340673978388197,38.38240467417683
pt.ine.add.PTCONT.1369479,R DA ESTRELA,1,7240-100,LUZ MOU,-7.3737360423750875,38.344362569451306
pt.ine.add.PTCONT.1369484,R DA MISERICÓRDIA,21,7240-012,GRANJA MOU,-7.254986978373166,38.3021931929645
pt.ine.add.PTCONT.1369485,R DA MISERICÓRDIA,27,7240-012,GRANJA MOU,-7.255341551526615,38.30207787940775
pt.ine.add.PTCONT.1369486,R DO MEIO,5,7240-100,LUZ MOU,-7.377838324900666,38.34446120149246
pt.ine.add.PTCONT.1369495,MTE ALTOS,,7240-100,LUZ MOU,-7.372788010563418,38.31784569083388
pt.ine.add.PTCONT.1369503,R PEDRO PITEIRA,29,7240-012,GRANJA MOU,-7.257057037051914,38.302193112639976
pt.ine.add.PTCONT.1369504,R BENQUERER,4,7240-248,MOURÃO,-7.3440213487461135,38.383774548776316
pt.ine.add.PTCONT.1369505,R BENQUERER,7,7240-248,MOURÃO,-7.3440213487461135,38.383774548776316
pt.ine.add.PTCONT.1369508,R NOVA DE MOURA,21,7240-267,MOURÃO,-7.3428672239852535,38.38114801973185
pt.ine.add.PTCONT.1369735,R DA CORREDOURA,31,7240-012,GRANJA MOU,-7.256294847325791,38.30373687768433
pt.ine.add.PTCONT.1370191,R DOS MEIGOS,11,7240-012,GRANJA MOU,-7.257260952967387,38.3007608299386
pt.ine.add.PTCONT.1370193,R DA CORREDOURA,21,7240-012,GRANJA MOU,-7.256397743205206,38.30436738169855
pt.ine.add.PTCONT.1370194,R DIREITA,40,7240-012,GRANJA MOU,-7.254472749942622,38.300241251371915
pt.ine.add.PTCONT.1370195,R DE SÃO SEBASTIÃO,12,7240-012,GRANJA MOU,-7.255908747539182,38.300190180910434
pt.ine.add.PTCONT.1370196,R D MANUEL I,12,7240-251,MOURÃO,-7.3438869639529285,38.37995173611384
pt.ine.add.PTCONT.1370202,R DE VALADARES,8,7240-019,GRANJA MOU,-7.256778346440473,38.300601447237625
pt.ine.add.PTCONT.1370203,R DR LIBANIO ESQUIVEL,45,7240-256,MOURÃO,-7.339995706744062,38.38231055610215
pt.ine.add.PTCONT.1370204,R SACADURA CABRAL,34,7240-264,MOURÃO,-7.34479049195347,38.378986733775605
pt.ine.add.PTCONT.1370209,R NOVA,15,7240-100,LUZ MOU,-7.3782212878156015,38.34593981373252
pt.ine.add.PTCONT.1370210,BR LUIS DE CAMÕES,,7240-224,MOURÃO,-7.340377717658522,38.386474473487375
pt.ine.add.PTCONT.1370211,BR LUIS DE CAMÕES,,7240-224,MOURÃO,-7.340190277348112,38.386869579764465
pt.ine.add.PTCONT.1370214,R DA ESTRELA,9,7240-100,LUZ MOU,-7.3733559001530935,38.34438575181777
pt.ine.add.PTCONT.1370222,R DA ESTRELA,18,7240-100,LUZ MOU,-7.3723765148139355,38.344319526666474
pt.ine.add.PTCONT.1370226,R DA IGREJA,18,7240-100,LUZ MOU,-7.378548378724285,38.3441593412329
pt.ine.add.PTCONT.1370232,R PROF AGOSTINHO FORTES,6,7240-273,MOURÃO,-7.3396692389581055,38.38609014388426
pt.ine.add.PTCONT.1370239,R DE SÃO BRÁS,13,7240-012,GRANJA MOU,-7.257288986205228,38.30119295858784
pt.ine.add.PTCONT.1370505,R DOUTOR MANUEL RAMOS,33,7240-246,MOURÃO,-7.339606858827885,38.38160466558667
pt.ine.add.PTCONT.1370971,R DE VALADARES,5,7240-012,GRANJA MOU,-7.256849887998683,38.30078304705063
pt.ine.add.PTCONT.1370972,R VASCO DA GAMA,9,7240-269,MOURÃO,-7.340000173857119,38.38391813707761
pt.ine.add.PTCONT.1370977,R NOVA DE DE MOURÃO,8,7240-012,GRANJA MOU,-7.255378830423566,38.30448588182024
pt.ine.add.PTCONT.1370978,BR LUIS DE CAMÕES,,7240-224,MOURÃO,-7.340181488396416,38.386626290801
pt.ine.add.PTCONT.1370979,R FREI ANTÓNIO DAS CHAGAS,20,7240-252,MOURÃO,-7.345958974287305,38.384210554027746
pt.ine.add.PTCONT.1370986,R JOAQUIM ANTÓNIO DE CASTRO,32,7240-012,GRANJA MOU,-7.253933797994267,38.30275813719482
pt.ine.add.PTCONT.1370987,CM 1135 COURELA DA PONTE,,7240-253,MOURÃO,-7.318798128068944,38.38896603827068
pt.ine.add.PTCONT.1370989,R DE SÃO SEBASTIÃO,46,7240-245,MOURÃO,-7.341943046582453,38.385321538575944
pt.ine.add.PTCONT.1370992,MTE AMEADA ALTA,,7240-256,MOURÃO,-7.212993280074573,38.31488122733372
pt.ine.add.PTCONT.1370995,R DAS FLORES,28,7240-012,GRANJA MOU,-7.25475304960594,38.30138244284159
pt.ine.add.PTCONT.1370996,R MANUEL PALMA JORDÃO,2,7240-223,MOURÃO,-7.3428860533225695,38.38171808805363
pt.ine.add.PTCONT.1371004,R JOAQUIM JOSE VASCONCELOS GUSMÃO,24,7240-255,MOURÃO,-7.341942265153179,38.383453034257926
pt.ine.add.PTCONT.1371292,R DAS PALHOTAS,5,7240-100,LUZ MOU,-7.374025575632483,38.344552985563546
pt.ine.add.PTCONT.1371753,LG MIGUEL BOMBARDA,25,7240-230,MOURÃO,-7.340842715149677,38.38092194670182
pt.ine.add.PTCONT.1371754,R D DINIS,4,7240-234,MOURÃO,-7.345362282345666,38.38055929298371
pt.ine.add.PTCONT.1371760,R DE OLIVENÇA,3,7240-242,MOURÃO,-7.341322351874135,38.38381434091734
pt.ine.add.PTCONT.1371761,R MOUZINHO DE ALBUQUERQUE,7,7240-262,MOURÃO,-7.340163068091764,38.38350553878833
pt.ine.add.PTCONT.1371764,R D MANUEL I,6,7240-251,MOURÃO,-7.343543217769558,38.38011765534705
pt.ine.add.PTCONT.1371774,R DO TELHEIRO,18,7240-012,GRANJA MOU,-7.255478327610148,38.303109917042086
pt.ine.add.PTCONT.1371777,R DO POÇO,23,7240-250,MOURÃO,-7.341702610487795,38.386583275149846
pt.ine.add.PTCONT.1371787,R JOAQUIM ANTÓNIO DE CASTRO,62,7240-012,GRANJA MOU,-7.2529852435888476,38.301208747447596
pt.ine.add.PTCONT.1371788,R DAS FLORES,11,7240-012,GRANJA MOU,-7.25393994689482,38.30172190899982
pt.ine.add.PTCONT.1371789,R DE SÃO JOSÉ,19,7240-268,MOURÃO,-7.346465701405862,38.383454259983814
pt.ine.add.PTCONT.1371802,BR LUIS DE CAMÕES,,7240-224,MOURÃO,-7.339206927925914,38.38678184747409
pt.ine.add.PTCONT.1371803,R LEOVIGILDO DIAS PEREIRA RAMALHO,7,7240-259,MOURÃO,-7.3439040888306275,38.381608602219565
pt.ine.add.PTCONT.1371807,R PEDRO PITEIRA,43,7240-012,GRANJA MOU,-7.2571951536085075,38.30158677812387
pt.ine.add.PTCONT.1371808,R DO BENQUERER,3,7240-248,MOURÃO,-7.34416532976845,38.38383945306278
pt.ine.add.PTCONT.1372094,TV DOS CURRAIS,3,7240-270,MOURÃO,-7.340916181250547,38.38461072587925
pt.ine.add.PTCONT.1372579,R DA MISERICÓRDIA,33,7240-012,GRANJA MOU,-7.255508449158227,38.30204638199669
pt.ine.add.PTCONT.1372580,R ÁLVARO AFONSO,19,7240-012,GRANJA MOU,-7.254682990028096,38.301825806238284
pt.ine.add.PTCONT.1372601,R DAS FLORES,12,7240-012,GRANJA MOU,-7.254045618990093,38.30158177159683
pt.ine.add.PTCONT.1372602,R DA CRUZ,3,7240-012,GRANJA MOU,-7.256535578297123,38.30220248933775
pt.ine.add.PTCONT.1372603,R DR SÁ CARNEIRO,33,7240-100,LUZ MOU,-7.375216332915667,38.34494636043451
pt.ine.add.PTCONT.1372632,MTE DO CANHÃO,,7240-256,MOURÃO,-7.2541569444748335,38.37063536782299
pt.ine.add.PTCONT.1372633,MTE SR ANTÓNIO FERNANDES,,7240-256,MOURÃO,-7.227588432595893,38.316292048488975
pt.ine.add.PTCONT.1372664,TV DOS PINHEIROS,5,7240-271,MOURÃO,-7.344718988471417,38.38153709792295
pt.ine.add.PTCONT.1372665,R D MANUEL I,2,7240-251,MOURÃO,-7.343328349177702,38.380223877676265
pt.ine.add.PTCONT.1372666,BR LUIS DE CAMÕES,,7240-224,MOURÃO,-7.340625247440077,38.38733538606841
pt.ine.add.PTCONT.1372667,R DA PEDREIRA,4,7240-243,MOURÃO,-7.342628956086862,38.384004060664346
pt.ine.add.PTCONT.1372933,R DAS PALHOTAS,3,7240-100,LUZ MOU,-7.374003651018709,38.34447154299274
pt.ine.add.PTCONT.1372938,R GEN HUMBERTO DELGADO MONTE DO COLMEAL,,7240-253,MOURÃO,-7.3190103886053794,38.39453475457396
pt.ine.add.PTCONT.1372945,R GEN HUMBERTO DELGADO MONTE DO COLMEAL,,7240-253,MOURÃO,-7.3190103886053794,38.39453475457396
pt.ine.add.PTCONT.1372960,R DO ROSSIO,2,7240-220,MOURÃO,-7.339555422722521,38.38440835896742
pt.ine.add.PTCONT.1372962,AV NOSSA SENHORA DAS CANDEIAS,10,7240-233,MOURÃO,-7.339038851785174,38.384253793662815
pt.ine.add.PTCONT.1373359,R DOS MEIGOS,13,7240-012,GRANJA MOU,-7.257320100837866,38.3006988780921
pt.ine.add.PTCONT.1373362,R DE SÃO SEBASTIÃO,10,7240-012,GRANJA MOU,-7.255974141611085,38.30025930813513
pt.ine.add.PTCONT.1373367,R DO TELHEIRO,1,7240-012,GRANJA MOU,-7.254581000057968,38.30333581940462
pt.ine.add.PTCONT.1373372,R DA ESTRELA,43,7240-100,LUZ MOU,-7.371846037267874,38.34449602860946
pt.ine.add.PTCONT.1373376,R DE TRÁS,8,7240-100,LUZ MOU,-7.378340245766642,38.34457382174697
pt.ine.add.PTCONT.1373380,R ÁLVARO AFONSO,21,7240-012,GRANJA MOU,-7.254788138820064,38.30180423791638
pt.ine.add.PTCONT.1373381,R MACHADO DOS SANTOS,32,7240-260,MOURÃO,-7.343987146901914,38.38248154181725
pt.ine.add.PTCONT.1373387,R MANUEL PALMA JORDÃO,6,7240-223,MOURÃO,-7.343239193630636,38.38169978000348
pt.ine.add.PTCONT.1373391,R JOSE JOAQUIM VASCONCELOS GUSMÃO,8,7240-257,MOURÃO,-7.34298292646533,38.38371744338042
pt.ine.add.PTCONT.1373397,LG DO CORRO,3,7240-012,GRANJA MOU,-7.2576591672809085,38.301851203687434
pt.ine.add.PTCONT.1373398,AV NOSSA SR DAS CANDEIAS,14,7240-247,MOURÃO,-7.338910869794739,38.38443476328783
pt.ine.add.PTCONT.1373641,R MOUZINHO DE ALBUQUERQUE,5,7240-262,MOURÃO,-7.340253013881036,38.38351086943662
pt.ine.add.PTCONT.1373763,R 9 DE ABRIL,1,7240-235,MOURÃO,-7.343478520485977,38.38322626799602
pt.ine.add.PTCONT.1374338,R NOVA DE DE MOURÃO,22,7240-012,GRANJA MOU,-7.255286695839276,38.303593342943856
pt.ine.add.PTCONT.1374365,R JOAQUIM ANTÓNIO DE CASTRO,47,7240-012,GRANJA MOU,-7.252629433241203,38.30037629031579
pt.ine.add.PTCONT.1374366,R DO MEIO,9,7240-100,LUZ MOU,-7.377850067440308,38.344624938751224
pt.ine.add.PTCONT.1374367,LG ROGERIO BAÇÃO BARRETO,6,7240-273,MOURÃO,-7.3387425140002644,38.38611707193105
pt.ine.add.PTCONT.1374383,EN 256 1,,7240-253,MOURÃO,-7.260665552454811,38.381313984556726
pt.ine.add.PTCONT.1374384,CM 1135 COUTADA DA ALBUFEIRA,,7240-204,MOURÃO,-7.319459042631316,38.390249832685896
pt.ine.add.PTCONT.1374385,R NOVA DE MOURA,8,7240-267,MOURÃO,-7.343231851473636,38.38091537486288
pt.ine.add.PTCONT.1374386,R DA ESCOLA,9,7240-238,MOURÃO,-7.341688597814911,38.38050418210758
pt.ine.add.PTCONT.1374387,BALDIO VALE DAS LAPAS ZONA INDUSTRIAL,,7240-264,MOURÃO,-7.347592668590836,38.37844616273364
pt.ine.add.PTCONT.1374388,R DE SÃO JOSÉ,25,7240-268,MOURÃO,-7.346599393006997,38.38332341211819
pt.ine.add.PTCONT.1374389,R JOSÉ TEODORO DE ABREU BRAVO,6,7240-258,MOURÃO,-7.344418312447215,38.3838451858239
pt.ine.add.PTCONT.1374390,R S BENTO,12,7240-266,MOURÃO,-7.345556662684192,38.38362883813486
pt.ine.add.PTCONT.1374391,R S BENTO,N 9,7240-266,MOURÃO,-7.345556662684192,38.38362883813486
pt.ine.add.PTCONT.1374418,R D MANUEL I,26,7240-251,MOURÃO,-7.344694887498632,38.37955004633208
pt.ine.add.PTCONT.1374443,AV PAPA JOÃO PAULO II,12,7240-238,MOURÃO,-7.341202697456178,38.38009301876421
pt.ine.add.PTCONT.1374456,R DOUTOR MANUEL RAMOS,29,7240-246,MOURÃO,-7.339800348060603,38.381196465480016
pt.ine.add.PTCONT.1374473,R DR LIBANIO ESQUIVEL,23,7240-256,MOURÃO,-7.340620284701353,38.38239466579055
pt.ine.add.PTCONT.1374905,R SÉRGIO VIEIRA DE MELO,14,7240-220,MOURÃO,-7.338972438697845,38.3852129330938
pt.ine.add.PTCONT.1374914,R DA CORREDOURA,5,7240-012,GRANJA MOU,-7.256471199185931,38.305249349024386
pt.ine.add.PTCONT.1374915,R SACADURA CABRAL,20,7240-264,MOURÃO,-7.3435879064255545,38.37958915394001
pt.ine.add.PTCONT.1374921,R NOVA DE DE MOURÃO,29,7240-012,GRANJA MOU,-7.255505548955193,38.303988974421024
pt.ine.add.PTCONT.1374923,R NOVA,12,7240-100,LUZ MOU,-7.378476952313444,38.345944227677016
pt.ine.add.PTCONT.1374924,LG MIGUEL BOMBARDA,2,7240-230,MOURÃO,-7.3408118002093055,38.38130614166324
pt.ine.add.PTCONT.1374937,ESTR DA BARCA TAPADAS DO JARDIM,,7240-270,MOURÃO,-7.347553613461385,38.38333377064194
pt.ine.add.PTCONT.1374941,R DE SÃO JOÃO,9,7240-267,MOURÃO,-7.342973905471936,38.38232018918933
pt.ine.add.PTCONT.1374942,LG TEN GENERAL JOSÉ ANTÓNIO DA ROSA,14,7240-231,MOURÃO,-7.342597038779142,38.38179134788598
pt.ine.add.PTCONT.1374945,R DO MONTINHO,46,7240-100,LUZ MOU,-7.374960860119928,38.34375273487258
pt.ine.add.PTCONT.1374951,R PEDRO PITEIRA,30,7240-012,GRANJA MOU,-7.256978632212365,38.30197092399839
pt.ine.add.PTCONT.1374952,R ALTO DA FORCA,20,7240-247,MOURÃO,-7.339277201784713,38.38349422001053
pt.ine.add.PTCONT.1374955,R DE SÃO JOÃO,31,7240-267,MOURÃO,-7.342590399661196,38.38112742369878
pt.ine.add.PTCONT.1374956,R JOAQUIM SILVESTRE VASCONCELOS ROSADO,4,7240-256,MOURÃO,-7.342856368538713,38.38255491894101
pt.ine.add.PTCONT.1374957,R JOAQUIM SILVESTRE VASCONCELOS ROSADO,2,7240-256,MOURÃO,-7.3430011574594225,38.382559759569155
pt.ine.add.PTCONT.1384936,R NOVA,43,7240-100,LUZ MOU,-7.3769068293828175,38.34502581705633
pt.ine.add.PTCONT.1375247,R MOUZINHO DE ALBUQUERQUE,16,7240-262,MOURÃO,-7.339700696490655,38.38353783708274
pt.ine.add.PTCONT.1375299,R DE OLIVENÇA,23,7240-242,MOURÃO,-7.340710112952363,38.38433269724468
pt.ine.add.PTCONT.1375674,R DR LIBANIO ESQUIVEL,9,7240-256,MOURÃO,-7.34124861734579,38.38247988574603
pt.ine.add.PTCONT.1375681,MTE POSTO DAS FERRARIAS,,7240-253,MOURÃO,-7.322298408690013,38.42604209811748
pt.ine.add.PTCONT.1375682,MTE POSTO DAS FERRARIAS,,7240-253,MOURÃO,-7.322298408690013,38.42604209811748
pt.ine.add.PTCONT.1375683,MTE POSTO DAS FERRARIAS,,7240-253,MOURÃO,-7.322298408690013,38.42604209811748
pt.ine.add.PTCONT.1375687,R DE TRÁS,26,7240-100,LUZ MOU,-7.378367243862466,38.34549309253102
pt.ine.add.PTCONT.1375694,PC DA REPÚBLICA,7 A,7240-233,MOURÃO,-7.344471641419733,38.383015070113835
pt.ine.add.PTCONT.1375703,R JOAQUIM SILVESTRE VASCONCELOS ROSADO,3,7240-256,MOURÃO,-7.342806062770477,38.38246754139901
pt.ine.add.PTCONT.1375707,R PEDRO PITEIRA,9,7240-012,GRANJA MOU,-7.2568828444251405,38.30290593274652
pt.ine.add.PTCONT.1375708,R ALTO DA FORCA,4,7240-247,MOURÃO,-7.3395377206312995,38.3826787422053
pt.ine.add.PTCONT.1375713,R NOVA DE MOURA,4,7240-267,MOURÃO,-7.343317282131008,38.380836889071105
pt.ine.add.PTCONT.1375931,MTE POSTO DAS FERRARIAS,,7240-253,MOURÃO,-7.322298408690013,38.42604209811748
pt.ine.add.PTCONT.1376453,R DOS MEIGOS,6,7240-012,GRANJA MOU,-7.2570348511197365,38.300869514695144
pt.ine.add.PTCONT.1376454,R DA TAPADA,2,7240-100,LUZ MOU,-7.377726406386037,38.343857459528635
pt.ine.add.PTCONT.1376485,R DR TITO FERNANDES,4,7240-273,MOURÃO,-7.338362506456401,38.38527891983861
pt.ine.add.PTCONT.1376486,R SÉRGIO VIEIRA DE MELO,10,7240-220,MOURÃO,-7.339002721716556,38.385036443679155
pt.ine.add.PTCONT.1376487,TV DAS EIRAS,13,7240-220,MOURÃO,-7.339876721066965,38.38484761626156
pt.ine.add.PTCONT.1376488,R DE OLIVENÇA,1,7240-242,MOURÃO,-7.341422097159993,38.38374146736039
pt.ine.add.PTCONT.1376489,R DA FÁBRICA,13,7240-239,MOURÃO,-7.341155899869648,38.38163978896827
pt.ine.add.PTCONT.1376490,R DA LAPA,24,7240-240,MOURÃO,-7.341584743239192,38.383637443641035
pt.ine.add.PTCONT.1376536,R DE SÃO JOSÉ,5,7240-268,MOURÃO,-7.346157550039983,38.38374117924591
pt.ine.add.PTCONT.1376532,R DA MISERICÓRDIA,23,7240-012,GRANJA MOU,-7.255091378000936,38.30215794013395
pt.ine.add.PTCONT.1376533,R SACADURA CABRAL,1,7240-264,MOURÃO,-7.343081864399851,38.37996575258185
pt.ine.add.PTCONT.1376534,R DA PEDREIRA,22,7240-243,MOURÃO,-7.342054160563756,38.383845418891774
pt.ine.add.PTCONT.1376535,R DE SÃO SEBASTIÃO,14,7240-245,MOURÃO,-7.341488893626844,38.38424880272731
pt.ine.add.PTCONT.1376627,R R,,7240-100,LUZ MOU,-7.377511019948726,38.34471728879458
pt.ine.add.PTCONT.1376671,TV PUBLICA,,7240-012,GRANJA MOU,-7.257422116295187,38.3028435747089
pt.ine.add.PTCONT.1376680,BALDIO VALE DAS LAPAS ZONA INDUSTRIAL,,7240-264,MOURÃO,-7.3476683372503775,38.37837936891358
pt.ine.add.PTCONT.1376810,R MANUEL PALMA JORDÃO,8,7240-223,MOURÃO,-7.343305423898141,38.381685662186804
pt.ine.add.PTCONT.1376811,R PADRE INACIO NUNES BRANCO,10,7240-221,MOURÃO,-7.34495218072158,38.381008044870995
pt.ine.add.PTCONT.1376812,R MARCOS GOMES VASCONCELOS ROSADO,20,7240-261,MOURÃO,-7.341949852985175,38.38294475255225
pt.ine.add.PTCONT.1376813,R JOAQUIM JOSE VASCONCELOS GUSMÃO,19,7240-255,MOURÃO,-7.3416674222144716,38.38342207609613
pt.ine.add.PTCONT.1376814,R JOAQUIM SILVESTRE VASCONCELOS ROSADO,6,7240-256,MOURÃO,-7.342765616223136,38.382566791106534
pt.ine.add.PTCONT.1377304,R JOAQUIM ANTÓNIO DE CASTRO,18,7240-019,GRANJA MOU,-7.254911229205436,38.30439229608432
pt.ine.add.PTCONT.1377305,R JOAQUIM ANTÓNIO DE CASTRO,66,7240-012,GRANJA MOU,-7.252908033645837,38.30107241597054
pt.ine.add.PTCONT.1377306,R DAS FLORES,8,7240-012,GRANJA MOU,-7.253877331770806,38.301607768486235
pt.ine.add.PTCONT.1377307,MTE DAS BATARDINHAS,,7240-014,GRANJA MOU,-7.212898335113567,38.25450494977707
pt.ine.add.PTCONT.1377308,R DA CRUZ,19,7240-019,GRANJA MOU,-7.256403992165056,38.30170703108503
pt.ine.add.PTCONT.1377309,R DE SÃO SEBASTIÃO,5,7240-012,GRANJA MOU,-7.256303675325905,38.30047115744464
pt.ine.add.PTCONT.1377310,R NOVA,40,7240-100,LUZ MOU,-7.377362369878011,38.34512382865133
pt.ine.add.PTCONT.1377341,R DO ROSSIO,18,7240-100,LUZ MOU,-7.375112195935668,38.3442380965829
pt.ine.add.PTCONT.1377342,R DA IGREJA,26,7240-100,LUZ MOU,-7.378000609670625,38.344150588390534
pt.ine.add.PTCONT.1377343,TV DAS EIRAS,9,7240-220,MOURÃO,-7.339645714052596,38.384795836742825
pt.ine.add.PTCONT.1377344,EN 256 1 HORTA DOS RAMOS À FAIA,,7240-256,MOURÃO,-7.311916281941343,38.38011673443433
pt.ine.add.PTCONT.1377409,R REVERENDO DEAO ALCANTARA GUERREIRO,9,7240-273,MOURÃO,-7.33931145829006,38.386553242205835
pt.ine.add.PTCONT.1377843,R DOS MEIGOS,5,7240-012,GRANJA MOU,-7.2571203673693185,38.30093290445189
pt.ine.add.PTCONT.1377849,R DIREITA,12,7240-012,GRANJA MOU,-7.2534354355308786,38.30059195010958
pt.ine.add.PTCONT.1377855,R JOAQUIM ANTÓNIO DE CASTRO,22,7240-019,GRANJA MOU,-7.254759886103271,38.30412474587906
pt.ine.add.PTCONT.1377858,R JOAQUIM ANTÓNIO DE CASTRO,27,7240-012,GRANJA MOU,-7.2548261868825765,38.30386015316286
pt.ine.add.PTCONT.1377863,R DA MISERICÓRDIA,1,7240-012,GRANJA MOU,-7.253978296769109,38.302548413117584
pt.ine.add.PTCONT.1377868,R DE SÃO BENTO,17,7240-266,MOURÃO,-7.3456104940536235,38.383587559753494
pt.ine.add.PTCONT.1377883,R NOVA DE MOURA,14,7240-267,MOURÃO,-7.343114277982223,38.38103317332799
pt.ine.add.PTCONT.1378133,R DE SÃO SEBASTIÃO,39,7240-245,MOURÃO,-7.341627338180016,38.38496987921568
pt.ine.add.PTCONT.1378591,R DAS FLORES,60,7240-012,GRANJA MOU,-7.2561487231401625,38.30099539512099
pt.ine.add.PTCONT.1378599,R SACADURA CABRAL,26,7240-264,MOURÃO,-7.344077979902204,38.379356127779644
pt.ine.add.PTCONT.1378601,R CRISTÓVÃO MENDONÇA,1,7240-229,MOURÃO,-7.345518840680538,38.38415535650056
pt.ine.add.PTCONT.1378605,CM 1135 QTA MARIZE,,7240-253,MOURÃO,-7.301595915307366,38.38889932416636
pt.ine.add.PTCONT.1378609,MTE DO ESPARGUEIRO,10,7240-256,MOURÃO,-7.2462567493217795,38.344830648942306
pt.ine.add.PTCONT.1378610,R DE SÃO SEBASTIÃO,52,7240-245,MOURÃO,-7.3420109866418715,38.38544623607451
pt.ine.add.PTCONT.1378611,R DO POÇO,17,7240-250,MOURÃO,-7.3418947438729685,38.38657083148994
pt.ine.add.PTCONT.1378615,R DO MEIO,13,7240-100,LUZ MOU,-7.377848477188914,38.34477807441309
pt.ine.add.PTCONT.1378623,R NOVA,29,7240-012,GRANJA MOU,-7.254521151354704,38.300880600022985
pt.ine.add.PTCONT.1378626,R DE SÃO JOÃO,32,7240-267,MOURÃO,-7.3424240874630415,38.38100085224359
pt.ine.add.PTCONT.1378627,R DE SÃO BENTO,36,7240-266,MOURÃO,-7.344880252255024,38.38326519289229
pt.ine.add.PTCONT.1378628,R DE SANTA MARGARIDA,,7240-265,MOURÃO,-7.345475302184947,38.38395942892334
pt.ine.add.PTCONT.1378631,BR EXPANSAO POENTE,11,7240-221,MOURÃO,-7.3448629985554525,38.38094725936878
pt.ine.add.PTCONT.1378634,R PADRE INACIO NUNES BRANCO,2,7240-221,MOURÃO,-7.344552125737686,38.38070582597436
pt.ine.add.PTCONT.1378635,R MANUEL PALMA JORDÃO,5,7240-223,MOURÃO,-7.343726412328519,38.38113925344494
pt.ine.add.PTCONT.1378880,R JOSE JOAQUIM VASCONCELOS GUSMÃO,14,7240-257,MOURÃO,-7.342978894971306,38.38386151357149
pt.ine.add.PTCONT.1379294,R DE SÃO BRÁS,6,7240-012,GRANJA MOU,-7.256942139871645,38.30146418341388
pt.ine.add.PTCONT.1379295,TV DAS EIRAS,5,7240-220,MOURÃO,-7.33944035407039,38.38477584936265
pt.ine.add.PTCONT.1379297,R DE SÃO SEBASTIÃO,13,7240-019,GRANJA MOU,-7.256248975617916,38.30072117913568
pt.ine.add.PTCONT.1379298,R 12 DE DEZEMBRO,5,7240-234,MOURÃO,-7.344391516330685,38.38035716826712
pt.ine.add.PTCONT.1379326,R DAS FLORES,21,7240-012,GRANJA MOU,-7.254424742911967,38.30159212983531
pt.ine.add.PTCONT.1379309,HRD TOJEIRA,,7240-238,MOURÃO,-7.345713491114763,38.359872231515254
pt.ine.add.PTCONT.1379315,LG GOVERNADOR FURTADO MENDONÇA,9,7240-229,MOURÃO,-7.345612234193957,38.38411209720086
pt.ine.add.PTCONT.1379320,R DA CANHOTA,21,7240-012,GRANJA MOU,-7.255699919776846,38.302506396260284
pt.ine.add.PTCONT.1379322,R DE SÃO JOSÉ,15,7240-268,MOURÃO,-7.346386593015254,38.38353022574542
pt.ine.add.PTCONT.1379327,R JOSÉ TEODORO DE ABREU BRAVO,8,7240-258,MOURÃO,-7.344387248645467,38.383900921450284
pt.ine.add.PTCONT.1379328,R JOÃO JOSE VASCONCELOS ROSADO,5,7240-254,MOURÃO,-7.34388111572838,38.38422722265971
pt.ine.add.PTCONT.1379331,BR LUIS CAMOES,34,7240-224,MOURÃO,-7.339087693133137,38.386493959696715
pt.ine.add.PTCONT.1379332,R DO ALCANCE,45,7240-246,MOURÃO,-7.341784162406407,38.38113918581039
pt.ine.add.PTCONT.1379333,R LEOVIGILDO DIAS PEREIRA RAMALHO,9,7240-259,MOURÃO,-7.344032258967726,38.38173221408948
pt.ine.add.PTCONT.1379340,R JOAQUIM SILVESTRE VASCONCELOS ROSADO,12,7240-256,MOURÃO,-7.342513882342862,38.38259006340632
pt.ine.add.PTCONT.1379603,R DE SÃO SEBASTIÃO,55,7240-245,MOURÃO,-7.3418839961794164,38.38544129543264
pt.ine.add.PTCONT.1379623,R DO TELHEIRO,4,7240-012,GRANJA MOU,-7.254667209744289,38.30317304489377
pt.ine.add.PTCONT.1380160,MTE PALHEIROS,,7240-016,GRANJA MOU,-7.18358769517761,38.27608124864492
pt.ine.add.PTCONT.1380111,R DE OLIVENÇA,21,7240-242,MOURÃO,-7.340779466105527,38.38427010650109
pt.ine.add.PTCONT.1380112,R D MANUEL I,13,7240-251,MOURÃO,-7.343868079516053,38.38011647466227
pt.ine.add.PTCONT.1380113,R NOVA,12,7240-012,GRANJA MOU,-7.253775115768841,38.30101622210122
pt.ine.add.PTCONT.1380127,R DA CORREDOURA,3,7240-012,GRANJA MOU,-7.256482054342962,38.30536333191694
pt.ine.add.PTCONT.1380133,R NOVA DE DE MOURÃO,10,7240-012,GRANJA MOU,-7.255367941807551,38.304440757444965
pt.ine.add.PTCONT.1380134,R DE TRÁS,23,7240-100,LUZ MOU,-7.378509923119357,38.34497151302356
pt.ine.add.PTCONT.1380140,R DR SÁ CARNEIRO,22,7240-100,LUZ MOU,-7.375472209300288,38.344726717250815
pt.ine.add.PTCONT.1380141,R S SEBASTIAO,25,7240-245,MOURÃO,-7.341496298886841,38.38462960799237
pt.ine.add.PTCONT.1380149,R DAS FLORES,32,7240-012,GRANJA MOU,-7.254936615293769,38.30133857703974
pt.ine.add.PTCONT.1380154,LG TEN GENERAL JOSÉ ANTÓNIO DA ROSA,18,7240-231,MOURÃO,-7.342441807598438,38.38198221015071
pt.ine.add.PTCONT.1380155,LG FURTADO MENDONÇA,7,7240-229,MOURÃO,-7.345626729567937,38.3839993441071
pt.ine.add.PTCONT.1380161,R LEOVIGILDO DIAS PEREIRA RAMALHO,5,7240-259,MOURÃO,-7.343877908076132,38.381585539839456
pt.ine.add.PTCONT.1380172,R ANTÓNIO JOAQUIM BORGES BARRETO,2,7240-273,MOURÃO,-7.337814082734701,38.38529864137215
pt.ine.add.PTCONT.1380480,R DO ROSSIO,18,7240-227,MOURÃO,-7.340308226541239,38.38550108534162
pt.ine.add.PTCONT.1380831,TV DAS EIRAS,1,7240-220,MOURÃO,-7.339237010693315,38.38478749422469
pt.ine.add.PTCONT.1380835,R DAS FLORES,62,7240-012,GRANJA MOU,-7.256221521300508,38.30096615246007
pt.ine.add.PTCONT.1380847,R NOVA,16,7240-100,LUZ MOU,-7.3783636914897714,38.3458353957596
pt.ine.add.PTCONT.1380849,R DE TRÁS,34,7240-100,LUZ MOU,-7.378627986041358,38.3457199850255
pt.ine.add.PTCONT.1380853,R B,2,7240-100,LUZ MOU,-7.378153355755992,38.34520925068165
pt.ine.add.PTCONT.1380854,EN 385 MONTE LUIS DANIEL,,7240-256,MOURÃO,-7.332476850585585,38.379529271978335
pt.ine.add.PTCONT.1380859,R DA MISERICÓRDIA,42,7240-012,GRANJA MOU,-7.255718083611652,38.301846853417786
pt.ine.add.PTCONT.1380860,R DE SÃO SEBASTIÃO,11,7240-245,MOURÃO,-7.341392305247807,38.38428042969355
pt.ine.add.PTCONT.1380868,PQ MARIA CRISTINA,3,7240-232,MOURÃO,-7.34648616915763,38.38405786468003
pt.ine.add.PTCONT.1380872,R DO CEMITÉRIO,1,7240-012,GRANJA MOU,-7.255170919318232,38.29948607850116
pt.ine.add.PTCONT.1380873,LG TEN GENERAL JOSÉ ANTÓNIO DA ROSA,22,7240-261,MOURÃO,-7.342340376838015,38.38211192503808
pt.ine.add.PTCONT.1380876,MTE DO JOSE TEODORO,,7240-020,GRANJA MOU,-7.221000305584435,38.26348674626957
pt.ine.add.PTCONT.1380877,R JOAQUIM JOSE VASCONCELOS GUSMÃO,12,7240-255,MOURÃO,-7.342337836682734,38.38338902780627
pt.ine.add.PTCONT.1381134,R MANUEL PALMA JORDÃO,1,7240-223,MOURÃO,-7.343403637941789,38.381353283747146
pt.ine.add.PTCONT.1381257,R JOSE JOAQUIM VASCONCELOS GUSMÃO,6,7240-257,MOURÃO,-7.342998918990717,38.383653856528575
pt.ine.add.PTCONT.1381258,R DE SÃO BENTO,18,7240-266,MOURÃO,-7.345392946262504,38.3835406195421
pt.ine.add.PTCONT.1381259,R DE SANTA MARGARIDA,5,7240-265,MOURÃO,-7.345143809049464,38.383855556348045
pt.ine.add.PTCONT.1381260,R JOSÉ TEODORO DE ABREU BRAVO,3,7240-258,MOURÃO,-7.344321007649939,38.38380753137148
pt.ine.add.PTCONT.1381792,R DA CORREDOURA,50,7240-012,GRANJA MOU,-7.255710227822946,38.30165065797481
pt.ine.add.PTCONT.1381793,R NOVA,14,7240-100,LUZ MOU,-7.378408883604053,38.34588973811486
pt.ine.add.PTCONT.1381821,R DR SÁ CARNEIRO,14,7240-100,LUZ MOU,-7.375730194254366,38.34469010636101
pt.ine.add.PTCONT.1381822,R MOUZINHO DE ALBUQUERQUE,10,7240-262,MOURÃO,-7.340099194129232,38.383585397711
pt.ine.add.PTCONT.1381823,R DA MURALHA,11,7240-241,MOURÃO,-7.340670232434839,38.383492432312465
pt.ine.add.PTCONT.1381861,R DO NORTE,17,7240-249,MOURÃO,-7.34304216570271,38.383003487868805
pt.ine.add.PTCONT.1381918,R DO ALCANCE,21,7240-246,MOURÃO,-7.34072087393063,38.38165833181514
pt.ine.add.PTCONT.1381975,R D MANUEL I,15,7240-251,MOURÃO,-7.344112938080093,38.38000372382829
pt.ine.add.PTCONT.1382373,R NOVA,11,7240-012,GRANJA MOU,-7.253744900817231,38.30113889249218
pt.ine.add.PTCONT.1382374,MTE DAS AMARELAS,,7240-016,GRANJA MOU,-7.11601768681445,38.197149156331356
pt.ine.add.PTCONT.1382375,R DE VALADARES,6,7240-019,GRANJA MOU,-7.256624979519053,38.3006845694872
pt.ine.add.PTCONT.1382376,R DO ROSSIO,29,7240-100,LUZ MOU,-7.374423553597101,38.34435317887184
pt.ine.add.PTCONT.1382423,R ANTÓNIO JOAQUIM BORGES BARRETO,12,7240-273,MOURÃO,-7.337829854011658,38.38595688332617
pt.ine.add.PTCONT.1382424,R DR TITO FERNANDES,16,7240-273,MOURÃO,-7.33841178247852,38.38604295770672
pt.ine.add.PTCONT.1382425,AV PAPA JOAO PAULO II,28,7240-246,MOURÃO,-7.340114404259514,38.38132913087362
pt.ine.add.PTCONT.1382426,MTE ORVALHA,,7240-268,MOURÃO,-7.196564402210151,38.29695932010591
pt.ine.add.PTCONT.1382427,BR DR JOSE TOMAS RAVASCO ANJOS,15,7240-223,MOURÃO,-7.344056857729387,38.38123890337951
pt.ine.add.PTCONT.1382428,LG FURTADO MENDONÇA,8 D,7240-229,MOURÃO,-7.345476371702972,38.38384360922551
pt.ine.add.PTCONT.1382429,PC DA REPÚBLICA,20,7240-233,MOURÃO,-7.343733389171854,38.38335574678136
pt.ine.add.PTCONT.1382471,R NOVA DE DE MOURÃO,33,7240-012,GRANJA MOU,-7.2554888925683425,38.30386511334854
pt.ine.add.PTCONT.1382472,R DO TELHEIRO,19,7240-012,GRANJA MOU,-7.2559262612950555,38.30321461505516
pt.ine.add.PTCONT.1382473,R DO ALCANCE,26,7240-246,MOURÃO,-7.34162068728707,38.38106473038623
pt.ine.add.PTCONT.1382474,ESTR DA BARCA MONTE DOS GRAVATOS,,7240-263,MOURÃO,-7.351228811469,38.38852021617903
pt.ine.add.PTCONT.1382475,R DE SÃO SEBASTIÃO,17 A,7240-245,MOURÃO,-7.341429481188306,38.384401890201104
pt.ine.add.PTCONT.1382681,R DA MURALHA,7,7240-241,MOURÃO,-7.34070198041344,38.383332064904934
pt.ine.add.PTCONT.1382752,R 25 DE ABRIL,8,7240-224,MOURÃO,-7.339180468008095,38.38520504004429
pt.ine.add.PTCONT.1383074,R DE SÃO BRÁS,2,7240-012,GRANJA MOU,-7.256797081543887,38.301568562425565
pt.ine.add.PTCONT.1383075,R D DINIS,8,7240-234,MOURÃO,-7.345124136817732,38.38083906791483
pt.ine.add.PTCONT.1383081,R DA MURALHA,16,7240-241,MOURÃO,-7.340913669478294,38.383541201191434
pt.ine.add.PTCONT.1383082,R DR LIBANIO ESQUIVEL,8,7240-256,MOURÃO,-7.3411907198814985,38.38259541250163
pt.ine.add.PTCONT.1383086,R DE VALADARES,9,7240-012,GRANJA MOU,-7.25690598587991,38.30070496708137
pt.ine.add.PTCONT.1383093,R DA CORREDOURA,20,7240-012,GRANJA MOU,-7.2561985058402865,38.30424110463769
pt.ine.add.PTCONT.1383098,EN 256 1,,7240-204,MOURÃO,-7.323690220510208,38.38237867837219
pt.ine.add.PTCONT.1383101,MTE SR INÁCIO CHUMBO,,7240-256,MOURÃO,-7.318616096535424,38.380703986095874
pt.ine.add.PTCONT.1383103,R ÁLVARO AFONSO,23,7240-012,GRANJA MOU,-7.25487682492292,38.30177797348785
pt.ine.add.PTCONT.1383106,LG DAS PORTAS DE SÃO BENTO,1,7240-270,MOURÃO,-7.345688008898083,38.38296669697162
pt.ine.add.PTCONT.1383111,R DAS FLORES,44,7240-012,GRANJA MOU,-7.255484577581761,38.3011840251892
pt.ine.add.PTCONT.1383112,R NOVA,7,7240-012,GRANJA MOU,-7.253565130979439,38.30119927240008
pt.ine.add.PTCONT.1383113,R DE SANTA MARGARIDA,6,7240-265,MOURÃO,-7.3453818885333355,38.384056893068646
pt.ine.add.PTCONT.1383117,R DO MONTINHO,20,7240-100,LUZ MOU,-7.376042755679291,38.343734170992796
pt.ine.add.PTCONT.1383119,R PROF AGOSTINHO FORTES,12,7240-273,MOURÃO,-7.340032305174197,38.38614266014895
pt.ine.add.PTCONT.1383123,R DA CORREDOURA,39,7240-012,GRANJA MOU,-7.256219893977972,38.302996747981425
pt.ine.add.PTCONT.1383127,R MARCOS GOMES VASCONCELOS ROSADO,33,7240-261,MOURÃO,-7.341816927678427,38.38284006384024
pt.ine.add.PTCONT.1383343,R MURALHA,16,7240-241,MOURÃO,-7.340913669478294,38.383541201191434
pt.ine.add.PTCONT.1383380,BR ALTO DA ESCOLA,8,7240-012,GRANJA MOU,-7.255918415947198,38.305623428963095
pt.ine.add.PTCONT.1383382,R LEOVIGILDO DIAS PEREIRA RAMALHO,13,7240-259,MOURÃO,-7.344191987916877,38.3818706022676
pt.ine.add.PTCONT.1383865,R DE SÃO BENTO,19,7240-266,MOURÃO,-7.3455767345663565,38.38356817276115
pt.ine.add.PTCONT.1383866,ESTR DA BARCA,4,7240-263,MOURÃO,-7.346409477612483,38.38327385573824
pt.ine.add.PTCONT.1383867,R DE SÃO SEBASTIÃO,38,7240-245,MOURÃO,-7.341795782622524,38.38505691520704
pt.ine.add.PTCONT.1383868,R DE SÃO SEBASTIÃO,37,7240-245,MOURÃO,-7.341574599361909,38.38486346509747
pt.ine.add.PTCONT.1383901,R ÁLVARO AFONSO,35,7240-012,GRANJA MOU,-7.255393011455421,38.3016576239974
pt.ine.add.PTCONT.1383902,R DA MISERICÓRDIA,18,7240-012,GRANJA MOU,-7.254767472087465,38.30218240580184
pt.ine.add.PTCONT.1383903,R JOAQUIM ANTÓNIO DE CASTRO,74,7240-012,GRANJA MOU,-7.252723164055843,38.30078798613441
pt.ine.add.PTCONT.1383904,R DA CRUZ,7,7240-012,GRANJA MOU,-7.256506427206174,38.302046265347485
pt.ine.add.PTCONT.1383905,R NOVA,40,7240-012,GRANJA MOU,-7.254898375047685,38.30069184465672
pt.ine.add.PTCONT.1383906,R DO BENQUERER,11,7240-248,MOURÃO,-7.34386476328722,38.38370156890558
pt.ine.add.PTCONT.1383941,R DO ROSSIO,20,7240-100,LUZ MOU,-7.374976258362522,38.344245389473585
pt.ine.add.PTCONT.1383942,R DA LAPA,25,7240-240,MOURÃO,-7.341469715486525,38.38362267397959
pt.ine.add.PTCONT.1384096,R DE VALADARES,7,7240-012,GRANJA MOU,-7.256885629805573,38.300738844959604
pt.ine.add.PTCONT.1384113,R JOAQUIM JOSE VASCONCELOS GUSMÃO,18,7240-255,MOURÃO,-7.3420910886495205,38.383433946925486
pt.ine.add.PTCONT.1384114,R DA FÁBRICA,14,7240-239,MOURÃO,-7.3409973978076,38.381835267496015
pt.ine.add.PTCONT.1384689,R NOVA DE DE MOURÃO,17,7240-012,GRANJA MOU,-7.25555697805243,38.304414571363374
pt.ine.add.PTCONT.1384728,MTE CASA DO CABREIRO,,7240-016,GRANJA MOU,-7.1565763587975715,38.26808513671173
pt.ine.add.PTCONT.1384729,R DIREITA,26,7240-012,GRANJA MOU,-7.2539918912125705,38.30040151473474
pt.ine.add.PTCONT.1384730,R DO MEIO,6,7240-100,LUZ MOU,-7.3775861253905655,38.344942657568545
pt.ine.add.PTCONT.1384731,BR LUIS DE CAMÕES,,7240-224,MOURÃO,-7.339228832342812,38.386872080822144
pt.ine.add.PTCONT.1384758,R MOUZINHO DE ALBUQUERQUE,4,7240-262,MOURÃO,-7.340406414065905,38.383629312918934
pt.ine.add.PTCONT.1384759,EN 256 1,,7240-253,MOURÃO,-7.261145638655688,38.38136259893926
pt.ine.add.PTCONT.1384792,R 12 DEZEMBRO,17,7240-234,MOURÃO,-7.344552559935948,38.3803131091173
pt.ine.add.PTCONT.1384793,R DA PEDREIRA,32,7240-243,MOURÃO,-7.34167031626693,38.383857857784946
pt.ine.add.PTCONT.1384794,R DE SÃO SEBASTIÃO,41,7240-245,MOURÃO,-7.341676459575338,38.385055056562095
pt.ine.add.PTCONT.1384795,R DE OLIVENÇA,30,7240-242,MOURÃO,-7.340480600213465,38.38497074934506
pt.ine.add.PTCONT.1384878,R MOUZINHO DE ALBUQUERQUE,2,7240-262,MOURÃO,-7.340599613938799,38.38364073037678
pt.ine.add.PTCONT.1385322,R VASCO DA GAMA,17,7240-269,MOURÃO,-7.3396073427677795,38.38386327974141
pt.ine.add.PTCONT.1385324,R DIREITA,30,7240-012,GRANJA MOU,-7.254135987478991,38.30035426351511
pt.ine.add.PTCONT.1385327,R DE SÃO SEBASTIÃO,3,7240-012,GRANJA MOU,-7.2563227286610275,38.300507536898635
pt.ine.add.PTCONT.1385332,R NOVA,8,7240-100,LUZ MOU,-7.3786011844784545,38.34609817298382
pt.ine.add.PTCONT.1385342,R DE TRÁS,22,7240-100,LUZ MOU,-7.378326773635177,38.34506525050834
pt.ine.add.PTCONT.1385345,R DAS PALHOTAS,7,7240-100,LUZ MOU,-7.374047699582682,38.344625197426
pt.ine.add.PTCONT.1385346,MTE MALHADA DA GATA,,7240-256,MOURÃO,-7.218172371224872,38.303093515321294
pt.ine.add.PTCONT.1385355,R DO MONTINHO,56,7240-100,LUZ MOU,-7.374608012992048,38.34372261292994
pt.ine.add.PTCONT.1385356,R DE MOURA,2,7240-100,LUZ MOU,-7.372996046866115,38.342751056579985
pt.ine.add.PTCONT.1385360,BR LUIS DE CAMÕES,,7240-224,MOURÃO,-7.339535966266861,38.38704532198033
pt.ine.add.PTCONT.1385364,R DO ALCANCE,67,7240-266,MOURÃO,-7.342519841616595,38.38077194409507
pt.ine.add.PTCONT.1386154,R VASCO DA GAMA,11,7240-269,MOURÃO,-7.339904015201245,38.38390065496212
pt.ine.add.PTCONT.1386155,BR DR JOSE TOMAS RAVASCO ANJOS,9,7240-223,MOURÃO,-7.344306099863885,38.38146693580925
pt.ine.add.PTCONT.1386156,MTE HORTA DO SENHOR,,7240-263,MOURÃO,-7.333716550750646,38.37087154113891
pt.ine.add.PTCONT.1386191,R ÁLVARO AFONSO,11,7240-012,GRANJA MOU,-7.254339301409666,38.30192094535674
pt.ine.add.PTCONT.1386192,R ÁLVARO AFONSO,31,7240-012,GRANJA MOU,-7.255229788468129,38.30171002614308
pt.ine.add.PTCONT.1386193,MTE DA SARDINHA,,7240-019,GRANJA MOU,-7.263395140163551,38.32249066485651
pt.ine.add.PTCONT.1386194,R PEDRO PITEIRA,8,7240-012,GRANJA MOU,-7.25679576097088,38.30271892525863
pt.ine.add.PTCONT.1386195,R DIREITA,13,7240-012,GRANJA MOU,-7.253952476856017,38.300534581521944
pt.ine.add.PTCONT.1386196,R DE SÃO SEBASTIÃO,18,7240-245,MOURÃO,-7.341525937609993,38.38438238325749
pt.ine.add.PTCONT.1386353,BR LUIS DE CAMÕES,,7240-224,MOURÃO,-7.340502989983982,38.387361584968694
pt.ine.add.PTCONT.1386360,R DO TELHEIRO,17,7240-012,GRANJA MOU,-7.255773698940597,38.30322062508297
pt.ine.add.PTCONT.1386381,R DE TRÁS,1,7240-100,LUZ MOU,-7.378516465446849,38.34434095431446
pt.ine.add.PTCONT.1386722,R DR SÁ CARNEIRO,36,7240-100,LUZ MOU,-7.374745705117414,38.344910227382634
pt.ine.add.PTCONT.1386723,R DR LIBANIO ESQUIVEL,28,7240-256,MOURÃO,-7.34047546857511,38.38253351853708
pt.ine.add.PTCONT.1386762,R JOAQUIM SILVESTRE VASCONCELOS ROSADO,7,7240-256,MOURÃO,-7.342594432088386,38.382474688747315
pt.ine.add.PTCONT.1386763,TV DOS PINHEIROS,11,7240-271,MOURÃO,-7.344459934537272,38.38129609836937
pt.ine.add.PTCONT.1386816,MTE DE GALEANA,,7240-016,GRANJA MOU,-7.160822654906185,38.263273784684834
pt.ine.add.PTCONT.1386817,MTE DA PAZ,,7240-016,GRANJA MOU,-7.1758801222330835,38.21812022683583
pt.ine.add.PTCONT.1386818,MTE DA PAZ,,7240-016,GRANJA MOU,-7.1758801222330835,38.21812022683583
pt.ine.add.PTCONT.1386819,R DOS MEIGOS,4,7240-012,GRANJA MOU,-7.2569857715358355,38.300921910515804
pt.ine.add.PTCONT.1386820,R DA CORREDOURA,66,7240-012,GRANJA MOU,-7.255228491477689,38.29979331660845
pt.ine.add.PTCONT.1387482,R 12 DE DEZEMBRO,6,7240-234,MOURÃO,-7.344956547100795,38.380428672863125
pt.ine.add.PTCONT.1387496,R NOVA,11,7240-100,LUZ MOU,-7.37835355166889,38.34606611862765
pt.ine.add.PTCONT.1387522,MTE PERO CUCO,,7240-016,GRANJA MOU,-7.157181556376283,38.27153144688583
pt.ine.add.PTCONT.1387528,TV PUBLICA,,7240-012,GRANJA MOU,-7.257423199256691,38.30275349696428
pt.ine.add.PTCONT.1387529,AV NOSSA SENHORA DAS CANDEIAS,32,7240-233,MOURÃO,-7.337693055824804,38.385030785696294
pt.ine.add.PTCONT.1387804,R DA MISERICÓRDIA,15,7240-012,GRANJA MOU,-7.254743770702455,38.30227297537688
pt.ine.add.PTCONT.1387827,R DO MONTINHO,51,7240-100,LUZ MOU,-7.375389374109654,38.34387797357249
pt.ine.add.PTCONT.1388267,R SÉRGIO VIEIRA DE MELO,12,7240-220,MOURÃO,-7.339001726389302,38.385127573252404
pt.ine.add.PTCONT.1388274,R DA LAPA,13,7240-240,MOURÃO,-7.341521651866356,38.38311913481014
pt.ine.add.PTCONT.1388276,R DA ESCOLA,21,7240-238,MOURÃO,-7.341107104496982,38.38078681921896
pt.ine.add.PTCONT.1388277,R D MANUEL I,22,7240-251,MOURÃO,-7.344484331770742,38.37965293513041
pt.ine.add.PTCONT.1388281,TV DOS CASTELHANOS,,7240-012,GRANJA MOU,-7.25353560769629,38.29996778388026
pt.ine.add.PTCONT.1388288,R DA CANHOTA,30,7240-012,GRANJA MOU,-7.255907632085666,38.30234579528552
pt.ine.add.PTCONT.1388289,R DA MISERICÓRDIA,11,7240-012,GRANJA MOU,-7.254602264896731,38.302326296877304
pt.ine.add.PTCONT.1388290,R DE SÃO SEBASTIÃO,54,7240-245,MOURÃO,-7.342045007409728,38.38550403991049
pt.ine.add.PTCONT.1388291,R DE SÃO SEBASTIÃO,35,7240-245,MOURÃO,-7.341559663425911,38.38482094049548
pt.ine.add.PTCONT.1388304,MTE DO PAULO,,7240-100,LUZ MOU,-7.417963136740466,38.298364846710896
pt.ine.add.PTCONT.1388305,R JOSE JOAQUIM VASCONCELOS GUSMÃO,16,7240-257,MOURÃO,-7.342983472818976,38.3839074986194
pt.ine.add.PTCONT.1388310,R DE SÃO BENTO,30,7240-266,MOURÃO,-7.3450414286565335,38.38334489559714
pt.ine.add.PTCONT.1388313,TV DOS PINHEIROS,36,7240-271,MOURÃO,-7.344223719443295,38.38139116579414
pt.ine.add.PTCONT.1388531,R DO BENQUERER,6,7240-248,MOURÃO,-7.343997086348334,38.38383239753423
pt.ine.add.PTCONT.1388999,R VASCO DA GAMA,3,7240-269,MOURÃO,-7.34026330313967,38.38394309233026
pt.ine.add.PTCONT.1389002,R DA CORREDOURA,25,7240-012,GRANJA MOU,-7.256370579340925,38.30408145713251
pt.ine.add.PTCONT.1389009,R JOAQUIM ANTÓNIO DE CASTRO,,7240-019,GRANJA MOU,-7.254260382558983,38.30337846056073
pt.ine.add.PTCONT.1389010,EM 517 MONTE JOAQUIM LUIS,,7240-263,MOURÃO,-7.333962775238926,38.36200882825907
pt.ine.add.PTCONT.1389013,R FREI ANTÓNIO DAS CHAGAS,8,7240-252,MOURÃO,-7.3459655449386245,38.38458467639808
pt.ine.add.PTCONT.1389020,PC DA REPÚBLICA,8,7240-233,MOURÃO,-7.344394894220383,38.382992550486144
pt.ine.add.PTCONT.1389025,R MACHADO DOS SANTOS,41,7240-260,MOURÃO,-7.343380993865424,38.38243551531575
pt.ine.add.PTCONT.1389031,R LEOVIGILDO DIAS PEREIRA RAMALHO,17,7240-259,MOURÃO,-7.344320271965238,38.38198381246141
pt.ine.add.PTCONT.1389038,R ALTO DA FORCA,18,7240-247,MOURÃO,-7.339324061033859,38.38339544377231
pt.ine.add.PTCONT.1389043,R DO ALCANCE,28,7240-246,MOURÃO,-7.341690063981484,38.38103259698448
pt.ine.add.PTCONT.1389243,R DE SÃO BRÁS,7,7240-012,GRANJA MOU,-7.257095540474295,38.30148084010298
pt.ine.add.PTCONT.1389302,R ALTO DA FORCA,24,7240-247,MOURÃO,-7.339255252438541,38.38360774698933
pt.ine.add.PTCONT.1389378,R GENERAL HUMBERTO DELGADO,3-3 A,7240-233,MOURÃO,-7.343817197239077,38.38277574610574
pt.ine.add.PTCONT.1389380,R GENERAL HUMBERTO DELGADO,3-3 A,7240-233,MOURÃO,-7.343817197239077,38.38277574610574
pt.ine.add.PTCONT.1389724,R CÂNDIDO DOS REIS,5,7240-236,MOURÃO,-7.341375637274594,38.381611491127956
pt.ine.add.PTCONT.1389729,R JOÃO JOSE VASCONCELOS ROSADO,28,7240-254,MOURÃO,-7.343086596981112,38.384132100980366
pt.ine.add.PTCONT.1389735,R NOVA,38,7240-100,LUZ MOU,-7.377517700335779,38.345216705470065
pt.ine.add.PTCONT.1389743,TV DOS PINHEIROS,6,7240-271,MOURÃO,-7.345277770668422,38.38221730274894
pt.ine.add.PTCONT.1389744,R DE OLIVENÇA,24,7240-242,MOURÃO,-7.340672365447836,38.38462078087093
pt.ine.add.PTCONT.1389750,BR LUIS DE CAMÕES,,7240-224,MOURÃO,-7.3396487393435095,38.38719922988065
pt.ine.add.PTCONT.1389751,R PROF AGOSTINHO FORTES,10,7240-273,MOURÃO,-7.339905111494531,38.38612259071062
pt.ine.add.PTCONT.1389765,R DA CRUZ,15,7240-012,GRANJA MOU,-7.256421398022042,38.301813833618915
pt.ine.add.PTCONT.1389766,R DE SÃO JOÃO,33,7240-267,MOURÃO,-7.3425619156424915,38.38107313821209
pt.ine.add.PTCONT.1389767,LG MIGUEL BOMBARDA,8,7240-230,MOURÃO,-7.3412680896638305,38.381210710338706
pt.ine.add.PTCONT.1389768,R DO NORTE,7,7240-249,MOURÃO,-7.343079518012865,38.38279549984462
pt.ine.add.PTCONT.1390124,LG ROGERIO BAÇÃO BARRETO,7,7240-273,MOURÃO,-7.338628069194618,38.38611629632768
pt.ine.add.PTCONT.1390127,LG ROGERIO BAÇÃO BARRETO,4,7240-273,MOURÃO,-7.339038969744445,38.38610325798947
pt.ine.add.PTCONT.1390491,R NOVA,26,7240-012,GRANJA MOU,-7.2543927500710526,38.3008096928781
pt.ine.add.PTCONT.1390496,AV NOSSA SENHORA DAS CANDEIAS,1,7240-220,MOURÃO,-7.339375100621393,38.38447595768602
pt.ine.add.PTCONT.1390502,R DIREITA,42,7240-012,GRANJA MOU,-7.254552268541611,38.30020709635097
pt.ine.add.PTCONT.1390506,R DIREITA,8,7240-012,GRANJA MOU,-7.253196298335786,38.300674154357715
pt.ine.add.PTCONT.1390507,R DE SÃO SEBASTIÃO,4,7240-012,GRANJA MOU,-7.256153753555813,38.300441672285224
pt.ine.add.PTCONT.1390510,R JOAQUIM ANTÓNIO DE CASTRO,6,7240-019,GRANJA MOU,-7.255180479160594,38.30481771482841
pt.ine.add.PTCONT.1390511,R DO ALCANCE,7,7240-246,MOURÃO,-7.340292896129282,38.381861336584514
pt.ine.add.PTCONT.1390512,EN 385 MONTE DA CEREJEIRA,,7240-238,MOURÃO,-7.298933743069435,38.34163977466651
pt.ine.add.PTCONT.1390513,EN 385 MONTE DA CEREJEIRA,,7240-238,MOURÃO,-7.298933743069435,38.34163977466651
pt.ine.add.PTCONT.1390519,R DA CORREDOURA,12,7240-012,GRANJA MOU,-7.256190459929118,38.30449195235463
pt.ine.add.PTCONT.1390520,R DO POÇO,10,7240-250,MOURÃO,-7.342462716306162,38.38650596674482
pt.ine.add.PTCONT.1390523,R DO TELHEIRO,14,7240-012,GRANJA MOU,-7.255235185140288,38.30312451124099
pt.ine.add.PTCONT.1390527,R DA MISERICÓRDIA,7,7240-012,GRANJA MOU,-7.254319003303568,38.302426887325396
pt.ine.add.PTCONT.1390530,R DA IGREJA,17,7240-100,LUZ MOU,-7.377679156213629,38.34428093692759
pt.ine.add.PTCONT.1390534,R DA FONTE,14,7240-100,LUZ MOU,-7.373603302262687,38.34361705320629
pt.ine.add.PTCONT.1390535,R DE SÃO JOSÉ,23,7240-268,MOURÃO,-7.346555698019707,38.38336986679661
pt.ine.add.PTCONT.1390537,R MACHADO DOS SANTOS,27,7240-260,MOURÃO,-7.344101316998902,38.38243154917026
pt.ine.add.PTCONT.1390552,R ANTÓNIO JOAQUIM BORGES BARRETO,17,7240-273,MOURÃO,-7.3380698510515465,38.38616038640227
pt.ine.add.PTCONT.1390554,R DA CRUZ,13,7240-012,GRANJA MOU,-7.2564398965014565,38.3018601579807
pt.ine.add.PTCONT.1390555,R DR TITO FERNANDES,7,7240-273,MOURÃO,-7.338551740572938,38.38541613193877
pt.ine.add.PTCONT.1390783,R DE SÃO SEBASTIÃO,24,7240-245,MOURÃO,-7.341589004807745,38.384600986090504
pt.ine.add.PTCONT.1390796,R DA MISERICÓRDIA,13,7240-012,GRANJA MOU,-7.254707288344194,38.30228437550553
pt.ine.add.PTCONT.1391163,R DO TELHEIRO,10 A,7240-012,GRANJA MOU,-7.255026075176803,38.303145456709295
pt.ine.add.PTCONT.1391197,R NOVA,17,7240-012,GRANJA MOU,-7.254060823792278,38.30102815225088
pt.ine.add.PTCONT.1391198,R DA CORREDOURA,74,7240-012,GRANJA MOU,-7.255485339452701,38.29965425237044
pt.ine.add.PTCONT.1391236,AV NOSSA SENHORA DAS CANDEIAS,5,7240-220,MOURÃO,-7.339210768464659,38.384593883220674
pt.ine.add.PTCONT.1391237,CM 1135 SESMO DO COLMEAL,,7240-253,MOURÃO,-7.314194311569862,38.390213170021475
pt.ine.add.PTCONT.1391238,R DE SÃO BENTO,11,7240-266,MOURÃO,-7.3457562065737285,38.38364930092738
pt.ine.add.PTCONT.1391239,R DE SÃO JOÃO,18,7240-267,MOURÃO,-7.34276462034695,38.381877710057736
pt.ine.add.PTCONT.1391267,R 12 DE DEZEMBRO,11,7240-234,MOURÃO,-7.344834378742786,38.38023675925725
pt.ine.add.PTCONT.1391268,R DA ESCOLA,7,7240-238,MOURÃO,-7.341806445152667,38.380454032725225
pt.ine.add.PTCONT.1391269,R SACADURA CABRAL,36,7240-264,MOURÃO,-7.344971710287557,38.37888585966386
pt.ine.add.PTCONT.1391297,R JOAQUIM SILVESTRE VASCONCELOS ROSADO,28,7240-256,MOURÃO,-7.341949152580144,38.38264510865671
pt.ine.add.PTCONT.1391298,R JOAQUIM SILVESTRE VASCONCELOS ROSADO,18,7240-256,MOURÃO,-7.342333457462797,38.38261731422464
pt.ine.add.PTCONT.1391458,TV DOS PINHEIROS,20,7240-271,MOURÃO,-7.344561408577249,38.38169407793582
pt.ine.add.PTCONT.1391483,R DIREITA,4,7240-012,GRANJA MOU,-7.253002383394243,38.30074295933305
pt.ine.add.PTCONT.1391504,CM 1135 MONTE SR GONÇALO,,7240-253,MOURÃO,-7.30192209209433,38.40739601314094
pt.ine.add.PTCONT.1391936,R DA MISERICÓRDIA,9,7240-012,GRANJA MOU,-7.25448332598531,38.30237354159311
pt.ine.add.PTCONT.1391937,R DAS FLORES,20,7240-012,GRANJA MOU,-7.254378815405297,38.30149865595868
pt.ine.add.PTCONT.1391938,R ÁLVARO AFONSO,55,7240-012,GRANJA MOU,-7.256308700262659,38.301500700606184
pt.ine.add.PTCONT.1391974,R DO ROSSIO,1,7240-100,LUZ MOU,-7.375826046908604,38.34431946013895
pt.ine.add.PTCONT.1392003,BR DR JOSE TOMAS RAVASCO ANJOS,37,7240-223,MOURÃO,-7.343202011391457,38.38171617448678
pt.ine.add.PTCONT.1392004,MTE ROJAS,,7240-238,MOURÃO,-7.338135197397883,38.35607353915495
pt.ine.add.PTCONT.1392005,ESTR DA PÓVOA MONTE DO TARRINHO NOVO,,7240-238,MOURÃO,-7.33918843758091,38.34553165849624
pt.ine.add.PTCONT.1392042,R DE SÃO SEBASTIÃO,62,7240-245,MOURÃO,-7.342195694070417,38.385808079329536
pt.ine.add.PTCONT.1392043,R DE SÃO SEBASTIÃO,63,7240-245,MOURÃO,-7.342049883633648,38.38576361860072
pt.ine.add.PTCONT.1392044,R DE SÃO SEBASTIÃO,59,7240-245,MOURÃO,-7.341951838353332,38.38557508368366
pt.ine.add.PTCONT.1392045,R JOSE JOAQUIM VASCONCELOS GUSMÃO,5,7240-257,MOURÃO,-7.342932782846615,38.38362959315147
pt.ine.add.PTCONT.1392046,R MARCOS GOMES VASCONCELOS ROSADO,18,7240-261,MOURÃO,-7.34200668046436,38.382981170099406
pt.ine.add.PTCONT.1392231,R DAS PALHOTAS,9,7240-100,LUZ MOU,-7.374074383467707,38.34470866259082
pt.ine.add.PTCONT.1392264,R ALTO DA FORCA,8,7240-247,MOURÃO,-7.339466606662766,38.38291895814063
pt.ine.add.PTCONT.1392305,R MOUZINHO DE ALBUQUERQUE,9,7240-262,MOURÃO,-7.340043251750758,38.383488198541734
pt.ine.add.PTCONT.1392546,R DA CORREDOURA,13,7240-012,GRANJA MOU,-7.2564160572851,38.304860553639344
pt.ine.add.PTCONT.1392547,R DA CANHOTA,22,7240-012,GRANJA MOU,-7.255575588591295,38.30238835462055
pt.ine.add.PTCONT.1392548,R JOAQUIM ANTÓNIO DE CASTRO,58,7240-012,GRANJA MOU,-7.253116639245558,38.3014287012667
pt.ine.add.PTCONT.1392581,MTE DO CABREIRO,,7240-011,GRANJA MOU,-7.242078588108169,38.29923269800104
pt.ine.add.PTCONT.1392582,R DIREITA,10,7240-012,GRANJA MOU,-7.253307704666415,38.30063527745427
pt.ine.add.PTCONT.1392583,R DE SÃO SEBASTIÃO,2,7240-012,GRANJA MOU,-7.2562220474821615,38.300529293155265
pt.ine.add.PTCONT.1392584,R JOAQUIM ANTÓNIO DE CASTRO,55,7240-012,GRANJA MOU,-7.252444654697096,38.300062624244795
pt.ine.add.PTCONT.1392615,LG ROGERIO BAÇÃO BARRETO,10,7240-273,MOURÃO,-7.33890559881446,38.38560758684567
pt.ine.add.PTCONT.1392616,R DA MURALHA,17,7240-241,MOURÃO,-7.3405988683431245,38.383814359769985
pt.ine.add.PTCONT.1392617,R DE SÃO JOÃO,8,7240-267,MOURÃO,-7.342827535550737,38.38222098365322
pt.ine.add.PTCONT.1392649,R DOS BOMBEIROS VOLUNTÁRIOS DE MOURÃO,7,7240-221,MOURÃO,-7.345534618963779,38.38152607420507
pt.ine.add.PTCONT.1393036,R DO ALCANCE,12,7240-246,MOURÃO,-7.34050333395996,38.38161684626212
pt.ine.add.PTCONT.1393056,R NOVA,21,7240-100,LUZ MOU,-7.377964194687258,38.345751746504654
pt.ine.add.PTCONT.1393070,R ALTO DA FORCA,11,7240-247,MOURÃO,-7.339606155864099,38.38312865964826
pt.ine.add.PTCONT.1393154,R DO ROSSIO,12,7240-224,MOURÃO,-7.340357490382616,38.385177201601465
pt.ine.add.PTCONT.1393478,R DR LIBANIO ESQUIVEL,4,7240-256,MOURÃO,-7.3413626205875815,38.38262153803083
pt.ine.add.PTCONT.1393484,R DIREITA,44,7240-012,GRANJA MOU,-7.254645055778247,38.300172477607155
pt.ine.add.PTCONT.1393485,AV PAPA JOAO PAULO II,4,7240-238,MOURÃO,-7.3417132270156955,38.37972745617303
pt.ine.add.PTCONT.1393490,TV DA MURALHA,11,7240-241,MOURÃO,-7.340017068387109,38.38283364984444
pt.ine.add.PTCONT.1393500,R DA PEDREIRA,8,7240-243,MOURÃO,-7.3425300047849165,38.38397484450526
pt.ine.add.PTCONT.1393503,EN 256 1,,7240-256,MOURÃO,-7.314799653004166,38.37001133769004
pt.ine.add.PTCONT.1393507,R ÁLVARO AFONSO,37,7240-012,GRANJA MOU,-7.255470136464677,38.30163170051782
pt.ine.add.PTCONT.1393508,R ÁLVARO AFONSO,37,7240-012,GRANJA MOU,-7.255470136464677,38.30163170051782
pt.ine.add.PTCONT.1393513,R MANUEL PALMA JORDÃO,10,7240-223,MOURÃO,-7.343373438825607,38.381657607579136
pt.ine.add.PTCONT.1393516,R F,8,7240-100,LUZ MOU,-7.378031364392833,38.343689213618354
pt.ine.add.PTCONT.1393518,R NOVA,45,7240-012,GRANJA MOU,-7.255272227587821,38.300727930628575
pt.ine.add.PTCONT.1393520,MTE MANUEL SANTOS BRANCO,,7240-016,GRANJA MOU,-7.186004307902054,38.26071410559298
pt.ine.add.PTCONT.1393522,R DO ALCANCE,77,7240-266,MOURÃO,-7.34306104481993,38.3805147783536
pt.ine.add.PTCONT.1393778,R NOVA DE DE MOURÃO,2,7240-012,GRANJA MOU,-7.255442306615138,38.30470010875093
pt.ine.add.PTCONT.1393810,R MACHADO DOS SANTOS,,7240-260,MOURÃO,-7.344169370647753,38.38253071883534
pt.ine.add.PTCONT.1394235,R DE OLIVENÇA,13,7240-242,MOURÃO,-7.341028786704156,38.38398607678548
pt.ine.add.PTCONT.1394238,R CÂNDIDO DOS REIS,3,7240-236,MOURÃO,-7.3413410849172305,38.38154177152774
pt.ine.add.PTCONT.1394239,R SACADURA CABRAL,30,7240-264,MOURÃO,-7.344493918326088,38.37909439429505
pt.ine.add.PTCONT.1394249,R DO TELHEIRO,5 A,7240-012,GRANJA MOU,-7.254958350370593,38.30328420886174
pt.ine.add.PTCONT.1394255,R DA CANHOTA,7,7240-012,GRANJA MOU,-7.254761592934059,38.3025804510199
pt.ine.add.PTCONT.1394268,R DA PEDREIRA,29,7240-243,MOURÃO,-7.342041502134643,38.38378071996115
pt.ine.add.PTCONT.1394273,R PEDRO PITEIRA,10,7240-012,GRANJA MOU,-7.256817359396224,38.30263324202527
pt.ine.add.PTCONT.1394274,R PEDRO PITEIRA,32,7240-012,GRANJA MOU,-7.256977327319129,38.30191108824583
pt.ine.add.PTCONT.1394276,R ANTÓNIO JOAQUIM BORGES BARRETO,3,7240-273,MOURÃO,-7.337988337121687,38.38530699693845
pt.ine.add.PTCONT.1394531,R CORREDOURA,29,7240-012,GRANJA MOU,-7.256327591253944,38.30354707651546
pt.ine.add.PTCONT.1394592,R PROF AGOSTINHO FORTES,1,7240-273,MOURÃO,-7.339524611398683,38.38593292231013
pt.ine.add.PTCONT.1394690,R MACHADO DOS SANTOS,5,7240-260,MOURÃO,-7.344914953058536,38.38282744154756
pt.ine.add.PTCONT.1394691,R JOSÉ JOAQUIM VASCONCELOS GUSMÃO,2,7240-257,MOURÃO,-7.343117593044632,38.38331692292415
pt.ine.add.PTCONT.1395039,R NOVA,5,7240-012,GRANJA MOU,-7.253506166741561,38.301223472340034
pt.ine.add.PTCONT.1394735,LG TEN GENERAL JOSÉ ANTÓNIO DA ROSA,15,7240-231,MOURÃO,-7.342574840321517,38.38182072267671
pt.ine.add.PTCONT.1395037,R DA CORREDOURA,22,7240-012,GRANJA MOU,-7.256184304404928,38.304149580298024
pt.ine.add.PTCONT.1395038,R DA CORREDOURA,4,7240-012,GRANJA MOU,-7.2562213921389205,38.30477144956356
pt.ine.add.PTCONT.1395040,R DA CORREDOURA,41,7240-012,GRANJA MOU,-7.256221024076666,38.302902878897164
pt.ine.add.PTCONT.1395041,ESTR DA CIRCUNVALAÇÃO,,7240-012,GRANJA MOU,-7.2580871790423,38.302677374683974
pt.ine.add.PTCONT.1395075,LG DO CORRO,6,7240-012,GRANJA MOU,-7.257838226530909,38.30151340994477
pt.ine.add.PTCONT.1395076,R NOVA,13,7240-100,LUZ MOU,-7.378292047215741,38.345991075832174
pt.ine.add.PTCONT.1395077,R DE MOURÃO,2,7240-100,LUZ MOU,-7.3739512886289225,38.34513093839887
pt.ine.add.PTCONT.1395103,BC DAS PORTAS DE SÃO BENTO,,7240-263,MOURÃO,-7.344813580723623,38.38251162063685
pt.ine.add.PTCONT.1395104,MTE VICTORIA ALCANTARIA,,7240-263,MOURÃO,-7.336153748752585,38.368798156636466
pt.ine.add.PTCONT.1395105,R DA PEDREIRA,24,7240-243,MOURÃO,-7.341960709501964,38.383837276032466
pt.ine.add.PTCONT.1395815,R DE VALADARES,15,7240-012,GRANJA MOU,-7.257070234200921,38.300552192065815
pt.ine.add.PTCONT.1395816,R JOAQUIM ANTÓNIO DE CASTRO,49,7240-012,GRANJA MOU,-7.2525832678312465,38.30025792232686
pt.ine.add.PTCONT.1395817,R DA CORREDOURA,64,7240-012,GRANJA MOU,-7.255149180403897,38.299826725934324
pt.ine.add.PTCONT.1395818,R DO ROSSIO,11,7240-100,LUZ MOU,-7.375279157654916,38.34435386848409
pt.ine.add.PTCONT.1395819,R DA FONTE,24,7240-100,LUZ MOU,-7.373704389817719,38.34401532058329
pt.ine.add.PTCONT.1395820,MTE DAS JUNTAS,,7240-100,LUZ MOU,-7.384927610698382,38.327130567127156
pt.ine.add.PTCONT.1395851,R S BENTO,13,7240-266,MOURÃO,-7.345675617371297,38.38361263729654
pt.ine.add.PTCONT.1395852,R DE SÃO BENTO,33,7240-266,MOURÃO,-7.345122753777413,38.38331356839117
pt.ine.add.PTCONT.1395853,BR DR JOSE TOMAS RAVASCO ANJOS,32,7240-223,MOURÃO,-7.343605071973029,38.381638800488844
pt.ine.add.PTCONT.1395854,R MACHADO DOS SANTOS,19,7240-260,MOURÃO,-7.344473143611164,38.382606692096594
pt.ine.add.PTCONT.1395855,R DOS BOMBEIROS VOLUNTÁRIOS DE MOURÃO,3,7240-221,MOURÃO,-7.345263001872668,38.38171903828209
pt.ine.add.PTCONT.1395856,BR EXPANSAO POENTE,3,7240-221,MOURÃO,-7.345420812548046,38.38160332866149
pt.ine.add.PTCONT.1395888,R DA CORREDOURA,,7240-012,GRANJA MOU,-7.25651941640576,38.305656517856136
pt.ine.add.PTCONT.1395889,R DAS FLORES,42,7240-012,GRANJA MOU,-7.255418124322712,38.30122506926496
pt.ine.add.PTCONT.1395890,MTE DO BÉRTOLO,,7240-016,GRANJA MOU,-7.167331094816902,38.20833885909473
pt.ine.add.PTCONT.1395891,R DOS MEIGOS,15,7240-012,GRANJA MOU,-7.2573589116321315,38.30066761888227
pt.ine.add.PTCONT.1395892,R DE SÃO SEBASTIÃO,48,7240-245,MOURÃO,-7.3419618657395445,38.385361058874565
pt.ine.add.PTCONT.1396048,R DIREITA,46,7240-012,GRANJA MOU,-7.254737430195617,38.30014118076694
pt.ine.add.PTCONT.1396145,R DO MEIO,11,7240-100,LUZ MOU,-7.3778395223207935,38.34470146180176
pt.ine.add.PTCONT.1396169,TV VASCO DA GAMA,1,7240-272,MOURÃO,-7.340020242842802,38.38460092198605
pt.ine.add.PTCONT.1396539,R DA MISERICÓRDIA,6,7240-012,GRANJA MOU,-7.254216457838374,38.30235673313112
pt.ine.add.PTCONT.1396540,R S SEBASTIAO,15,7240-012,GRANJA MOU,-7.257312822713694,38.3011120592905
pt.ine.add.PTCONT.1396541,R DA FONTE,6,7240-100,LUZ MOU,-7.373492243554714,38.343402461980965
pt.ine.add.PTCONT.1396542,R F,4,7240-100,LUZ MOU,-7.378181085698936,38.34359108317739
pt.ine.add.PTCONT.1396543,R PROF AGOSTINHO FORTES,4,7240-273,MOURÃO,-7.339488600241764,38.386069355492396
pt.ine.add.PTCONT.1396544,R ANTÓNIO JOAQUIM BORGES BARRETO,14,7240-273,MOURÃO,-7.337845719274596,38.386056609661004
pt.ine.add.PTCONT.1396585,MTE SR ANTÓNIO FERREIRA,,7240-256,MOURÃO,-7.320583125194245,38.37980777802224
pt.ine.add.PTCONT.1396586,TV DOS PINHEIROS,2,7240-271,MOURÃO,-7.34544565403921,38.382371727822594
pt.ine.add.PTCONT.1396587,R MACHADO DOS SANTOS,,7240-260,MOURÃO,-7.344405069436476,38.38256427697626
pt.ine.add.PTCONT.1396632,R D MANUEL I,24,7240-251,MOURÃO,-7.344574596591108,38.37960643681454
pt.ine.add.PTCONT.1396788,R PEDRO PITEIRA,18,7240-012,GRANJA MOU,-7.256867086064672,38.30238614051554
pt.ine.add.PTCONT.1396795,R JOÃO JOSE VASCONCELOS ROSADO,19,7240-254,MOURÃO,-7.34315912567058,38.38409449459053
pt.ine.add.PTCONT.1396822,BR ALTO DA ESCOLA,4,7240-012,GRANJA MOU,-7.255583003247218,38.30556843887244
pt.ine.add.PTCONT.1396829,R DE SÃO JOSÉ,12,7240-268,MOURÃO,-7.346319737979541,38.383434886822585
pt.ine.add.PTCONT.1397311,R DE SÃO BENTO,31,7240-266,MOURÃO,-7.345204518531692,38.38334836743399
pt.ine.add.PTCONT.1397312,R PADRE INACIO NUNES BRANCO,12,7240-221,MOURÃO,-7.345075394232958,38.38110366617683
pt.ine.add.PTCONT.1397313,R DE OLIVENÇA,8,7240-242,MOURÃO,-7.341120690885993,38.38412190819767
pt.ine.add.PTCONT.1397314,R DO BENQUERER,24,7240-248,MOURÃO,-7.343469280116767,38.383583094879135
pt.ine.add.PTCONT.1397351,R JOAQUIM ANTÓNIO DE CASTRO,29,7240-012,GRANJA MOU,-7.254792761986445,38.30378783424747
pt.ine.add.PTCONT.1397352,R ÁLVARO AFONSO,15,7240-012,GRANJA MOU,-7.254499878601823,38.30187710531478
pt.ine.add.PTCONT.1397353,R DAS FLORES,15,7240-012,GRANJA MOU,-7.2541285163221,38.301673989375246
pt.ine.add.PTCONT.1397354,MTE DA FRAGA,,7240-016,GRANJA MOU,-7.128704141098612,38.18357420628802
pt.ine.add.PTCONT.1397355,R DA CORREDOURA,62,7240-012,GRANJA MOU,-7.2550754368280534,38.299863047916425
pt.ine.add.PTCONT.1397356,R MARCOS GOMES VASCONCELOS ROSADO,20 B,7240-261,MOURÃO,-7.3418585954758075,38.3829171110923
pt.ine.add.PTCONT.1397404,R DE TRÁS,30,7240-100,LUZ MOU,-7.378458001633764,38.345565745303496
pt.ine.add.PTCONT.1397405,R NOVA,32,7240-100,LUZ MOU,-7.377701135861592,38.34531901765758
pt.ine.add.PTCONT.1397406,R DO ROSSIO,7,7240-100,LUZ MOU,-7.375503405146752,38.344335583311945
pt.ine.add.PTCONT.1397407,R DO ROSSIO,3,7240-100,LUZ MOU,-7.375692931739809,38.34432779906564
pt.ine.add.PTCONT.1397573,R DE OLIVENÇA,12,7240-242,MOURÃO,-7.341020981825619,38.38422401973777
pt.ine.add.PTCONT.1397688,R DO ALCANCE,49,7240-246,MOURÃO,-7.34193338721948,38.38106412157952
pt.ine.add.PTCONT.1421724,MTE CANEIRO,,7240-100,LUZ MOU,-7.410682343610927,38.33973293882499
pt.ine.add.PTCONT.1398056,R DAS FLORES,49,7240-012,GRANJA MOU,-7.255821038575106,38.30122851123225
pt.ine.add.PTCONT.1398065,R DA CORREDOURA,7,7240-012,GRANJA MOU,-7.256458389860532,38.30514128637562
pt.ine.add.PTCONT.1398067,R DA CORREDOURA,24,7240-012,GRANJA MOU,-7.25617372635286,38.3040786244091
pt.ine.add.PTCONT.1398068,TV VALE GROU,1,7240-264,MOURÃO,-7.344775845118686,38.378499603437525
pt.ine.add.PTCONT.1398072,R DE TRÁS,51,7240-100,LUZ MOU,-7.379038174508823,38.345875769428446
pt.ine.add.PTCONT.1398076,R DA ESTRELA,27,7240-100,LUZ MOU,-7.372498475433566,38.34445521950701
pt.ine.add.PTCONT.1398077,R DA PEDREIRA,12,7240-243,MOURÃO,-7.342431021992607,38.38394863328795
pt.ine.add.PTCONT.1398079,R MOURAO,28,7240-100,LUZ MOU,-7.372462335996454,38.345534903875134
pt.ine.add.PTCONT.1398083,R ÁLVARO AFONSO,13,7240-012,GRANJA MOU,-7.254419535697431,38.30190352924787
pt.ine.add.PTCONT.1398084,R DE SÃO BENTO,29,7240-266,MOURÃO,-7.345324006456276,38.38342541309758
pt.ine.add.PTCONT.1398085,R DE SÃO BENTO,29,7240-266,MOURÃO,-7.345324006456276,38.38342541309758
pt.ine.add.PTCONT.1398092,R NOVA,9,7240-012,GRANJA MOU,-7.253650039091663,38.3011704996034
pt.ine.add.PTCONT.1398093,PQ MARIA CRISTINA,2,7240-232,MOURÃO,-7.346372750220986,38.384061354650385
pt.ine.add.PTCONT.1398095,MTE CONDE,,7240-100,LUZ MOU,-7.410615921228399,38.302643984625476
pt.ine.add.PTCONT.1398098,R JOSE JOAQUIM VASCONCELOS GUSMÃO,1,7240-257,MOURÃO,-7.342991946663671,38.383339417151625
pt.ine.add.PTCONT.1398401,LG TEN GENERAL JOSÉ ANTÓNIO DA ROSA,19,7240-231,MOURÃO,-7.342416456923915,38.38201402387259
pt.ine.add.PTCONT.1398487,R DO ALCANCE,71,7240-266,MOURÃO,-7.342745343601171,38.380664792314384
pt.ine.add.PTCONT.1398536,R MARCOS GOMES VASCONCELOS ROSADO,9,7240-235,MOURÃO,-7.342674433007394,38.383156883966116
pt.ine.add.PTCONT.1399038,R NOVA,48,7240-012,GRANJA MOU,-7.255126551162265,38.300645075738764
pt.ine.add.PTCONT.1399039,R DIREITA,35,7240-012,GRANJA MOU,-7.254891910525634,38.30021488266751
pt.ine.add.PTCONT.1399040,R DE SÃO SEBASTIÃO,1,7240-012,GRANJA MOU,-7.2563514383394,38.300572895274684
pt.ine.add.PTCONT.1399080,R DAS PALHOTAS,14,7240-100,LUZ MOU,-7.373889869988164,38.344851605382
pt.ine.add.PTCONT.1399081,MTE DOS PÁSSAROS,,7240-103,LUZ MOU,-7.380461000346737,38.34876765614092
pt.ine.add.PTCONT.1399096,QUEIJARINHA DO ESPANHOL,,7240-256,MOURÃO,-7.273966412348121,38.35789104999113
pt.ine.add.PTCONT.1399097,R MACHADO DOS SANTOS,25,7240-260,MOURÃO,-7.344203060146137,38.382467015780364
pt.ine.add.PTCONT.1399098,LG TEN GENERAL JOSÉ ANTÓNIO DA ROSA,20,7240-231,MOURÃO,-7.34239107944501,38.38204829763162
pt.ine.add.PTCONT.1399099,R LEOVIGILDO DIAS PEREIRA RAMALHO,1,7240-259,MOURÃO,-7.343736523203829,38.38146183881591
pt.ine.add.PTCONT.1399100,R DE SÃO SEBASTIÃO,7,7240-245,MOURÃO,-7.34137003323417,38.384204523147986
pt.ine.add.PTCONT.1399102,EN 256 1 MONTE JUNCAL,,7240-253,MOURÃO,-7.328492517392232,38.38381706501418
pt.ine.add.PTCONT.1399121,R DO ALCANCE,16,7240-246,MOURÃO,-7.3406950001376226,38.381521941063426
pt.ine.add.PTCONT.1399126,R DE SÃO JOÃO,35 A,7240-267,MOURÃO,-7.342502553325018,38.3809416658497
pt.ine.add.PTCONT.1399166,AV NOSSA SENHORA DAS CANDEIAS,18,7240-233,MOURÃO,-7.3387087643616296,38.38453493948231
pt.ine.add.PTCONT.1399179,R DA LAPA,5,7240-240,MOURÃO,-7.341526425392403,38.382941894045295
pt.ine.add.PTCONT.1399181,R DA LAPA,16,7240-240,MOURÃO,-7.341617615740213,38.38324663877682
pt.ine.add.PTCONT.1399257,R ALTO DA FORCA,16,7240-247,MOURÃO,-7.339347933628842,38.38330552037145
pt.ine.add.PTCONT.1399267,R DE SÃO SEBASTIÃO,81,7240-245,MOURÃO,-7.342377004911054,38.386176254865454
pt.ine.add.PTCONT.1399785,R DA CRUZ,2,7240-012,GRANJA MOU,-7.25638567315082,38.30235823727589
pt.ine.add.PTCONT.1399786,R DIREITA,50,7240-012,GRANJA MOU,-7.254891061432603,38.30009547922114
pt.ine.add.PTCONT.1399787,TV DOS CASTELHANOS,5,7240-012,GRANJA MOU,-7.2529881320337,38.29986458301198
pt.ine.add.PTCONT.1399788,R MANUEL JOAQUIM BAÇÃO LOPES,7,7240-224,MOURÃO,-7.339553359820654,38.385247178068276
pt.ine.add.PTCONT.1399789,R 25 DE ABRIL,6,7240-224,MOURÃO,-7.3392708836446525,38.38514799345895
pt.ine.add.PTCONT.1399831,R ALTO DA FORCA,5,7240-247,MOURÃO,-7.339672758669698,38.38279850010351
pt.ine.add.PTCONT.1399832,R JOAQUIM SILVESTRE VASCONCELOS ROSADO,9,7240-256,MOURÃO,-7.342478837197618,38.38247926022483
pt.ine.add.PTCONT.1399833,R JOAQUIM SILVESTRE VASCONCELOS ROSADO,9,7240-256,MOURÃO,-7.342478837197618,38.38247926022483
pt.ine.add.PTCONT.1399876,R D MANUEL I,20,7240-251,MOURÃO,-7.344278049595301,38.37975585230325
pt.ine.add.PTCONT.1399877,R DE OLIVENÇA,22 A,7240-242,MOURÃO,-7.340703318916603,38.38458320934945
pt.ine.add.PTCONT.1399878,R DA PEDREIRA,31,7240-243,MOURÃO,-7.341913591966423,38.38378136113139
pt.ine.add.PTCONT.1400056,R PROF AGOSTINHO FORTES,2,7240-273,MOURÃO,-7.339321249714066,38.38604835141819
pt.ine.add.PTCONT.1400423,R DIREITA,19,7240-012,GRANJA MOU,-7.254237681132019,38.300433762318775
pt.ine.add.PTCONT.1400424,R DE VALADARES,2,7240-012,GRANJA MOU,-7.256474644546014,38.300827583449134
pt.ine.add.PTCONT.1400425,R DR LIBANIO ESQUIVEL,6,7240-256,MOURÃO,-7.341276651345776,38.38261025885454
pt.ine.add.PTCONT.1400430,R DO TELHEIRO,5,7240-012,GRANJA MOU,-7.254884033318629,38.303290802580676
pt.ine.add.PTCONT.1400431,R JOÃO JOSE VASCONCELOS ROSADO,2,7240-254,MOURÃO,-7.3443956995009785,38.38447423551782
pt.ine.add.PTCONT.1400434,R DO TELHEIRO,13,7240-012,GRANJA MOU,-7.255579259980855,38.30322817920542
pt.ine.add.PTCONT.1400438,R B,4,7240-100,LUZ MOU,-7.378080906659203,38.345294935987106
pt.ine.add.PTCONT.1400448,R LEOVIGILDO DIAS PEREIRA RAMALHO,6,7240-259,MOURÃO,-7.343706327316148,38.381722184111375
pt.ine.add.PTCONT.1400458,MTE DA CHARNECA,,7240-100,LUZ MOU,-7.334327872905849,38.32460776216203
pt.ine.add.PTCONT.1400459,R DE SÃO JOÃO,1,7240-267,MOURÃO,-7.342860985103129,38.38230228572716
pt.ine.add.PTCONT.1400463,MTE CEGONHA,,7240-016,GRANJA MOU,-7.177049029543892,38.26925369519623
pt.ine.add.PTCONT.1400466,TV DOS PINHEIROS,15,7240-271,MOURÃO,-7.344329075747396,38.38117662899758
pt.ine.add.PTCONT.1400719,R ANTÓNIO JOAQUIM BORGES BARRETO,6,7240-273,MOURÃO,-7.3378154512653335,38.385518249090886
pt.ine.add.PTCONT.1400726,R DA LAPA,3 A,7240-240,MOURÃO,-7.3415389493105145,38.38284288503815
pt.ine.add.PTCONT.1400788,R DO POÇO,5,7240-250,MOURÃO,-7.342385278926872,38.38640412488996
pt.ine.add.PTCONT.1400792,R ALTO DA FORCA,14,7240-247,MOURÃO,-7.339360559030845,38.38319750379718
pt.ine.add.PTCONT.1401133,R NOVA,2,7240-012,GRANJA MOU,-7.2531893196783,38.3011903541921
pt.ine.add.PTCONT.1401134,TV DOS PINHEIROS,23,7240-271,MOURÃO,-7.343829029767367,38.38073210118449
pt.ine.add.PTCONT.1401138,R DA ESCOLA,4,7240-012,GRANJA MOU,-7.255883561151122,38.30496196567841
pt.ine.add.PTCONT.1401139,MTE DAS FERRARIAS,,7240-204,MOURÃO,-7.319636043091329,38.42858204036098
pt.ine.add.PTCONT.1401141,CM 1135 MONTE DO ALCANTARA,,7240-253,MOURÃO,-7.31932852150614,38.39985196339785
pt.ine.add.PTCONT.1401142,R JOÃO JOSE VASCONCELOS ROSADO,16,7240-254,MOURÃO,-7.343932258387185,38.3843162791392
pt.ine.add.PTCONT.1401144,R DA CANHOTA,3,7240-012,GRANJA MOU,-7.254532536355898,38.3026147699364
pt.ine.add.PTCONT.1401145,R DE SÃO SEBASTIÃO,26,7240-245,MOURÃO,-7.3416115083324565,38.38465568182891
pt.ine.add.PTCONT.1401150,R DO ROSSIO,4,7240-100,LUZ MOU,-7.375964032741025,38.344186402562194
pt.ine.add.PTCONT.1401166,R ALTO DA FORCA,12,7240-247,MOURÃO,-7.339384431511416,38.383107580384674
pt.ine.add.PTCONT.1401167,R ÁLVARO AFONSO,47,7240-012,GRANJA MOU,-7.255819444361765,38.30154549517003
pt.ine.add.PTCONT.1401434,R DO BENQUERER,5,7240-248,MOURÃO,-7.344087015732023,38.38380496029204
pt.ine.add.PTCONT.1401859,R NOVA,16,7240-012,GRANJA MOU,-7.253918345537483,38.3009686070237
pt.ine.add.PTCONT.1401864,R MOUZINHO DE ALBUQUERQUE,8,7240-262,MOURÃO,-7.3402280360607755,38.383600436918336
pt.ine.add.PTCONT.1401865,R DA ESCOLA,17,7240-238,MOURÃO,-7.341310442703206,38.38068630297161
pt.ine.add.PTCONT.1401872,R DR SÁ CARNEIRO,53,7240-100,LUZ MOU,-7.37445863991744,38.345155760536706
pt.ine.add.PTCONT.1401873,R DO ALCANCE,25,7240-246,MOURÃO,-7.340875765013748,38.38158272799995
pt.ine.add.PTCONT.1401875,EN 256 1,,7240-253,MOURÃO,-7.261021598727717,38.38120853228036
pt.ine.add.PTCONT.1401877,R DE MOURÃO,15,7240-100,LUZ MOU,-7.373223509790709,38.34552612340737
pt.ine.add.PTCONT.1401878,R DE TRÁS,32,7240-100,LUZ MOU,-7.378537321370272,38.34563832440266
pt.ine.add.PTCONT.1401879,R DE SÃO SEBASTIÃO,56,7240-245,MOURÃO,-7.342071426304255,38.38555270195713
pt.ine.add.PTCONT.1401881,R DE SÃO SEBASTIÃO,47,7240-245,MOURÃO,-7.341789702587394,38.38526187617707
pt.ine.add.PTCONT.1401885,R DA FONTE,28,7240-100,LUZ MOU,-7.373730823472681,38.344132553780554
pt.ine.add.PTCONT.1401886,TV DOS CURRAIS,11,7240-270,MOURÃO,-7.340784351148923,38.38487139590653
pt.ine.add.PTCONT.1401889,R JOSÉ TEODORO DE ABREU BRAVO,16,7240-258,MOURÃO,-7.344321909931956,38.38407430815546
pt.ine.add.PTCONT.1401896,MTE DE SAO MARTINHO,,7240-014,GRANJA MOU,-7.205896422651073,38.25170220116467
pt.ine.add.PTCONT.1401902,R DO NORTE,13,7240-249,MOURÃO,-7.3430399436990275,38.38293494337406
pt.ine.add.PTCONT.1402166,R MARCOS GOMES VASCONCELOS ROSADO,21,7240-261,MOURÃO,-7.342130611257733,38.38295938242676
pt.ine.add.PTCONT.1402186,R DR TITO FERNANDES,14,7240-273,MOURÃO,-7.338391468418885,38.38595654827888
pt.ine.add.PTCONT.1402194,R SÉRGIO VIEIRA DE MELO,4,7240-220,MOURÃO,-7.338948958382061,38.38476638831009
pt.ine.add.PTCONT.1402219,R DO MONTINHO,59,7240-100,LUZ MOU,-7.375047619303081,38.343871789261364
pt.ine.add.PTCONT.1402683,R DA CRUZ,17,7240-012,GRANJA MOU,-7.2564090378703145,38.301770415357126
pt.ine.add.PTCONT.1402684,R ÁLVARO AFONSO,49,7240-012,GRANJA MOU,-7.255940541847033,38.30153867863294
pt.ine.add.PTCONT.1402685,R DR SÁ CARNEIRO,49,7240-100,LUZ MOU,-7.374584774470455,38.34512635994516
pt.ine.add.PTCONT.1402686,R DO MONTINHO,44,7240-100,LUZ MOU,-7.3750920656800405,38.34375510554255
pt.ine.add.PTCONT.1402715,TV PINHEIROS,3,7240-271,MOURÃO,-7.344866727160103,38.381916507418396
pt.ine.add.PTCONT.1402716,PC DA REPÚBLICA,22,7240-233,MOURÃO,-7.344048184098957,38.383414459394
pt.ine.add.PTCONT.1402754,R NOVA DE DE MOURÃO,11,7240-012,GRANJA MOU,-7.255584117757735,38.30466229682941
pt.ine.add.PTCONT.1402755,TV DO POÇO NOVO,,7240-012,GRANJA MOU,-7.253026683379625,38.302265501990995
pt.ine.add.PTCONT.1402756,R NOVA MOURA,18,7240-267,MOURÃO,-7.343007410443963,38.38113856073659
pt.ine.add.PTCONT.1402757,R D MANUEL I,29 B,7240-251,MOURÃO,-7.345020901709114,38.37954978996169
pt.ine.add.PTCONT.1402758,LG DR LIBANIO ESQUIVEL,3,7240-228,MOURÃO,-7.342717407674997,38.38037420109339
pt.ine.add.PTCONT.1402759,R DE SÃO SEBASTIÃO,8,7240-245,MOURÃO,-7.341436682845028,38.3840939083288
pt.ine.add.PTCONT.1402760,R DE OLIVENÇA,26 A,7240-242,MOURÃO,-7.340593043385694,38.38469237210884
pt.ine.add.PTCONT.1402902,R DE SÃO JOSÉ,13,7240-268,MOURÃO,-7.346345689498315,38.383568199549465
pt.ine.add.PTCONT.1402923,R LEOVIGILDO DIAS PEREIRA RAMALHO,,7240-259,MOURÃO,-7.344866727160103,38.381916507418396
pt.ine.add.PTCONT.1402943,R ANTÓNIO JOAQUIM BORGES BARRETO,10,7240-273,MOURÃO,-7.337830093949411,38.38584697404059
pt.ine.add.PTCONT.1402957,R DO ALCANCE,5,7240-246,MOURÃO,-7.340247735249794,38.38188819900412
pt.ine.add.PTCONT.1403558,BR ALTO DA ESCOLA,5,7240-012,GRANJA MOU,-7.255683825460969,38.305740356078296
pt.ine.add.PTCONT.1403559,R NOVA DE DE MOURÃO,6,7240-012,GRANJA MOU,-7.255422411216978,38.304579202585074
pt.ine.add.PTCONT.1403560,R JOAQUIM ANTÓNIO DE CASTRO,30,7240-012,GRANJA MOU,-7.2539806905227,38.302871884163295
pt.ine.add.PTCONT.1403561,MTE DA JANEIRA,,7240-011,GRANJA MOU,-7.249201730475465,38.29347604973447
pt.ine.add.PTCONT.1403562,R PEDRO PITEIRA,19,7240-012,GRANJA MOU,-7.256966773333382,38.302581979526174
pt.ine.add.PTCONT.1403617,R S BENTO,31 A,7240-266,MOURÃO,-7.345214001533186,38.38336305378226
pt.ine.add.PTCONT.1403615,R DO ROSSIO,9,7240-100,LUZ MOU,-7.375368388624466,38.34434624370924
pt.ine.add.PTCONT.1403616,R DE MOURA,5,7240-100,LUZ MOU,-7.373064717227666,38.343002788903966
pt.ine.add.PTCONT.1403630,R ALCANCE,,7240-246,MOURÃO,-7.342059931114225,38.38085306658373
pt.ine.add.PTCONT.1403651,R DR LIBANIO ESQUIVEL,17,7240-256,MOURÃO,-7.340873063433348,38.38243098508415
pt.ine.add.PTCONT.1403809,R DE MOURA,3,7240-100,LUZ MOU,-7.373148812664147,38.34308092756546
pt.ine.add.PTCONT.1403810,R DA IGREJA,10,7240-100,LUZ MOU,-7.378936895239937,38.34418410262683
pt.ine.add.PTCONT.1403811,R DR TITO FERNANDES,8,7240-273,MOURÃO,-7.338360041999187,38.38550411566954
pt.ine.add.PTCONT.1403812,R DR LIBANIO ESQUIVEL,43,7240-256,MOURÃO,-7.3400608869478505,38.38232385131294
pt.ine.add.PTCONT.1404320,R NOVA DE DE MOURÃO,16,7240-012,GRANJA MOU,-7.255358674365012,38.30399530752279
pt.ine.add.PTCONT.1404358,R ÁLVARO AFONSO,20,7240-012,GRANJA MOU,-7.254549205746025,38.301753489651375
pt.ine.add.PTCONT.1404359,MTE JULIO,,7240-016,GRANJA MOU,-7.161629752079623,38.26444257718322
pt.ine.add.PTCONT.1404360,R ÁLVARO AFONSO,59,7240-012,GRANJA MOU,-7.256518139264856,38.30146082554237
pt.ine.add.PTCONT.1404361,R DA CORREDOURA,54,7240-012,GRANJA MOU,-7.255645348223991,38.30140825525263
pt.ine.add.PTCONT.1404362,TV DOS CASTELHANOS,24,7240-012,GRANJA MOU,-7.2532395859361545,38.299908603453886
pt.ine.add.PTCONT.1404363,R NOVA,23,7240-100,LUZ MOU,-7.377873624275513,38.34566107739765
pt.ine.add.PTCONT.1404364,R DE TRÁS,15,7240-100,LUZ MOU,-7.3785004477577045,38.34478227181184
pt.ine.add.PTCONT.1404384,R DE SÃO BENTO,41,7240-266,MOURÃO,-7.344848408432075,38.38318005646221
pt.ine.add.PTCONT.1404408,R DA CORREDOURA,37,7240-012,GRANJA MOU,-7.256229101115753,38.3030483404937
pt.ine.add.PTCONT.1404445,R DE SÃO JOÃO,16,7240-267,MOURÃO,-7.342771825373005,38.381944335119606
pt.ine.add.PTCONT.1404525,R DA ESTRELA,37,7240-100,LUZ MOU,-7.372143708518919,38.344470934966445
pt.ine.add.PTCONT.1404528,R DE SÃO JOSÉ,21,7240-268,MOURÃO,-7.346509327467841,38.38341417929826
pt.ine.add.PTCONT.1404529,R DE SÃO JOSÉ,21,7240-268,MOURÃO,-7.346509327467841,38.38341417929826
pt.ine.add.PTCONT.1404894,R DAS FLORES,61,7240-012,GRANJA MOU,-7.256194678375364,38.301095845677516
pt.ine.add.PTCONT.1404907,R SACADURA CABRAL,3,7240-264,MOURÃO,-7.3431639685380015,38.379924712671496
pt.ine.add.PTCONT.1404912,R DA FÁBRICA,9,7240-239,MOURÃO,-7.341139622789471,38.381744901986394
pt.ine.add.PTCONT.1404917,R JOÃO JOSE VASCONCELOS ROSADO,30,7240-254,MOURÃO,-7.343030026089972,38.38412109597992
pt.ine.add.PTCONT.1404924,R DO CORRO,,7240-012,GRANJA MOU,-7.256511706568993,38.29964773561888
pt.ine.add.PTCONT.1404925,R DE SÃO BENTO,3,7240-266,MOURÃO,-7.345949478448907,38.38375046632252
pt.ine.add.PTCONT.1404929,R JOSÉ TEODORO DE ABREU BRAVO,18,7240-258,MOURÃO,-7.344313601745251,38.38413818922441
pt.ine.add.PTCONT.1404930,MTE DA PEREIRA,,7240-100,LUZ MOU,-7.403077667636253,38.3144887298678
pt.ine.add.PTCONT.1404937,MTE DAS COURELAS DA PAZ,,7240-016,GRANJA MOU,-7.170031324223183,38.21223477114999
pt.ine.add.PTCONT.1404938,MTE DAS COURELAS DA PAZ,,7240-016,GRANJA MOU,-7.170031324223183,38.21223477114999
pt.ine.add.PTCONT.1404939,R DO ROSSIO,22,7240-273,MOURÃO,-7.34024913605204,38.38567184722753
pt.ine.add.PTCONT.1404943,R MARCOS GOMES VASCONCELOS ROSADO,19,7240-261,MOURÃO,-7.34219905200044,38.38298538783467
pt.ine.add.PTCONT.1405327,R DO ROSSIO,4,7240-220,MOURÃO,-7.339618528755976,38.38447202404558
pt.ine.add.PTCONT.1405628,R ÁLVARO AFONSO,54,7240-012,GRANJA MOU,-7.256245227504104,38.30138001829708
pt.ine.add.PTCONT.1405640,R DR LIBANIO ESQUIVEL,29,7240-256,MOURÃO,-7.340465851670688,38.38237651901152
pt.ine.add.PTCONT.1405645,EN 256 1,,7240-253,MOURÃO,-7.261077842805853,38.38129002689342
pt.ine.add.PTCONT.1405651,R DE SÃO SEBASTIÃO,22,7240-245,MOURÃO,-7.341574300081742,38.38453725162526
pt.ine.add.PTCONT.1405655,R DE TRÁS,6,7240-100,LUZ MOU,-7.37834136755922,38.344465725970046
pt.ine.add.PTCONT.1405661,R CÂNDIDO DOS REIS,10,7240-236,MOURÃO,-7.341701848557333,38.3824637700484
pt.ine.add.PTCONT.1405662,R CÂNDIDO DOS REIS,10,7240-236,MOURÃO,-7.341701848557333,38.3824637700484
pt.ine.add.PTCONT.1405663,R CÂNDIDO DOS REIS,10,7240-236,MOURÃO,-7.341701848557333,38.3824637700484
pt.ine.add.PTCONT.1405671,R DE SÃO BRÁS,17,7240-012,GRANJA MOU,-7.257351052702012,38.30103641945782
pt.ine.add.PTCONT.1405905,R DO POÇO,26,7240-250,MOURÃO,-7.341603833943771,38.38683848479826
pt.ine.add.PTCONT.1405948,R DA CORREDOURA,36,7240-012,GRANJA MOU,-7.256061299418383,38.30301575771753
pt.ine.add.PTCONT.1405949,R D MANUEL I,12 A,7240-251,MOURÃO,-7.343951474943395,38.379915158934345
pt.ine.add.PTCONT.1405998,R DE TRÁS,41,7240-100,LUZ MOU,-7.378800120062058,38.34566704095445
pt.ine.add.PTCONT.1406031,R ALTO DA FORCA,2,7240-247,MOURÃO,-7.3395878129963625,38.382555374690135
pt.ine.add.PTCONT.1406426,R DOS MEIGOS,10,7240-012,GRANJA MOU,-7.257138186887177,38.3007721937304
pt.ine.add.PTCONT.1406427,R DR SÁ CARNEIRO,6,7240-100,LUZ MOU,-7.376237020885938,38.34464156412799
pt.ine.add.PTCONT.1406428,BR LUIS DE CAMÕES,,7240-224,MOURÃO,-7.339250145970427,38.38701636116164
pt.ine.add.PTCONT.1406429,R SÉRGIO VIEIRA DE MELO,16,7240-220,MOURÃO,-7.338976210515578,38.385300375348876
pt.ine.add.PTCONT.1406430,R SÉRGIO VIEIRA DE MELO,6,7240-220,MOURÃO,-7.338931423709559,38.38485740673593
pt.ine.add.PTCONT.1406461,R DO POÇO,24,7240-250,MOURÃO,-7.34194859416869,38.38663473461693
pt.ine.add.PTCONT.1406494,R JOAQUIM ANTÓNIO DE CASTRO,40,7240-012,GRANJA MOU,-7.253655169314358,38.30237397206143
pt.ine.add.PTCONT.1406495,R JOAQUIM ANTÓNIO DE CASTRO,50,7240-012,GRANJA MOU,-7.253318874324048,38.30182192673657
pt.ine.add.PTCONT.1406496,R PEDRO PITEIRA,7,7240-012,GRANJA MOU,-7.256864495442793,38.302988254836634
pt.ine.add.PTCONT.1406497,R FREI ANTÓNIO DAS CHAGAS,22,7240-252,MOURÃO,-7.34595459164379,38.38412484198357
pt.ine.add.PTCONT.1406498,R DE SÃO SEBASTIÃO,50,7240-245,MOURÃO,-7.341988384703377,38.38540063023445
pt.ine.add.PTCONT.1406499,LG GOVERNADOR FURTADO MENDONÇA,1,7240-229,MOURÃO,-7.346021972107594,38.384046253777804
pt.ine.add.PTCONT.1406500,R MARCOS GOMES VASCONCELOS ROSADO,1,7240-235,MOURÃO,-7.342891290318132,38.38322746468462
pt.ine.add.PTCONT.1406715,R DA CRUZ,11,7240-012,GRANJA MOU,-7.256459396593476,38.30191349940386
pt.ine.add.PTCONT.1406723,R DO ALCANCE,15,7240-246,MOURÃO,-7.34059471397508,38.38171938544007
pt.ine.add.PTCONT.1406830,LG 25 DE ABRIL,8,7240-100,LUZ MOU,-7.376466168543977,38.34416420706341
pt.ine.add.PTCONT.1406831,EN 256 1,,7240-253,MOURÃO,-7.261063262966097,38.38155116396703
pt.ine.add.PTCONT.1406832,R NOVA DE MOURA,3,7240-267,MOURÃO,-7.343374837674238,38.38064794945109
pt.ine.add.PTCONT.1406833,TV VALE GROU,7,7240-264,MOURÃO,-7.344092455692736,38.37914425938705
pt.ine.add.PTCONT.1406834,LG GOVERNADOR FURTADO MENDONÇA,10,7240-229,MOURÃO,-7.345723804005155,38.3841065758392
pt.ine.add.PTCONT.1407347,R DA CORREDOURA,,7240-012,GRANJA MOU,-7.256524884955306,38.30615203050033
pt.ine.add.PTCONT.1407370,R DO TELHEIRO,7,7240-012,GRANJA MOU,-7.255060556319697,38.30327477355689
pt.ine.add.PTCONT.1407371,MTE CEIA GARDUCHO,,7240-012,GRANJA MOU,-7.156724681780792,38.22797105347735
pt.ine.add.PTCONT.1407372,MTE CEIA GARDUCHO,,7240-012,GRANJA MOU,-7.156724681780792,38.22797105347735
pt.ine.add.PTCONT.1407373,MTE CEIA GARDUCHO,,7240-012,GRANJA MOU,-7.156724681780792,38.22797105347735
pt.ine.add.PTCONT.1407374,R PEDRO PITEIRA,22,7240-012,GRANJA MOU,-7.2569387562316825,38.30219777218738
pt.ine.add.PTCONT.1407529,R ANTÓNIO JOAQUIM BORGES BARRETO,11,7240-273,MOURÃO,-7.338039067936594,38.38583587159837
pt.ine.add.PTCONT.1407879,R DAS FLORES,53,7240-012,GRANJA MOU,-7.255958892103965,38.30119741933756
pt.ine.add.PTCONT.1407880,R 12 DE DEZEMBRO,8,7240-234,MOURÃO,-7.34498913801751,38.380419863645336
pt.ine.add.PTCONT.1407881,R 12 DE DEZEMBRO,10,7240-234,MOURÃO,-7.34514444701952,38.38037576602878
pt.ine.add.PTCONT.1407892,CM 1135 MONTE DO SR INÁCIO SARDINHA,,7240-253,MOURÃO,-7.306838157307227,38.38889135143864
pt.ine.add.PTCONT.1407897,R DE SÃO BENTO,7,7240-266,MOURÃO,-7.345866304515593,38.38370316173276
pt.ine.add.PTCONT.1407906,R NOVA,33,7240-012,GRANJA MOU,-7.254713214012872,38.300828988662126
pt.ine.add.PTCONT.1407913,R DR TITO FERNANDES,18,7240-273,MOURÃO,-7.33840814707834,38.386142454470495
pt.ine.add.PTCONT.1407914,LG ROGERIO BAÇÃO BARRETO,1,7240-273,MOURÃO,-7.339308408584175,38.38573072740254
pt.ine.add.PTCONT.1408145,ESTR 385,,7240-256,MOURÃO,-7.229260074722878,38.34557363899482
pt.ine.add.PTCONT.1408157,R MACHADO DOS SANTOS,33,7240-260,MOURÃO,-7.343825704766573,38.382388555530504
pt.ine.add.PTCONT.1408166,R DR LIBANIO ESQUIVEL,31,7240-256,MOURÃO,-7.340402555523827,38.38236360881739
pt.ine.add.PTCONT.1408212,R DO ROSSIO,12,7240-100,LUZ MOU,-7.375493587888328,38.344216048068425
pt.ine.add.PTCONT.1408597,R DIREITA,20,7240-012,GRANJA MOU,-7.253797587980922,38.30047021993122
pt.ine.add.PTCONT.1408598,R DE SÃO SEBASTIÃO,15,7240-012,GRANJA MOU,-7.256081322015475,38.30018746609848
pt.ine.add.PTCONT.1408599,BR LUIS DE CAMÕES,,7240-224,MOURÃO,-7.339609295473224,38.38731835882934
pt.ine.add.PTCONT.1408658,EN 256 1,,7240-204,MOURÃO,-7.296220130070926,38.382618190555014
pt.ine.add.PTCONT.1408659,R LEOVIGILDO DIAS PEREIRA RAMALHO,2,7240-259,MOURÃO,-7.343551753280868,38.3815923097036
pt.ine.add.PTCONT.1408660,TV DOS PINHEIROS,3,7240-271,MOURÃO,-7.344882298607016,38.381591925589824
pt.ine.add.PTCONT.1408661,BALDIO VALE DAS LAPAS ZONA INDUSTRIAL,,7240-264,MOURÃO,-7.347887858901042,38.37864324138823
pt.ine.add.PTCONT.1408703,R NOVA DE DE MOURÃO,1,7240-012,GRANJA MOU,-7.255624569371115,38.30496517509086
pt.ine.add.PTCONT.1408704,R PEDRO PITEIRA,33,7240-012,GRANJA MOU,-7.257094001073687,38.30205636453573
pt.ine.add.PTCONT.1408705,R DE SÃO BRÁS,8,7240-012,GRANJA MOU,-7.257004959749116,38.301408094926195
pt.ine.add.PTCONT.1408706,R DAS FLORES,55,7240-012,GRANJA MOU,-7.2560472772644635,38.30116510069933
pt.ine.add.PTCONT.1408707,R DE SÃO BENTO,16,7240-266,MOURÃO,-7.34543057564301,38.38355574634261
pt.ine.add.PTCONT.1409045,R DA MURALHA,3,7240-241,MOURÃO,-7.340733702477769,38.38317405933905
pt.ine.add.PTCONT.1408944,R DO ALCANCE,32,7240-246,MOURÃO,-7.34185657417446,38.38095493347921
pt.ine.add.PTCONT.1409025,LG DR LIBANIO ESQUIVEL,1,7240-228,MOURÃO,-7.342621756879498,38.380243014702366
pt.ine.add.PTCONT.1409027,R ALTO DA FORCA,22,7240-247,MOURÃO,-7.3392650684987615,38.38355719737846
pt.ine.add.PTCONT.1409046,CM 1135 MONTE BRAVO,,7240-253,MOURÃO,-7.315804832816279,38.3894947233683
pt.ine.add.PTCONT.1409086,R DE OLIVENÇA,22,7240-242,MOURÃO,-7.340749581009259,38.384542307255714
pt.ine.add.PTCONT.1409087,R DE SANTA MARGARIDA,20,7240-265,MOURÃO,-7.344930698384757,38.38384137661467
pt.ine.add.PTCONT.1409621,R DA MISERICÓRDIA,19,7240-012,GRANJA MOU,-7.2548086693259695,38.30224748598533
pt.ine.add.PTCONT.1409622,R NOVA,9,7240-100,LUZ MOU,-7.378401042260629,38.346109084428285
pt.ine.add.PTCONT.1409646,R DAS FLORES,7,7240-012,GRANJA MOU,-7.253836633300601,38.30175716894901
pt.ine.add.PTCONT.1410084,R DR SÁ CARNEIRO,1,7240-100,LUZ MOU,-7.376439423839191,38.344792533544975
pt.ine.add.PTCONT.1410085,R PROF AGOSTINHO FORTES,3,7240-273,MOURÃO,-7.339633118789795,38.38595039554317
pt.ine.add.PTCONT.1410135,EN 256 1 MONTE DAS PALMEIRAS,,7240-256,MOURÃO,-7.296661814628052,38.37209041572316
pt.ine.add.PTCONT.1410136,EN 385 MONTE DA BARRUSCA,,7240-202,MOURÃO,-7.331179169166237,38.379934793317396
pt.ine.add.PTCONT.1410137,LG TEN GENERAL JOSÉ ANTÓNIO DA ROSA,3,7240-231,MOURÃO,-7.342108377889292,38.38188893067381
pt.ine.add.PTCONT.1410138,LG MIGUEL BOMBARDA,5,7240-230,MOURÃO,-7.341136169617529,38.380944511360575
pt.ine.add.PTCONT.1410139,R DE SÃO SEBASTIÃO,44,7240-245,MOURÃO,-7.341916561829336,38.38527893697583
pt.ine.add.PTCONT.1410140,R DE SÃO SEBASTIÃO,69,7240-245,MOURÃO,-7.342113744477529,38.38590950082605
pt.ine.add.PTCONT.1410190,TV PUBLICA,1,7240-012,GRANJA MOU,-7.2574479025005,38.30260053546721
pt.ine.add.PTCONT.1410191,R DIREITA,18,7240-012,GRANJA MOU,-7.253652668403777,38.30050997211992
pt.ine.add.PTCONT.1410192,R DO BENQUERER,9,7240-248,MOURÃO,-7.343915288293377,38.383723886221524
pt.ine.add.PTCONT.1410193,R MARCOS GOMES VASCONCELOS ROSADO,11,7240-261,MOURÃO,-7.342605975575363,38.38313238134162
pt.ine.add.PTCONT.1410474,R DAS FLORES,29,7240-012,GRANJA MOU,-7.254701467120506,38.301502112168
pt.ine.add.PTCONT.1410574,R DE SÃO SEBASTIÃO,57,7240-245,MOURÃO,-7.341925550429985,38.38551430155349
pt.ine.add.PTCONT.1410938,R ÁLVARO AFONSO,22,7240-012,GRANJA MOU,-7.254585088157395,38.30174859017418
pt.ine.add.PTCONT.1410939,R PEDRO PITEIRA,34,7240-012,GRANJA MOU,-7.256976573256075,38.301791866615055
pt.ine.add.PTCONT.1410976,R DO ROSSIO,14,7240-100,LUZ MOU,-7.375349150223054,38.34422477108796
pt.ine.add.PTCONT.1410977,R DA MURALHA,12,7240-241,MOURÃO,-7.340870216355548,38.3831277297016
pt.ine.add.PTCONT.1411010,R DO ALCANCE,8,7240-246,MOURÃO,-7.3402923053307445,38.381717405458296
pt.ine.add.PTCONT.1411011,R JOAQUIM SILVESTRE VASCONCELOS ROSADO,11,7240-256,MOURÃO,-7.342365430537139,38.38249097928565
pt.ine.add.PTCONT.1411012,TV DOS PINHEIROS,26,7240-271,MOURÃO,-7.344446471397988,38.38159161576404
pt.ine.add.PTCONT.1411013,LG DR LIBANIO ESQUIVEL,5,7240-228,MOURÃO,-7.342285118201346,38.380699240475344
pt.ine.add.PTCONT.1411014,LG DR LIBANIO ESQUIVEL,2,7240-228,MOURÃO,-7.34266949561363,38.38031656769457
pt.ine.add.PTCONT.1411015,R DE SÃO SEBASTIÃO,20,7240-245,MOURÃO,-7.341536958702263,38.38443094145191
pt.ine.add.PTCONT.1411016,LG GOVERNADOR FURTADO MENDONÇA,4,7240-268,MOURÃO,-7.346034838643213,38.38385510036163
pt.ine.add.PTCONT.1411051,LG GOVERNADOR FURTADO MENDONÇA,4,7240-268,MOURÃO,-7.346034838643213,38.38385510036163
pt.ine.add.PTCONT.1411052,R DO BENQUERER,2,7240-248,MOURÃO,-7.344163782052977,38.383909442347445
pt.ine.add.PTCONT.1411163,R DO TELHEIRO,12,7240-012,GRANJA MOU,-7.255132282811127,38.303136160300475
pt.ine.add.PTCONT.1411184,R DO ROSSIO,14,7240-224,MOURÃO,-7.34043674037094,38.38527282137169
pt.ine.add.PTCONT.1411215,AV NOSSA SENHORA DAS CANDEIAS,20,7240-233,MOURÃO,-7.338576070216576,38.384597802348175
pt.ine.add.PTCONT.1411710,BR ALTO DA ESCOLA,9,7240-012,GRANJA MOU,-7.2559824102253,38.305709317844645
pt.ine.add.PTCONT.1411711,R DA MISERICÓRDIA,14,7240-012,GRANJA MOU,-7.254678012947007,38.30221347944159
pt.ine.add.PTCONT.1411712,R DAS FLORES,27,7240-012,GRANJA MOU,-7.254599293563885,38.301532950909376
pt.ine.add.PTCONT.1411713,R NOVA,44,7240-012,GRANJA MOU,-7.255019094361612,38.30066488844238
pt.ine.add.PTCONT.1411735,R DIREITA,39,7240-012,GRANJA MOU,-7.255018364546369,38.30017178906213
pt.ine.add.PTCONT.1411736,R DE VALADARES,20,7240-012,GRANJA MOU,-7.2556041580241395,38.300724412667094
pt.ine.add.PTCONT.1411737,EN 256,4,7240-227,MOURÃO,-7.339064696594689,38.382470484730575
pt.ine.add.PTCONT.1411738,LG MIGUEL BOMBARDA,,7240-230,MOURÃO,-7.341219289405973,38.38141388922144
pt.ine.add.PTCONT.1411778,R DE SÃO BENTO,23,7240-266,MOURÃO,-7.3454862286609295,38.383524213951134
pt.ine.add.PTCONT.1411779,R MACHADO DOS SANTOS,,7240-260,MOURÃO,-7.344240178213552,38.38255517060211
pt.ine.add.PTCONT.1411780,TV CURRAIS,13,7240-270,MOURÃO,-7.340860061047212,38.38501530767575
pt.ine.add.PTCONT.1411826,R JOÃO JOSE VASCONCELOS ROSADO,9,7240-254,MOURÃO,-7.343802627702915,38.384208713221916
pt.ine.add.PTCONT.1411827,R MARCOS GOMES VASCONCELOS ROSADO,16,7240-261,MOURÃO,-7.342572986348073,38.38318174620194
pt.ine.add.PTCONT.1412004,R PROF AGOSTINHO FORTES,5,7240-273,MOURÃO,-7.339732195721442,38.38596594459394
pt.ine.add.PTCONT.1412361,R JOAQUIM ANTÓNIO DE CASTRO,2,7240-019,GRANJA MOU,-7.255292405186607,38.30501674122585
pt.ine.add.PTCONT.1412395,MTE DO FÉLIX MIRA,,7240-016,GRANJA MOU,-7.151227316974081,38.20534051157575
pt.ine.add.PTCONT.1412396,R DA CANHOTA,27,7240-012,GRANJA MOU,-7.256132864059273,38.302479368667946
pt.ine.add.PTCONT.1412397,R DIREITA,23,7240-012,GRANJA MOU,-7.254391569418283,38.30038673008915
pt.ine.add.PTCONT.1412398,R DIREITA,36,7240-012,GRANJA MOU,-7.254283405267493,38.30030799011036
pt.ine.add.PTCONT.1412399,R DE SÃO SEBASTIÃO,20,7240-012,GRANJA MOU,-7.2555669258515865,38.299871586815186
pt.ine.add.PTCONT.1412400,LG 25 DE ABRIL,7,7240-100,LUZ MOU,-7.376946885365471,38.34454520536237
pt.ine.add.PTCONT.1412428,LG DAS PORTAS DE SÃO BENTO,1,7240-263,MOURÃO,-7.345069494408536,38.38263834064922
pt.ine.add.PTCONT.1412458,R DE SÃO SEBASTIÃO,34,7240-245,MOURÃO,-7.341750742079445,38.384950553135276
pt.ine.add.PTCONT.1412459,R DE OLIVENÇA,16,7240-242,MOURÃO,-7.340993537164407,38.384378643638286
pt.ine.add.PTCONT.1412460,TV DOS CURRAIS,1,7240-242,MOURÃO,-7.340906908906899,38.384566720634545
pt.ine.add.PTCONT.1412461,R DE OLIVENÇA,28,7240-242,MOURÃO,-7.34053141617199,38.38474175715799
pt.ine.add.PTCONT.1412462,R DO BENQUERER,4 A,7240-248,MOURÃO,-7.344050128079737,38.38385673072145
pt.ine.add.PTCONT.1412463,R DE SÃO BENTO,22,7240-266,MOURÃO,-7.345301698151604,38.38349113518888
pt.ine.add.PTCONT.1412494,R JOAQUIM JOSE VASCONCELOS GUSMÃO,7,7240-255,MOURÃO,-7.342139660179395,38.383356137588
pt.ine.add.PTCONT.1412495,R GEN HUMBERTO DELGADO,8,7240-253,MOURÃO,-7.343325874780901,38.382701793119246
pt.ine.add.PTCONT.1412637,R DA CORREDOURA,77,7240-012,GRANJA MOU,-7.2553742488332835,38.300408394724805
pt.ine.add.PTCONT.1412650,R DO ROSSIO,8,7240-100,LUZ MOU,-7.375727083522873,38.344200471640754
pt.ine.add.PTCONT.1412662,R 12 DE DEZEMBRO,13,7240-234,MOURÃO,-7.344942782005674,38.380209272581844
pt.ine.add.PTCONT.1412694,R D MANUEL I,10,7240-251,MOURÃO,-7.343796771388847,38.37999150502166
pt.ine.add.PTCONT.1412710,R DR LIBANIO ESQUIVEL,22,7240-256,MOURÃO,-7.340701758409186,38.382558229096226
pt.ine.add.PTCONT.1412746,R DA ESTRELA,17,7240-100,LUZ MOU,-7.372944558012593,38.34445811213371
pt.ine.add.PTCONT.1412784,R DR LIBANIO ESQUIVEL,36,7240-256,MOURÃO,-7.340330579422409,38.38252362304204
pt.ine.add.PTCONT.1413092,R NOVA,37,7240-100,LUZ MOU,-7.37715304831128,38.34518226754901
pt.ine.add.PTCONT.1413093,R DO MONTINHO,29,7240-100,LUZ MOU,-7.3765710679439085,38.34381931283765
pt.ine.add.PTCONT.1413094,BR LUIS DE CAMÕES,,7240-224,MOURÃO,-7.339370194214356,38.3870430510211
pt.ine.add.PTCONT.1413095,R ANTÓNIO JOAQUIM BORGES BARRETO,1,7240-273,MOURÃO,-7.3379896192331575,38.385189895114095
pt.ine.add.PTCONT.1413096,R DE OLIVENÇA,35,7240-242,MOURÃO,-7.340433805544561,38.38466519509712
pt.ine.add.PTCONT.1413097,R DA LAPA,15,7240-240,MOURÃO,-7.341506414509378,38.38323345436168
pt.ine.add.PTCONT.1413098,R DO ALCANCE,11,7240-246,MOURÃO,-7.34041424892688,38.38181053759684
pt.ine.add.PTCONT.1413150,R DA CORREDOURA,26,7240-012,GRANJA MOU,-7.256138942881112,38.304023121042185
pt.ine.add.PTCONT.1413151,EN 256 1,,7240-253,MOURÃO,-7.260710677280908,38.381368371188195
pt.ine.add.PTCONT.1413152,R MACHADO DOS SANTOS,42,7240-260,MOURÃO,-7.343626110298398,38.38248029910701
pt.ine.add.PTCONT.1413153,BR DR JOSE TOMAS RAVASCO ANJOS L,L 3,7240-223,MOURÃO,-7.344626726606702,38.382060206047775
pt.ine.add.PTCONT.1413154,BR DR JOSE TOMAS RAVASCO DOS ANJOS,,7240-223,MOURÃO,-7.344626726606702,38.382060206047775
pt.ine.add.PTCONT.1413220,MTE MARIA FRADINHO BRANCO,,7240-014,GRANJA MOU,-7.221832390556032,38.25816010517104
pt.ine.add.PTCONT.1413221,R PEDRO PITEIRA,23,7240-012,GRANJA MOU,-7.2570158950296495,38.302385035023974
pt.ine.add.PTCONT.1413222,R PEDRO PITEIRA,24,7240-012,GRANJA MOU,-7.256955970017062,38.30215800264787
pt.ine.add.PTCONT.1413223,BC DA MISERICÓRDIA,9,7240-012,GRANJA MOU,-7.256379027709947,38.301604107903096
pt.ine.add.PTCONT.1413224,R DOS MEIGOS,2,7240-012,GRANJA MOU,-7.25694064738012,38.30099235843571
pt.ine.add.PTCONT.1413225,R DIREITA,2,7240-012,GRANJA MOU,-7.252897015127868,38.300782774904526
pt.ine.add.PTCONT.1413226,R JOAQUIM JOSE VASCONCELOS GUSMÃO,10,7240-255,MOURÃO,-7.342414337543791,38.3833760193685
pt.ine.add.PTCONT.1413448,R COMBATENTES DA GRANDE GUERRA,5,7240-237,MOURÃO,-7.345023980444765,38.3829698766115
pt.ine.add.PTCONT.1413484,R DA CORREDOURA,2,7240-012,GRANJA MOU,-7.25624230293383,38.30493376031041
pt.ine.add.PTCONT.1413502,R DAS PALHOTAS,1,7240-100,LUZ MOU,-7.373988150995708,38.34439640657536
pt.ine.add.PTCONT.1413526,LG ROGERIO BAÇÃO BARRETO,2,7240-273,MOURÃO,-7.339287415183006,38.38587756794768
pt.ine.add.PTCONT.1413599,R JOÃO JOSÉ VASCONCELOS ROSADO,2 A,7240-254,MOURÃO,-7.344334910483186,38.38441097685225
pt.ine.add.PTCONT.1413601,TV DOS CURRAIS,6,7240-270,MOURÃO,-7.341006993920592,38.38454531172311
pt.ine.add.PTCONT.1413959,R ÁLVARO AFONSO,56,7240-012,GRANJA MOU,-7.25636558715669,38.30134025771642
pt.ine.add.PTCONT.1413965,R MOUZINHO DE ALBUQUERQUE,14,7240-262,MOURÃO,-7.339826537610106,38.38355285642049
pt.ine.add.PTCONT.1413966,TV DOS PINHEIROS,25,7240-271,MOURÃO,-7.3437426722834465,38.38065246101904
pt.ine.add.PTCONT.1413975,R DA CANHOTA,5,7240-012,GRANJA MOU,-7.254647173309491,38.302588602766335
pt.ine.add.PTCONT.1413979,R DE SÃO JOSÉ,14,7240-268,MOURÃO,-7.346406160016607,38.383355820812746
pt.ine.add.PTCONT.1413993,R NOVA,21,7240-012,GRANJA MOU,-7.254177397795842,38.30099170773154
pt.ine.add.PTCONT.1414006,R DO ALCANCE,24,7240-246,MOURÃO,-7.3415234942183085,38.38111569378151
pt.ine.add.PTCONT.1414301,R DR LIBANIO ESQUIVEL,37,7240-256,MOURÃO,-7.340253233414296,38.382344766630716
pt.ine.add.PTCONT.1414775,R DO TELHEIRO,3,7240-012,GRANJA MOU,-7.254695638135028,38.30330965220386
pt.ine.add.PTCONT.1414799,R DAS FLORES,65,7240-012,GRANJA MOU,-7.256449976444869,38.3010226304495
pt.ine.add.PTCONT.1414800,R DE SÃO SEBASTIÃO,8,7240-012,GRANJA MOU,-7.25601910202269,38.30032241074242
pt.ine.add.PTCONT.1414847,R VASCO DA GAMA,3 A,7240-269,MOURÃO,-7.340332223693912,38.38395064274322
pt.ine.add.PTCONT.1414848,R DA MURALHA,5,7240-241,MOURÃO,-7.340723751973495,38.383261367380555
pt.ine.add.PTCONT.1414849,MTE DOMINGOS RATO FIALHO,,7240-256,MOURÃO,-7.3159181594818445,38.37942401998147
pt.ine.add.PTCONT.1414850,TV DOS PINHEIROS,34,7240-271,MOURÃO,-7.344272422858577,38.381439971035654
pt.ine.add.PTCONT.1414851,R 3 B,6,7240-221,MOURÃO,-7.3453458541072205,38.38137030358328
pt.ine.add.PTCONT.1414881,R DE SÃO SEBASTIÃO,65,7240-245,MOURÃO,-7.342091503089809,38.3858305650804
pt.ine.add.PTCONT.1414882,TV DOS CURRAIS,10,7240-270,MOURÃO,-7.341017303249671,38.38460033506193
pt.ine.add.PTCONT.1414883,R DE SÃO BENTO,10,7240-266,MOURÃO,-7.345621125246126,38.38365901909287
pt.ine.add.PTCONT.1414884,R DE SANTA MARGARIDA,9,7240-265,MOURÃO,-7.345004941550198,38.38379468921769
pt.ine.add.PTCONT.1414903,R JOAQUIM SILVESTRE VASCONCELOS ROSADO,26,7240-256,MOURÃO,-7.342037561520554,38.38264035514786
pt.ine.add.PTCONT.1414923,TV DAS EIRAS,3,7240-220,MOURÃO,-7.339343398135955,38.38478263389813
pt.ine.add.PTCONT.1415365,R DAS FLORES,67,7240-012,GRANJA MOU,-7.256659173647052,38.30098040297704
pt.ine.add.PTCONT.1415374,R DE VALADARES,18,7240-012,GRANJA MOU,-7.257212174970961,38.30033762070269
pt.ine.add.PTCONT.1415386,R DE SÃO SEBASTIÃO,75,7240-245,MOURÃO,-7.342193299991534,38.38602821566818
pt.ine.add.PTCONT.1415387,R DE SÃO SEBASTIÃO,21,7240-245,MOURÃO,-7.341458991742925,38.38452026846728
pt.ine.add.PTCONT.1415391,R DE SÃO JOSÉ,17,7240-268,MOURÃO,-7.346419352627558,38.38349644658691
pt.ine.add.PTCONT.1415393,R DAS FLORES,6,7240-012,GRANJA MOU,-7.253765010470257,38.30163237577118
pt.ine.add.PTCONT.1415394,R I,2,7240-100,LUZ MOU,-7.376105956023389,38.34388919241747
pt.ine.add.PTCONT.1415395,R DE MOURA,4,7240-100,LUZ MOU,-7.372905423849477,38.34270062192607
pt.ine.add.PTCONT.1415401,R DR TITO FERNANDES,20,7240-273,MOURÃO,-7.3384182115260215,38.386268641706884
pt.ine.add.PTCONT.1415402,R ALTO DA FORCA,6,7240-247,MOURÃO,-7.3395157170334775,38.38277069170998
pt.ine.add.PTCONT.1415403,TV DOS PINHEIROS,9,7240-271,MOURÃO,-7.344501770839382,38.38133798922898
pt.ine.add.PTCONT.1415407,AV NOSSA SENHORA DAS CANDEIAS,12,7240-233,MOURÃO,-7.338995357499254,38.38439046611458
pt.ine.add.PTCONT.1415412,R DA CRUZ,5,7240-012,GRANJA MOU,-7.256513475050602,38.30213926407684
pt.ine.add.PTCONT.1415778,R DAS FLORES,38,7240-012,GRANJA MOU,-7.255199807079414,38.30126345166262
pt.ine.add.PTCONT.1415779,R DAS FLORES,38,7240-012,GRANJA MOU,-7.255199807079414,38.30126345166262
pt.ine.add.PTCONT.1416232,R DE TRÁS,45,7240-100,LUZ MOU,-7.378890785066894,38.3457487013771
pt.ine.add.PTCONT.1416233,BR LUIS DE CAMÕES,,7240-224,MOURÃO,-7.339649526741902,38.38712716721408
pt.ine.add.PTCONT.1416280,CM 1135 MONTE DE MANUEL MOTA,,7240-253,MOURÃO,-7.305997309751731,38.39237170191645
pt.ine.add.PTCONT.1416281,EN 256 1,,7240-256,MOURÃO,-7.315947313453901,38.38090161688231
pt.ine.add.PTCONT.1416282,R 12 DE DEZEMBRO,4,7240-234,MOURÃO,-7.344780081900495,38.38048466513439
pt.ine.add.PTCONT.1416283,LG DR LIBANIO ESQUIVEL,4,7240-228,MOURÃO,-7.342773236070492,38.38044780858581
pt.ine.add.PTCONT.1416284,R DO POÇO,16,7240-250,MOURÃO,-7.342222714745674,38.38656689104083
pt.ine.add.PTCONT.1416285,R DA PEDREIRA,2,7240-243,MOURÃO,-7.342693677178719,38.38402102588891
pt.ine.add.PTCONT.1416322,R PEDRO PITEIRA,14,7240-012,GRANJA MOU,-7.256827211335233,38.302497758972095
pt.ine.add.PTCONT.1416323,R DA CRUZ,9,7240-012,GRANJA MOU,-7.256475531072154,38.301975108973
pt.ine.add.PTCONT.1416447,R D MANUEL I,16,7240-251,MOURÃO,-7.344067493832607,38.379858740344176
pt.ine.add.PTCONT.1416771,R JOAQUIM ANTÓNIO DE CASTRO,44,7240-012,GRANJA MOU,-7.253475644561347,38.30209335991482
pt.ine.add.PTCONT.1416803,R PEDRO PITEIRA,,7240-012,GRANJA MOU,-7.2575020193819695,38.30176208984026
pt.ine.add.PTCONT.1416804,R DE TRÁS,18,7240-100,LUZ MOU,-7.378321783046662,38.34492789696034
pt.ine.add.PTCONT.1416805,LG 25 DE ABRIL,5,7240-100,LUZ MOU,-7.376920660882045,38.34446378063944
pt.ine.add.PTCONT.1416806,R DR SÁ CARNEIRO,40,7240-100,LUZ MOU,-7.374486860024116,38.3449839963352
pt.ine.add.PTCONT.1416839,R DR TITO FERNANDES,1,7240-273,MOURÃO,-7.338551147825444,38.38512530915807
pt.ine.add.PTCONT.1416840,R DR LIBANIO ESQUIVEL,33,7240-256,MOURÃO,-7.340325609105081,38.38235595552614
pt.ine.add.PTCONT.1416841,BR DR JOSE TOMAS RAVASCO ANJOS,26,7240-223,MOURÃO,-7.344145585056135,38.382094005499354
pt.ine.add.PTCONT.1416842,BC DAS PORTAS DE SÃO BENTO,2,7240-263,MOURÃO,-7.3449946031781685,38.38261007384957
pt.ine.add.PTCONT.1416870,R D MANUEL I,14,7240-251,MOURÃO,-7.344003054906597,38.379888588714394
pt.ine.add.PTCONT.1416871,R DE SÃO SEBASTIÃO,53,7240-245,MOURÃO,-7.341857610456495,38.38538960400773
pt.ine.add.PTCONT.1417338,R DA LAPA,13 A,7240-240,MOURÃO,-7.341516357801635,38.383160267034796
pt.ine.add.PTCONT.1417687,R D MANUEL I,11,7240-251,MOURÃO,-7.343807950996944,38.38014298816417
pt.ine.add.PTCONT.1417700,R JOAQUIM ANTÓNIO DE CASTRO,20,7240-019,GRANJA MOU,-7.2548697824173,38.304275845365254
pt.ine.add.PTCONT.1417701,R SACADURA CABRAL,38,7240-264,MOURÃO,-7.345083670291237,38.378527370761326
pt.ine.add.PTCONT.1417706,R DR SÁ CARNEIRO,23,7240-100,LUZ MOU,-7.375530513087151,38.344859258837765
pt.ine.add.PTCONT.1417712,R DO TELHEIRO,11,7240-012,GRANJA MOU,-7.255464164953042,38.303236992425276
pt.ine.add.PTCONT.1417715,MTE NOVO,,7240-256,MOURÃO,-7.265359000720682,38.364926359684965
pt.ine.add.PTCONT.1417719,R DR SÁ CARNEIRO,42,7240-100,LUZ MOU,-7.374332419504822,38.34502530227819
pt.ine.add.PTCONT.1417725,R DAS FLORES,4,7240-012,GRANJA MOU,-7.25363844885848,38.30166469833346
pt.ine.add.PTCONT.1417729,R REVERENDO DEAO ALCANTARA GUERREIRO,2,7240-273,MOURÃO,-7.339071903306597,38.386398475242956
pt.ine.add.PTCONT.1417737,R ÁLVARO AFONSO,53,7240-012,GRANJA MOU,-7.256142311252772,38.301518760359606
pt.ine.add.PTCONT.1417976,LG ROGERIO BAÇÃO BARRETO,5,7240-273,MOURÃO,-7.3389284029943145,38.38609721645541
pt.ine.add.PTCONT.1417977,R PEDRO PITEIRA,20,7240-012,GRANJA MOU,-7.256904247991985,38.30228182665805
pt.ine.add.PTCONT.1418419,R DAS FLORES,5,7240-012,GRANJA MOU,-7.253704036415148,38.301797929722696
pt.ine.add.PTCONT.1418420,R PEDRO PITEIRA,12,7240-012,GRANJA MOU,-7.256826344384759,38.30256982115954
pt.ine.add.PTCONT.1418421,R ÁLVARO AFONSO,46,7240-012,GRANJA MOU,-7.255265762445404,38.301591282070156
pt.ine.add.PTCONT.1418447,R ÁLVARO AFONSO,52,7240-012,GRANJA MOU,-7.255907483006156,38.30140890149054
pt.ine.add.PTCONT.1418448,R DE SÃO SEBASTIÃO,31,7240-012,GRANJA MOU,-7.255593764620831,38.29973526787149
pt.ine.add.PTCONT.1418449,R DE TRÁS,35,7240-100,LUZ MOU,-7.378687046060933,38.34554019338246
pt.ine.add.PTCONT.1418450,R DA IGREJA,44,7240-100,LUZ MOU,-7.376989766071236,38.34413336713594
pt.ine.add.PTCONT.1418451,MTE DO TARRINHO,,7240-100,LUZ MOU,-7.35544384753466,38.326209072452016
pt.ine.add.PTCONT.1418452,R ANTÓNIO JOAQUIM BORGES BARRETO,19,7240-273,MOURÃO,-7.338057124520732,38.386277410588086
pt.ine.add.PTCONT.1418453,R ALTO DA FORCA,7,7240-247,MOURÃO,-7.33963806080553,38.38295412411157
pt.ine.add.PTCONT.1418483,R MACHADO DOS SANTOS,40-40 A,7240-260,MOURÃO,-7.343705547252248,38.38246766092528
pt.ine.add.PTCONT.1418484,R MACHADO DOS SANTOS,40-40 A,7240-260,MOURÃO,-7.343705547252248,38.38246766092528
pt.ine.add.PTCONT.1418485,R MACHADO DOS SANTOS,13,7240-260,MOURÃO,-7.344655086059268,38.38268184070219
pt.ine.add.PTCONT.1418486,R NOVA DE MOURA,10,7240-267,MOURÃO,-7.343199707761565,38.38095468761861
pt.ine.add.PTCONT.1418724,R DAS FLORES,2,7240-012,GRANJA MOU,-7.253505104694807,38.301702593055445
pt.ine.add.PTCONT.1418734,LG MIGUEL BOMBARDA,27,7240-230,MOURÃO,-7.340757362319341,38.380959578514044
pt.ine.add.PTCONT.1418755,R DA FÁBRICA,7,7240-239,MOURÃO,-7.34111841975664,38.381823892179085
pt.ine.add.PTCONT.1418789,R DR SA CARNEIRO,38,7240-100,LUZ MOU,-7.374597997609904,38.34495528245038
pt.ine.add.PTCONT.1418841,R DO ALCANCE,27,7240-246,MOURÃO,-7.340979831273383,38.38153452765975
pt.ine.add.PTCONT.1419124,R ÁLVARO AFONSO,17,7240-012,GRANJA MOU,-7.254615408903642,38.301842364183585
pt.ine.add.PTCONT.1419125,R ÁLVARO AFONSO,27,7240-012,GRANJA MOU,-7.255044727016452,38.30174286550549
pt.ine.add.PTCONT.1419164,R DR SÁ CARNEIRO,27,7240-100,LUZ MOU,-7.37539762867627,38.34489157435313
pt.ine.add.PTCONT.1419204,TV DAS EIRAS,7,7240-220,MOURÃO,-7.339532340776454,38.38479135057362
pt.ine.add.PTCONT.1419205,R ALTO DA FORCA,1,7240-247,MOURÃO,-7.339767094695167,38.38267634002511
pt.ine.add.PTCONT.1419206,CM 1135 SESMO DO COLMEAL,,7240-204,MOURÃO,-7.321377722486026,38.38960551575738
pt.ine.add.PTCONT.1419207,R DO ALCANCE,41,7240-246,MOURÃO,-7.341655821168396,38.3811980890471
pt.ine.add.PTCONT.1419256,ESTR DA PÓVOA MONTE JOÃO VALES,,7240-263,MOURÃO,-7.336251316633573,38.34528652169677
pt.ine.add.PTCONT.1419257,R FREI ANTÓNIO DAS CHAGAS,14,7240-252,MOURÃO,-7.345964563615274,38.384430022575195
pt.ine.add.PTCONT.1419258,R DE SÃO SEBASTIÃO,31,7240-245,MOURÃO,-7.341522025831766,38.38474190066728
pt.ine.add.PTCONT.1419259,R DE SANTA MARGARIDA,12,7240-265,MOURÃO,-7.345175211623507,38.38394713711352
pt.ine.add.PTCONT.1419568,R DE SÃO SEBASTIÃO,32,7240-245,MOURÃO,-7.341709123419941,38.38488360743426
pt.ine.add.PTCONT.1419965,R JOAQUIM ANTÓNIO DE CASTRO,46,7240-012,GRANJA MOU,-7.2533968241355735,38.3019936744157
pt.ine.add.PTCONT.1419966,R DAS FLORES,26,7240-012,GRANJA MOU,-7.254673735093491,38.30142412708722
pt.ine.add.PTCONT.1419967,MTE DA ALAGOA,,7240-016,GRANJA MOU,-7.168935430162337,38.24249481698487
pt.ine.add.PTCONT.1419968,MTE DO COBRINHA,,7240-016,GRANJA MOU,-7.184872624579905,38.21150878111325
pt.ine.add.PTCONT.1419969,R DAS FLORES,40,7240-012,GRANJA MOU,-7.255353279583961,38.3013363058118
pt.ine.add.PTCONT.1420007,R NOVA,38,7240-012,GRANJA MOU,-7.254830228435131,38.300702868130244
pt.ine.add.PTCONT.1420008,R MANUEL JOAQUIM BAÇÃO LOPES,6,7240-224,MOURÃO,-7.339824156847723,38.38533400707594
pt.ine.add.PTCONT.1420009,R 25 DE ABRIL,4,7240-224,MOURÃO,-7.3393709745984355,38.38507055310635
pt.ine.add.PTCONT.1420010,R DE OLIVENÇA,31,7240-242,MOURÃO,-7.340532322637395,38.38457133951138
pt.ine.add.PTCONT.1420038,LG GOVERNADOR FURTADO MENDONÇA,11,7240-229,MOURÃO,-7.3457902640237895,38.3840986623332
pt.ine.add.PTCONT.1420039,R JOÃO JOSE VASCONCELOS ROSADO,36,7240-254,MOURÃO,-7.342803672196062,38.384083449650035
pt.ine.add.PTCONT.1420040,R DE SÃO JOSÉ,7,7240-268,MOURÃO,-7.34622297869025,38.383682120871796
pt.ine.add.PTCONT.1420297,AV NOSSA SENHORA DAS CANDEIAS,8,7240-247,MOURÃO,-7.339084624844251,38.38418325814369
pt.ine.add.PTCONT.1420305,ESTR DA CIRCUNVALAÇÃO,,7240-012,GRANJA MOU,-7.257902549276656,38.30282013458903
pt.ine.add.PTCONT.1420708,TV DOS PINHEIROS,21,7240-271,MOURÃO,-7.343959954749513,38.38084532956507
pt.ine.add.PTCONT.1420712,R DA ESCOLA,1,7240-238,MOURÃO,-7.342038335614161,38.38033141997312
pt.ine.add.PTCONT.1420713,R DO ALCANCE,46,7240-228,MOURÃO,-7.343024617217352,38.380373260468986
pt.ine.add.PTCONT.1420720,R NOVA DE DE MOURÃO,12 A,7240-012,GRANJA MOU,-7.255359007236961,38.304233493259865
pt.ine.add.PTCONT.1420728,R DE SANTA MARGARIDA,8,7240-265,MOURÃO,-7.3453174718129635,38.384022462975345
pt.ine.add.PTCONT.1420733,LG TEN GENERAL JOSÉ ANTÓNIO DA ROSA,26,7240-261,MOURÃO,-7.341877301286996,38.38225060779022
pt.ine.add.PTCONT.1420734,R DE SÃO JOÃO,14,7240-267,MOURÃO,-7.342777511842865,38.38199822091917
pt.ine.add.PTCONT.1420741,R DA PEDREIRA,15,7240-243,MOURÃO,-7.342408947365913,38.383871850834474
pt.ine.add.PTCONT.1421021,R DAS PALHOTAS,6,7240-100,LUZ MOU,-7.37380156290265,38.344544741856424
pt.ine.add.PTCONT.1421027,EN 256 1 MONTE COLAÇO,,7240-204,MOURÃO,-7.307397911159513,38.38194074489689
pt.ine.add.PTCONT.1421490,R DIREITA,22,7240-012,GRANJA MOU,-7.253864585636917,38.30044678902934
pt.ine.add.PTCONT.1421491,R SACADURA CABRAL,32,7240-264,MOURÃO,-7.344628091020611,38.37890245785702
pt.ine.add.PTCONT.1421494,R NOVA DE DE MOURÃO,21,7240-012,GRANJA MOU,-7.255580081014847,38.304289198836656
pt.ine.add.PTCONT.1421495,R DE SÃO SEBASTIÃO,29,7240-012,GRANJA MOU,-7.2556974942578005,38.2998503249302
pt.ine.add.PTCONT.1421496,R DO POÇO,6,7240-250,MOURÃO,-7.3425786980897465,38.386474119276336
pt.ine.add.PTCONT.1421503,R JOÃO JOSE VASCONCELOS ROSADO,14,7240-254,MOURÃO,-7.343983408249504,38.38432937231844
pt.ine.add.PTCONT.1421504,R JOÃO JOSE VASCONCELOS ROSADO,34,7240-254,MOURÃO,-7.342887168184702,38.3841010106871
pt.ine.add.PTCONT.1421512,R DAS FLORES,3,7240-012,GRANJA MOU,-7.253612371107356,38.30181525963521
pt.ine.add.PTCONT.1421513,R DO ROSSIO,15,7240-100,LUZ MOU,-7.375119025582535,38.34435283349078
pt.ine.add.PTCONT.1421514,R LEOVIGILDO DIAS PEREIRA RAMALHO,4,7240-259,MOURÃO,-7.3447328711814315,38.38198780598056
pt.ine.add.PTCONT.1421515,R LEOVIGILDO DIAS PEREIRA RAMALHO,,7240-259,MOURÃO,-7.3447328711814315,38.38198780598056
pt.ine.add.PTCONT.1421520,MTE DA BARRAGEM,,7240-011,GRANJA MOU,-7.242169481542935,38.299278431288506
pt.ine.add.PTCONT.1421521,MTE CANEIRO,,7240-100,LUZ MOU,-7.410682343610927,38.33973293882499
pt.ine.add.PTCONT.1421525,R JOAQUIM JOSE VASCONCELOS GUSMÃO,16 A,7240-255,MOURÃO,-7.342197173301997,38.383416125921364
pt.ine.add.PTCONT.1421530,ESTR DA CIRCUNVALAÇÃO,,7240-012,GRANJA MOU,-7.257717377485446,38.303007933065736
pt.ine.add.PTCONT.1421532,R NOVA DE MOURA,23,7240-267,MOURÃO,-7.342771086097998,38.381238915192256
pt.ine.add.PTCONT.1421823,R JOAQUIM SILVESTRE VASCONCELOS ROSADO,13,7240-256,MOURÃO,-7.342170391048299,38.38250928221314
pt.ine.add.PTCONT.1421824,R JOAQUIM SILVESTRE VASCONCELOS ROSADO,13,7240-256,MOURÃO,-7.342170391048299,38.38250928221314
pt.ine.add.PTCONT.1421839,R JOAQUIM SILVESTRE VASCONCELOS ROSADO,24,7240-256,MOURÃO,-7.342144114798776,38.3826339394153
pt.ine.add.PTCONT.1422114,R DA MISERICÓRDIA,16,7240-012,GRANJA MOU,-7.254730055292185,38.30220057699829
pt.ine.add.PTCONT.1422147,R ÁLVARO AFONSO,18,7240-012,GRANJA MOU,-7.2545295725332455,38.30175869369898
pt.ine.add.PTCONT.1422148,R DA CRUZ,8,7240-012,GRANJA MOU,-7.25634475343937,38.30208591905954
pt.ine.add.PTCONT.1422149,R NOVA,32,7240-012,GRANJA MOU,-7.254658012383432,38.30074192440917
pt.ine.add.PTCONT.1422150,R DOS MEIGOS,14,7240-012,GRANJA MOU,-7.257207786166162,38.300687779605376
pt.ine.add.PTCONT.1422151,TV DOS CASTELHANOS,24,7240-012,GRANJA MOU,-7.253353260682107,38.29992137351413
pt.ine.add.PTCONT.1422152,R DR SÁ CARNEIRO,41,7240-100,LUZ MOU,-7.374906659086294,38.34502543575078
pt.ine.add.PTCONT.1422153,R DA FONTE,4,7240-100,LUZ MOU,-7.373458859558429,38.3433251772953
pt.ine.add.PTCONT.1422186,R MANUEL JOAQUIM BAÇÃO LOPES,14,7240-224,MOURÃO,-7.3394764863197945,38.38557902992576
pt.ine.add.PTCONT.1422187,R DA MURALHA,6,7240-241,MOURÃO,-7.34089327324882,38.38293896543383
pt.ine.add.PTCONT.1422188,R DA MURALHA,19,7240-241,MOURÃO,-7.340571349322022,38.38393650651562
pt.ine.add.PTCONT.1422189,R DR LIBANIO ESQUIVEL,11,7240-256,MOURÃO,-7.341149074668912,38.38246673020165
pt.ine.add.PTCONT.1422190,R TAPADA ALBUFEIRA,,7240-204,MOURÃO,-7.3229422166813425,38.38582376499546
pt.ine.add.PTCONT.1422228,R DE SÃO SEBASTIÃO,16 A,7240-245,MOURÃO,-7.341514884647441,38.38433685530744
pt.ine.add.PTCONT.1422229,R DE SANTA MARGARIDA,2,7240-265,MOURÃO,-7.345443650571486,38.38408705597619
pt.ine.add.PTCONT.1422271,R JOAQUIM JOSE VASCONCELOS GUSMÃO,26,7240-255,MOURÃO,-7.3418634362561574,38.38347402442475
pt.ine.add.PTCONT.1422272,R DA PEDREIRA,7,7240-243,MOURÃO,-7.342603015643661,38.38392207769289
pt.ine.add.PTCONT.1422273,R JOAQUIM SILVESTRE VASCONCELOS ROSADO,14,7240-256,MOURÃO,-7.342438987795577,38.38260204226594
pt.ine.add.PTCONT.1432720,R DO CORRO,,7240-012,GRANJA MOU,-7.257714803460183,38.300368398520035
pt.ine.add.PTCONT.1422903,AV NOSSA SENHORA DAS CANDEIAS,11,7240-220,MOURÃO,-7.338512248024861,38.38489025868947
pt.ine.add.PTCONT.1422911,R DA ESCOLA,15,7240-238,MOURÃO,-7.341391750752767,38.38064864343524
pt.ine.add.PTCONT.1422912,R DA CORREDOURA,11,7240-012,GRANJA MOU,-7.256445415431847,38.30499840883602
pt.ine.add.PTCONT.1422913,R DIREITA,6,7240-012,GRANJA MOU,-7.25310578836833,38.300710268239975
pt.ine.add.PTCONT.1422921,R NOVA DE DE MOURÃO,20,7240-012,GRANJA MOU,-7.255285284511302,38.30371044392776
pt.ine.add.PTCONT.1422922,R NOVA,17,7240-100,LUZ MOU,-7.37813664772177,38.34586095992466
pt.ine.add.PTCONT.1422934,R ÁLVARO AFONSO,43,7240-012,GRANJA MOU,-7.255688233959995,38.30157842479095
pt.ine.add.PTCONT.1422935,R DE SÃO SEBASTIÃO,13,7240-245,MOURÃO,-7.341399608530197,38.3843168418484
pt.ine.add.PTCONT.1422940,R DA MISERICÓRDIA,32,7240-012,GRANJA MOU,-7.255125526162636,38.30206010938608
pt.ine.add.PTCONT.1422941,R JOAQUIM ANTÓNIO DE CASTRO,68,7240-012,GRANJA MOU,-7.252811909894764,38.30093240032755
pt.ine.add.PTCONT.1422942,R DE MOURA,9,7240-100,LUZ MOU,-7.372937499203049,38.3429446246408
pt.ine.add.PTCONT.1422947,R DAS FLORES,36,7240-012,GRANJA MOU,-7.255051141508676,38.301321417214204
pt.ine.add.PTCONT.1422948,R DE SÃO JOSÉ,1,7240-268,MOURÃO,-7.346092122427504,38.383800237589455
pt.ine.add.PTCONT.1422949,R DE SANTA MARGARIDA,30,7240-265,MOURÃO,-7.344583887881302,38.38370942895477
pt.ine.add.PTCONT.1422958,R DO ALCANCE,55,7240-246,MOURÃO,-7.342138124469785,38.38096226386689
pt.ine.add.PTCONT.1423197,R DA MISERICÓRDIA,10,7240-012,GRANJA MOU,-7.254480427827683,38.3022711977079
pt.ine.add.PTCONT.1423767,R DE SÃO SEBASTIÃO,11,7240-012,GRANJA MOU,-7.256181728669466,38.3002929343669
pt.ine.add.PTCONT.1423768,AV NOSSA SENHORA DAS CANDEIAS,28,7240-233,MOURÃO,-7.337982333043742,38.38488550786788
pt.ine.add.PTCONT.1423769,R DE OLIVENÇA,17,7240-242,MOURÃO,-7.340921119264357,38.38400536432516
pt.ine.add.PTCONT.1423812,R DE SÃO BENTO,39,7240-266,MOURÃO,-7.344900050252795,38.38320491856196
pt.ine.add.PTCONT.1423813,R 12 DE DEZEMBRO,3,7240-251,MOURÃO,-7.344249994238299,38.3804665792887
pt.ine.add.PTCONT.1423848,R DA CANHOTA,28,7240-012,GRANJA MOU,-7.2558159665767485,38.302363126916546
pt.ine.add.PTCONT.1423849,MTE DA ALAGOA,,7240-020,GRANJA MOU,-7.169220727487808,38.242515177824004
pt.ine.add.PTCONT.1423850,R DE SÃO SEBASTIÃO,60,7240-245,MOURÃO,-7.342165720951599,38.385732121889596
pt.ine.add.PTCONT.1423851,PC DA REPÚBLICA,31,7240-233,MOURÃO,-7.344667767716457,38.383385269788846
pt.ine.add.PTCONT.1423852,R GEN HUMBERTO DELGADO,4,7240-253,MOURÃO,-7.343555365063799,38.38277797543446
pt.ine.add.PTCONT.1424000,R DR SÁ CARNEIRO,45,7240-100,LUZ MOU,-7.374711063520432,38.34508213389482
pt.ine.add.PTCONT.1424068,R ANTÓNIO JOAQUIM BORGES BARRETO,13,7240-273,MOURÃO,-7.338049328947148,38.3859440432022
pt.ine.add.PTCONT.1424266,R JOAQUIM ANTÓNIO DE CASTRO,4,7240-019,GRANJA MOU,-7.255247873565243,38.30491731359455
pt.ine.add.PTCONT.1424297,R NOVA,6,7240-012,GRANJA MOU,-7.253487501455466,38.30111151333526
pt.ine.add.PTCONT.1424298,R DE MOURÃO,20,7240-100,LUZ MOU,-7.3729889843235235,38.34539034942744
pt.ine.add.PTCONT.1424340,R DO ROSSIO,24,7240-273,MOURÃO,-7.340075894835334,38.3859428861432
pt.ine.add.PTCONT.1424341,R DO ROSSIO,20,7240-222,,-7.340261563901728,38.38558184626367
pt.ine.add.PTCONT.1424342,TV DOS PINHEIROS,46,7240-271,MOURÃO,-7.344028290351291,38.38120977845509
pt.ine.add.PTCONT.1424343,BR DR JOSE TOMAS RAVASCO ANJOS,4,7240-223,MOURÃO,-7.344528790392785,38.38166728791678
pt.ine.add.PTCONT.1424387,R NOVA DE MOURA,9,7240-267,MOURÃO,-7.343201198682549,38.38081738363694
pt.ine.add.PTCONT.1424388,R DO BENQUERER,12,7240-248,MOURÃO,-7.343840523647748,38.3837574196978
pt.ine.add.PTCONT.1424389,R DE SÃO BENTO,8,7240-266,MOURÃO,-7.345707043557027,38.38370209297714
pt.ine.add.PTCONT.1424685,R DIREITA,27,7240-012,GRANJA MOU,-7.254553596508866,38.30032845374033
pt.ine.add.PTCONT.1425163,R DIREITA,31,7240-012,GRANJA MOU,-7.254685880737201,38.30028368622509
pt.ine.add.PTCONT.1425164,R DIREITA,41,7240-019,GRANJA MOU,-7.255098357920648,38.30014393152179
pt.ine.add.PTCONT.1425187,MTE JOSE TEODORO MADRUGA,,7240-256,MOURÃO,-7.232726759006674,38.322412374084784
pt.ine.add.PTCONT.1425189,R ÁLVARO AFONSO,1,7240-012,GRANJA MOU,-7.2537499890184485,38.302095416897835
pt.ine.add.PTCONT.1425190,R DAS PALHOTAS,11,7240-100,LUZ MOU,-7.374089112243723,38.34477430346158
pt.ine.add.PTCONT.1425193,R DE OLIVENÇA,10,7240-242,MOURÃO,-7.341054570894272,38.38418328502543
pt.ine.add.PTCONT.1425196,R JOAQUIM SILVESTRE VASCONCELOS ROSADO,1,7240-256,MOURÃO,-7.343161630541019,38.38249470960093
pt.ine.add.PTCONT.1425212,R DA PEDREIRA,3,7240-243,MOURÃO,-7.3427134843936965,38.383955043315666
pt.ine.add.PTCONT.1425213,R DE SÃO BRÁS,3,7240-012,GRANJA MOU,-7.256934207192131,38.30158773815709
pt.ine.add.PTCONT.1425214,R DE SÃO BRÁS,9,7240-012,GRANJA MOU,-7.257201512127272,38.30132438480851
pt.ine.add.PTCONT.1425431,R DE SÃO SEBASTIÃO,58,7240-245,MOURÃO,-7.342109130905787,38.385625682034366
pt.ine.add.PTCONT.1425454,R SÉRGIO VIEIRA DE MELO,8,7240-220,MOURÃO,-7.338932771195288,38.384950413339986
pt.ine.add.PTCONT.1425871,R DIREITA,48,7240-012,GRANJA MOU,-7.254819405097787,38.30011424361782
pt.ine.add.PTCONT.1425874,R DA CORREDOURA - CASA DO ADEGUEIRO,,7240-011,GRANJA MOU,-7.255841232192029,38.307858548799544
pt.ine.add.PTCONT.1425878,R JOAQUIM ANTÓNIO DE CASTRO,28,7240-019,GRANJA MOU,-7.254569809726336,38.30381733428762
pt.ine.add.PTCONT.1425882,EN 256 MONTE SR VITOR MEDINAS,,7240-204,MOURÃO,-7.329292628755566,38.392182435729694
pt.ine.add.PTCONT.1425883,MTE SR SARDINHA,,7240-256,MOURÃO,-7.3195375506899785,38.37813395347542
pt.ine.add.PTCONT.1425886,R DR SÁ CARNEIRO,24,7240-100,LUZ MOU,-7.375336576900192,38.344762822870926
pt.ine.add.PTCONT.1425889,R DA ESTRELA,12,7240-100,LUZ MOU,-7.372671854144357,38.344299774853816
pt.ine.add.PTCONT.1425890,R DA ESTRELA,28,7240-100,LUZ MOU,-7.3719379536268805,38.34435340418243
pt.ine.add.PTCONT.1425893,R DA IGREJA,40,7240-100,LUZ MOU,-7.377249722530848,38.34414463180609
pt.ine.add.PTCONT.1425900,MTE DA COITADA,,7240-100,LUZ MOU,-7.3694170046483185,38.3263549459802
pt.ine.add.PTCONT.1425903,R CÂNDIDO DOS REIS,6,7240-236,MOURÃO,-7.341478364267984,38.38163395485279
pt.ine.add.PTCONT.1425908,R ALTO DA FORCA,10,7240-247,MOURÃO,-7.339431290356795,38.383008804092846
pt.ine.add.PTCONT.1425909,R PADRE INACIO NUNES BRANCO,14,7240-221,MOURÃO,-7.345185358636783,38.38118716112864
pt.ine.add.PTCONT.1426235,R DR TITO FERNANDES,3,7240-273,MOURÃO,-7.338550175009803,38.38521432908525
pt.ine.add.PTCONT.1426581,R DAS FLORES,51,7240-012,GRANJA MOU,-7.255899375315368,38.30122304601493
pt.ine.add.PTCONT.1426596,R NOVA DE DE MOURÃO,13,7240-012,GRANJA MOU,-7.255562448768094,38.30456304034753
pt.ine.add.PTCONT.1426597,R JOAQUIM ANTÓNIO DE CASTRO,57,7240-012,GRANJA MOU,-7.252392906366441,38.299987952741084
pt.ine.add.PTCONT.1426609,R DE SÃO BENTO,15,7240-266,MOURÃO,-7.3456380109493455,38.383595385621696
pt.ine.add.PTCONT.1426610,R DE SÃO SEBASTIÃO,29,7240-245,MOURÃO,-7.3415070887961775,38.38469937695141
pt.ine.add.PTCONT.1426621,R PEDRO PITEIRA,41,7240-012,GRANJA MOU,-7.2571843882450695,38.301697709622225
pt.ine.add.PTCONT.1426861,R S BENTO,,7240-266,MOURÃO,-7.345021189730883,38.38326830162428
pt.ine.add.PTCONT.1426886,R DE TRÁS,33,7240-100,LUZ MOU,-7.378585036811226,38.345449451224916
pt.ine.add.PTCONT.1426991,R NOVA DE MOURA,11,7240-267,MOURÃO,-7.343139735756391,38.380879385834874
pt.ine.add.PTCONT.1427368,R NOVA DE DE MOURÃO,12,7240-012,GRANJA MOU,-7.255369570151455,38.30430564093876
pt.ine.add.PTCONT.1427410,R DR SÁ CARNEIRO,19,7240-100,LUZ MOU,-7.375728493493893,38.34482969866089
pt.ine.add.PTCONT.1427411,R DR SÁ CARNEIRO,18,7240-100,LUZ MOU,-7.375618689416047,38.344700676568976
pt.ine.add.PTCONT.1427412,R DR LIBANIO ESQUIVEL,16,7240-256,MOURÃO,-7.340875981937555,38.3825790217883
pt.ine.add.PTCONT.1427447,R DO ALCANCE,47,7240-246,MOURÃO,-7.341837980311497,38.38111881240093
pt.ine.add.PTCONT.1427448,R NOVA DE MOURA,6,7240-267,MOURÃO,-7.34328260925284,38.380865783584014
pt.ine.add.PTCONT.1427449,TV DOS CURRAIS,9,7240-270,MOURÃO,-7.340932846145267,38.38474274912164
pt.ine.add.PTCONT.1427565,AV PAPA JOÃO PAULO II,10,7240-275,MOURÃO,-7.341352739910368,38.37997692160278
pt.ine.add.PTCONT.1427630,R MANUEL JOAQUIM BAÇÃO LOPES,13,7240-224,MOURÃO,-7.339313254169876,38.38543129239284
pt.ine.add.PTCONT.1427631,R DA PEDREIRA,18,7240-243,MOURÃO,-7.342224367215215,38.38389183149995
pt.ine.add.PTCONT.1428015,R D MANUEL I,5,7240-251,MOURÃO,-7.343627383520563,38.38023934705058
pt.ine.add.PTCONT.1428020,R DE VALADARES,16,7240-019,GRANJA MOU,-7.257024289963039,38.30044961319257
pt.ine.add.PTCONT.1428026,R DO TELHEIRO,5 B,7240-012,GRANJA MOU,-7.254783934034744,38.30330509381638
pt.ine.add.PTCONT.1428028,R DA PEDREIRA,20,7240-243,MOURÃO,-7.342143648900283,38.38386705850728
pt.ine.add.PTCONT.1428029,R DE SÃO SEBASTIÃO,4,7240-245,MOURÃO,-7.3414342521473674,38.383963591993144
pt.ine.add.PTCONT.1428031,R DO MEIO,19,7240-100,LUZ MOU,-7.377690578290993,38.34500994537809
pt.ine.add.PTCONT.1428032,R DE SÃO SEBASTIÃO,66,7240-245,MOURÃO,-7.34226768290039,38.38591462303004
pt.ine.add.PTCONT.1428033,R DO POÇO,1,7240-250,MOURÃO,-7.342496429649569,38.38635365496848
pt.ine.add.PTCONT.1428037,R DAS FLORES,13,7240-012,GRANJA MOU,-7.254020359375546,38.30170449449848
pt.ine.add.PTCONT.1428044,R JOÃO JOSE VASCONCELOS ROSADO,11,7240-254,MOURÃO,-7.343674901895402,38.38418411211534
pt.ine.add.PTCONT.1428047,BR LUIS DE CAMÕES,,7240-224,MOURÃO,-7.339590728616911,38.38727090519078
pt.ine.add.PTCONT.1428053,MTE DA MINHOCA,,7240-016,GRANJA MOU,-7.156679033791863,38.20489951574529
pt.ine.add.PTCONT.1428054,MTE DO XICO SERRANO,,7240-016,GRANJA MOU,-7.161734883663353,38.21190515946938
pt.ine.add.PTCONT.1428055,R DA PEDREIRA,37,7240-243,MOURÃO,-7.3416805156147955,38.38379782099511
pt.ine.add.PTCONT.1428062,R ÁLVARO AFONSO,51,7240-012,GRANJA MOU,-7.2560360513838775,38.30153431016459
pt.ine.add.PTCONT.1428063,R NOVA DE MOURA,13,7240-267,MOURÃO,-7.343086290271015,38.38093311996928
pt.ine.add.PTCONT.1428751,R DIREITA,21,7240-012,GRANJA MOU,-7.254337305330442,38.300402623714035
pt.ine.add.PTCONT.1428755,R DE OLIVENÇA,7,7240-242,MOURÃO,-7.341244158215718,38.38389951515015
pt.ine.add.PTCONT.1428759,R DA CORREDOURA,17,7240-012,GRANJA MOU,-7.256383270598764,38.304600472325966
pt.ine.add.PTCONT.1428762,R DO ALCANCE,17,7240-246,MOURÃO,-7.340637100031311,38.381693819368934
pt.ine.add.PTCONT.1428766,R NOVA,20,7240-100,LUZ MOU,-7.378216209819006,38.34571733485189
pt.ine.add.PTCONT.1428779,R DA MISERICÓRDIA,4,7240-012,GRANJA MOU,-7.254056292382301,38.302396572447805
pt.ine.add.PTCONT.1428780,PC DA REPÚBLICA,13,7240-233,MOURÃO,-7.344015094697108,38.38285257511251
pt.ine.add.PTCONT.1428785,R DAS FLORES,46,7240-012,GRANJA MOU,-7.2555648079770485,38.30116238233367
pt.ine.add.PTCONT.1428787,MTE FOGUETAO,,7240-016,GRANJA MOU,-7.162382147589071,38.26543073984047
pt.ine.add.PTCONT.1428791,MTE MANUEL ONOFRE,,7240-014,GRANJA MOU,-7.2181807402575355,38.25598763599941
pt.ine.add.PTCONT.1428795,LG DO CORRO,7,7240-012,GRANJA MOU,-7.257798041676734,38.30176668283509
pt.ine.add.PTCONT.1428796,R NOVA DE MOURA,24,7240-267,MOURÃO,-7.342860491824909,38.381281127336116
pt.ine.add.PTCONT.1428797,R MANUEL PALMA JORDÃO,3,7240-223,MOURÃO,-7.343553581645747,38.381246191634375
pt.ine.add.PTCONT.1428800,BC DA MISERICÓRDIA,7,7240-012,GRANJA MOU,-7.256136156357739,38.30169783472234
pt.ine.add.PTCONT.1429046,R DR LIBANIO ESQUIVEL,26,7240-256,MOURÃO,-7.340575030683306,38.382544890199455
pt.ine.add.PTCONT.1429171,R DE SÃO SEBASTIÃO,83,7240-245,MOURÃO,-7.342418271996836,38.386227784401314
pt.ine.add.PTCONT.1429177,R DR TITO FERNANDES,5,7240-273,MOURÃO,-7.338545043985817,38.3853389305325
pt.ine.add.PTCONT.1429502,R DA ESCOLA,11,7240-238,MOURÃO,-7.341599132345899,38.38054815489015
pt.ine.add.PTCONT.1429507,R DIREITA,14,7240-012,GRANJA MOU,-7.253571672677882,38.30054549646607
pt.ine.add.PTCONT.1429510,R DA CORREDOURA,18,7240-012,GRANJA MOU,-7.256211018848856,38.30433233528434
pt.ine.add.PTCONT.1429512,R JOAQUIM ANTÓNIO DE CASTRO,27,7240-012,GRANJA MOU,-7.254882148622356,38.30395966654528
pt.ine.add.PTCONT.1429520,R JOAQUIM ANTÓNIO DE CASTRO,36,7240-012,GRANJA MOU,-7.253808978790942,38.30255543730389
pt.ine.add.PTCONT.1429525,R ÁLVARO AFONSO,29,7240-012,GRANJA MOU,-7.255130976914936,38.301728256870376
pt.ine.add.PTCONT.1429527,R DE OLIVENÇA,26,7240-242,MOURÃO,-7.340630560640774,38.384653127061476
pt.ine.add.PTCONT.1429529,R DAS FLORES,10,7240-012,GRANJA MOU,-7.2539659012492645,38.30159117368475
pt.ine.add.PTCONT.1429532,LG TEN GENERAL JOSÉ ANTÓNIO DA ROSA,17,7240-231,MOURÃO,-7.3424987338662975,38.38192108489665
pt.ine.add.PTCONT.1429533,R JOAO JOSE VASCONCELOS ROSADO,N 17,7240-254,MOURÃO,-7.343302578403797,38.38410293285905
pt.ine.add.PTCONT.1429540,R ANTÓNIO JOAQUIM BORGES BARRETO,18,7240-273,MOURÃO,-7.337852274918244,38.38628196483233
pt.ine.add.PTCONT.1429541,R DE SANTA MARGARIDA,15,7240-265,MOURÃO,-7.344746102191391,38.383687144724625
pt.ine.add.PTCONT.1429829,R DO ROSSIO,16,7240-100,LUZ MOU,-7.375217945198408,38.344230609325955
pt.ine.add.PTCONT.1435902,R DO CORRO,,7240-012,GRANJA MOU,-7.257262121924296,38.299986658761256
pt.ine.add.PTCONT.1430328,R SACADURA CABRAL,16,7240-264,MOURÃO,-7.343380246612327,38.37969173774641
pt.ine.add.PTCONT.1430330,R DA FÁBRICA,12,7240-239,MOURÃO,-7.340986660571809,38.38189475469474
pt.ine.add.PTCONT.1430336,R NOVA DE DE MOURÃO,4,7240-012,GRANJA MOU,-7.255434551234876,38.30464599924809
pt.ine.add.PTCONT.1430337,EN 256 1,,7240-253,MOURÃO,-7.26094225151073,38.381144882686264
pt.ine.add.PTCONT.1430347,R DA CANHOTA,25,7240-012,GRANJA MOU,-7.255962943337506,38.30249935480985
pt.ine.add.PTCONT.1430357,R JOÃO JOSE VASCONCELOS ROSADO,1,7240-254,MOURÃO,-7.344022928214624,38.38425814594693
pt.ine.add.PTCONT.1430362,MTE DOS CATARRUNAS,,7240-016,GRANJA MOU,-7.189581883315253,38.24912181424787
pt.ine.add.PTCONT.1430363,MTE DOS CATARRUNAS,,7240-016,GRANJA MOU,-7.189581883315253,38.24912181424787
pt.ine.add.PTCONT.1430364,MTE DOS CATARRUNAS,,7240-016,GRANJA MOU,-7.189581883315253,38.24912181424787
pt.ine.add.PTCONT.1430365,MTE DO VAQUEIRO DA PAZ,,7240-016,GRANJA MOU,-7.175090875695088,38.2260594218078
pt.ine.add.PTCONT.1430366,LG DE SÃO BENTO,,7240-263,MOURÃO,-7.345940624943389,38.38172741276024
pt.ine.add.PTCONT.1430368,R PROF AGOSTINHO FORTES,7,7240-273,MOURÃO,-7.339812430827565,38.38597578618531
pt.ine.add.PTCONT.1430617,LG S BENTO,,7240-263,MOURÃO,-7.345940624943389,38.38172741276024
pt.ine.add.PTCONT.1430683,R DE SÃO JOSÉ,9,7240-268,MOURÃO,-7.3462638823358075,38.38364414711264
pt.ine.add.PTCONT.1430684,R JOAQUIM JOSE VASCONCELOS GUSMÃO,32,7240-255,MOURÃO,-7.341656978454975,38.383504650520884
pt.ine.add.PTCONT.1431130,R DE OLIVENÇA,33,7240-242,MOURÃO,-7.340477886239413,38.38463741636313
pt.ine.add.PTCONT.1431140,R SACADURA CABRAL,5,7240-264,MOURÃO,-7.343284660916713,38.37986880740581
pt.ine.add.PTCONT.1431142,BR ALTO DA ESCOLA,3,7240-012,GRANJA MOU,-7.255493395956639,38.30541462264331
pt.ine.add.PTCONT.1431151,R DA CANHOTA,1,7240-012,GRANJA MOU,-7.254394928437498,38.30264977349807
pt.ine.add.PTCONT.1431152,EN 385 MONTE DA ABEGOARIA,,7240-274,MOURÃO,-7.282694747446515,38.35504493217954
pt.ine.add.PTCONT.1431153,EN 385 MONTE DA ABEGOARIA,,7240-274,MOURÃO,-7.282694747446515,38.35504493217954
pt.ine.add.PTCONT.1431154,EN 385 MONTE DA ABEGOARIA,,7240-274,MOURÃO,-7.282694747446515,38.35504493217954
pt.ine.add.PTCONT.1431156,R DE SÃO BENTO,25,7240-266,MOURÃO,-7.345438588596843,38.383499678080916
pt.ine.add.PTCONT.1431157,R DE SÃO SEBASTIÃO,17,7240-245,MOURÃO,-7.341410695595169,38.38435933957854
pt.ine.add.PTCONT.1431164,R ÁLVARO AFONSO,26,7240-012,GRANJA MOU,-7.254643968228767,38.30171649304088
pt.ine.add.PTCONT.1431165,R ÁLVARO AFONSO,16,7240-012,GRANJA MOU,-7.254336448673843,38.30181153727101
pt.ine.add.PTCONT.1431166,R DO ROSSIO,6,7240-100,LUZ MOU,-7.375846010057024,38.34419529674869
pt.ine.add.PTCONT.1431172,R REVERENDO DEAO ALCANTARA GUERREIRO,7,7240-273,MOURÃO,-7.3393071981499425,38.38643357867013
pt.ine.add.PTCONT.1431177,R DA PEDREIRA,21,7240-243,MOURÃO,-7.3423346984176066,38.383853319462176
pt.ine.add.PTCONT.1431431,R DE SÃO SEBASTIÃO,23,7240-012,GRANJA MOU,-7.255881508976825,38.30000432106433
pt.ine.add.PTCONT.1431434,R DE SANTA MARGARIDA,22,7240-265,MOURÃO,-7.344890392354602,38.3838241065495
pt.ine.add.PTCONT.1431444,MTE DO PICO,,7240-020,GRANJA MOU,-7.242169510809211,38.2815134862906
pt.ine.add.PTCONT.1431459,R DR LIBANIO ESQUIVEL,39,7240-256,MOURÃO,-7.340176306494887,38.382335330589854
pt.ine.add.PTCONT.1431555,R DE SÃO SEBASTIÃO,19,7240-245,MOURÃO,-7.341440403132008,38.38445953821658
pt.ine.add.PTCONT.1431937,R DAS FLORES,58,7240-012,GRANJA MOU,-7.256088568838675,38.301021009022456
pt.ine.add.PTCONT.1431943,R DE SÃO SEBASTIÃO,7,7240-012,GRANJA MOU,-7.256236629903671,38.30036433694634
pt.ine.add.PTCONT.1431944,R SACADURA CABRAL,24,7240-264,MOURÃO,-7.343981386333092,38.379404633450584
pt.ine.add.PTCONT.1431961,R JOAQUIM ANTÓNIO DE CASTRO,56,7240-012,GRANJA MOU,-7.2531400051207155,38.30148726748455
pt.ine.add.PTCONT.1431966,R DE SANTA MARGARIDA,16,7240-265,MOURÃO,-7.345040888221409,38.38388673838285
pt.ine.add.PTCONT.1431974,MTE DOS GIZOS,,7240-016,GRANJA MOU,-7.189137410814124,38.227839833577406
pt.ine.add.PTCONT.1431979,R PEDRO PITEIRA,2,7240-012,GRANJA MOU,-7.256638728268167,38.30334220440025
pt.ine.add.PTCONT.1431980,TV DOS PINHEIROS,40,7240-271,MOURÃO,-7.34413661820129,38.38131551078701
pt.ine.add.PTCONT.1431983,R NOVA DE MOURA,26,7240-267,MOURÃO,-7.342777681021309,38.38136171051278
pt.ine.add.PTCONT.1431984,R JOAQUIM SILVESTRE VASCONCELOS ROSADO,30,7240-256,MOURÃO,-7.341860781326605,38.382646296785914
pt.ine.add.PTCONT.1432235,AV NOSSA SENHORA DAS CANDEIAS,16,7240-233,MOURÃO,-7.338793278126982,38.3844882815044
pt.ine.add.PTCONT.1432249,R DE TRÁS,12,7240-100,LUZ MOU,-7.3783229587069945,38.344787500362834
pt.ine.add.PTCONT.1432303,R DR MANUEL RAMOS,3,7240-228,MOURÃO,-7.341701639778823,38.37946579237936
pt.ine.add.PTCONT.1432692,R DOS MEIGOS,7,7240-012,GRANJA MOU,-7.257151352828472,38.30088637587751
pt.ine.add.PTCONT.1432693,R MOUZINHO DE ALBUQUERQUE,12,7240-262,MOURÃO,-7.339955405206199,38.38356553497162
pt.ine.add.PTCONT.1432706,CM 1135 MOINTE DO PINHEIRO,,7240-253,MOURÃO,-7.292317768874242,38.40433670156567
pt.ine.add.PTCONT.1432713,R DA CANHOTA,13,7240-012,GRANJA MOU,-7.255093311987674,38.302564917314506
pt.ine.add.PTCONT.1432721,R DE SÃO SEBASTIÃO,49,7240-245,MOURÃO,-7.341804705925152,38.38529834028137
pt.ine.add.PTCONT.1432730,MTE DA JULIOA,,7240-101,LUZ MOU,-7.370011517189216,38.34926765819364
pt.ine.add.PTCONT.1432738,R DO BENQUERER,1,7240-248,MOURÃO,-7.344271368866008,38.38389211333479
pt.ine.add.PTCONT.1432741,ESTR DA CIRCUNVALAÇÃO,,7240-012,GRANJA MOU,-7.257555933392448,38.303123839692205
pt.ine.add.PTCONT.1432742,AV NOSSA SENHORA DAS CANDEIAS,24,7240-233,MOURÃO,-7.338276098266363,38.38474197226464
pt.ine.add.PTCONT.1432745,R DR TITO FERNANDES,2,7240-273,MOURÃO,-7.338363590808859,38.38517983367021
pt.ine.add.PTCONT.1433017,R DA MURALHA,14,7240-241,MOURÃO,-7.3408605997306084,38.38318434082528
pt.ine.add.PTCONT.1433116,R DO POÇO,3,7240-250,MOURÃO,-7.342438912779953,38.38638029253303
pt.ine.add.PTCONT.1433483,R D DINIS,6,7240-234,MOURÃO,-7.3451945599442485,38.38069057831612
pt.ine.add.PTCONT.1433484,R D MANUEL I,21E,7240-251,MOURÃO,-7.344459108658371,38.3798238884591
pt.ine.add.PTCONT.1433485,R D MANUEL I,21R,7240-251,MOURÃO,-7.344459108658371,38.3798238884591
pt.ine.add.PTCONT.1433494,R DIREITA,9,7240-012,GRANJA MOU,-7.253872704100424,38.30055886442145
pt.ine.add.PTCONT.1433495,R DE SÃO SEBASTIÃO,11 A,7240-012,GRANJA MOU,-7.25633286445141,38.30075064628104
pt.ine.add.PTCONT.1433496,R DA MURALHA,10,7240-241,MOURÃO,-7.340870653092753,38.38308758714574
pt.ine.add.PTCONT.1433497,R DR LIBANIO ESQUIVEL,2,7240-256,MOURÃO,-7.341448628719043,38.38262925183959
pt.ine.add.PTCONT.1433498,R D MANUEL I,21F,7240-251,MOURÃO,-7.344459108658371,38.3798238884591
pt.ine.add.PTCONT.1433499,R D MANUEL I,21A,7240-251,MOURÃO,-7.344459108658371,38.3798238884591
pt.ine.add.PTCONT.1433500,R D MANUEL I,21B,7240-251,MOURÃO,-7.344459108658371,38.3798238884591
pt.ine.add.PTCONT.1433501,R D MANUEL I,21C,7240-251,MOURÃO,-7.344459108658371,38.3798238884591
pt.ine.add.PTCONT.1433502,R D MANUEL I,21D,7240-251,MOURÃO,-7.344459108658371,38.3798238884591
pt.ine.add.PTCONT.1433503,R D MANUEL I,21G,7240-251,MOURÃO,-7.344459108658371,38.3798238884591
pt.ine.add.PTCONT.1433504,R D MANUEL I,21H,7240-251,MOURÃO,-7.344459108658371,38.3798238884591
pt.ine.add.PTCONT.1433505,R D MANUEL I,21P,7240-251,MOURÃO,-7.344459108658371,38.3798238884591
pt.ine.add.PTCONT.1433506,R D MANUEL I,21Q,7240-251,MOURÃO,-7.344459108658371,38.3798238884591
pt.ine.add.PTCONT.1433507,R D MANUEL I,210,7240-251,MOURÃO,-7.344459108658371,38.3798238884591
pt.ine.add.PTCONT.1433508,R D MANUEL I,21I,7240-251,MOURÃO,-7.344459108658371,38.3798238884591
pt.ine.add.PTCONT.1433509,R D MANUEL I,21J,7240-251,MOURÃO,-7.344459108658371,38.3798238884591
pt.ine.add.PTCONT.1433510,R D MANUEL I,21L,7240-251,MOURÃO,-7.344459108658371,38.3798238884591
pt.ine.add.PTCONT.1433511,R D MANUEL I,21M,7240-251,MOURÃO,-7.344459108658371,38.3798238884591
pt.ine.add.PTCONT.1433514,R DOS MEIGOS,9,7240-019,GRANJA MOU,-7.257203102844733,38.30082570121788
pt.ine.add.PTCONT.1433537,LG GOVERNADOR FURTADO MENDONÇA,2,7240-229,MOURÃO,-7.346017217503472,38.38398672516565
pt.ine.add.PTCONT.1433539,R DO MONTINHO,38,7240-100,LUZ MOU,-7.375290551574006,38.34375832708489
pt.ine.add.PTCONT.1433542,LG TEN JOSE ANTONIO ROSA,4,7240-231,MOURÃO,-7.342152294099808,38.381874464753814
pt.ine.add.PTCONT.1433547,BR DR JOSE TOMAS RAVASCO ANJOS,8,7240-223,MOURÃO,-7.3443542551537355,38.381512898746664
pt.ine.add.PTCONT.1433550,R JOAQUIM SILVESTRE VASCONCELOS ROSADO,10,7240-256,MOURÃO,-7.342593211620533,38.38258703102583
pt.ine.add.PTCONT.1433555,R DE SÃO BRÁS,11,7240-012,GRANJA MOU,-7.257232595567691,38.301254791366524
pt.ine.add.PTCONT.1433556,R DO NORTE,19,7240-249,MOURÃO,-7.343038820033249,38.38306296200756
pt.ine.add.PTCONT.1433803,MTE FALPERRAS,,7240-100,LUZ MOU,-7.359711612690748,38.33030918041231
pt.ine.add.PTCONT.1433856,R DAS FLORES,52,7240-012,GRANJA MOU,-7.2558883909612355,38.30109570139857
pt.ine.add.PTCONT.1434217,R NOVA,33,7240-100,LUZ MOU,-7.377257056332339,38.34525515350893
pt.ine.add.PTCONT.1434218,R DAS PALHOTAS,10,7240-100,LUZ MOU,-7.373845716354828,38.34469817362854
pt.ine.add.PTCONT.1434219,R NOVA,30,7240-100,LUZ MOU,-7.377828642318204,38.34539357333515
pt.ine.add.PTCONT.1434220,R E,,7240-100,LUZ MOU,-7.375041409992782,38.34192225731376
pt.ine.add.PTCONT.1434221,R DE OLIVENÇA,27,7240-242,MOURÃO,-7.340651972337902,38.38442791417413
pt.ine.add.PTCONT.1434265,R DA CORREDOURA,32,7240-012,GRANJA MOU,-7.256087643366644,38.30353627413775
pt.ine.add.PTCONT.1434266,R DO TELHEIRO,6,7240-012,GRANJA MOU,-7.254769776857588,38.30316228017725
pt.ine.add.PTCONT.1434267,MTE DO BAINETA,,7240-256,MOURÃO,-7.3279644278330975,38.37776873337303
pt.ine.add.PTCONT.1434268,R MACHADO DOS SANTOS,44,7240-260,MOURÃO,-7.343550853215191,38.38249143844565
pt.ine.add.PTCONT.1434269,R DE SÃO SEBASTIÃO,64,7240-245,MOURÃO,-7.342241229601278,38.38586899125773
pt.ine.add.PTCONT.1434331,MTE DO BICHO,,7240-014,GRANJA MOU,-7.211935038471028,38.25931700639778
pt.ine.add.PTCONT.1434332,R DE VALADARES,11,7240-012,GRANJA MOU,-7.25695937408697,38.300656748324144
pt.ine.add.PTCONT.1434333,R JOAQUIM ANTÓNIO DE CASTRO,45,7240-012,GRANJA MOU,-7.252699878162094,38.3004731460458
pt.ine.add.PTCONT.1434334,R DE SÃO SEBASTIÃO,33,7240-245,MOURÃO,-7.34154081159531,38.384784450370276
pt.ine.add.PTCONT.1434335,R JOSE JOAQUIM VASCONCELOS GUSMÃO,18,7240-257,MOURÃO,-7.342995186291877,38.383997487867035
pt.ine.add.PTCONT.1434336,R DO BENQUERER,14,7240-248,MOURÃO,-7.343787438631971,38.38373708229804
pt.ine.add.PTCONT.1434586,R DR TITO FERNANDES,6,7240-273,MOURÃO,-7.338361224942082,38.385396021671774
pt.ine.add.PTCONT.1434603,R PEDRO PITEIRA,15,7240-019,GRANJA MOU,-7.256946834316198,38.30267542166388
pt.ine.add.PTCONT.1434631,LG TEN GENERAL JOSÉ ANTÓNIO DA ROSA,6,7240-231,MOURÃO,-7.34223718869142,38.38182828967587
pt.ine.add.PTCONT.1435151,R NOVA,22,7240-012,GRANJA MOU,-7.254219983070764,38.30087608543625
pt.ine.add.PTCONT.1435152,AV NOSSA SENHORA DAS CANDEIAS,7,7240-220,MOURÃO,-7.338682961317093,38.38479348431453
pt.ine.add.PTCONT.1435154,R NOVA,14,7240-012,GRANJA MOU,-7.253831840945547,38.30099698338362
pt.ine.add.PTCONT.1435160,R JOAQUIM ANTÓNIO DE CASTRO,10,7240-019,GRANJA MOU,-7.255045473704213,38.30463653271343
pt.ine.add.PTCONT.1435169,R JOAQUIM ANTÓNIO DE CASTRO,38,7240-012,GRANJA MOU,-7.253729794804,38.30243058203276
pt.ine.add.PTCONT.1435177,R DE TRÁS,10,7240-100,LUZ MOU,-7.378335518598568,38.34467947821356
pt.ine.add.PTCONT.1435178,R DE TRÁS,4,7240-100,LUZ MOU,-7.378354244249423,38.34432716765482
pt.ine.add.PTCONT.1435179,CM 1135 MONTE DR MENDONÇA,,7240-274,MOURÃO,-7.302681974431763,38.39301488781221
pt.ine.add.PTCONT.1435180,EN 256 1,,7240-256,MOURÃO,-7.30126460716083,38.379852455597735
pt.ine.add.PTCONT.1435187,R DA FONTE,20,7240-100,LUZ MOU,-7.373659044680242,38.34385415526539
pt.ine.add.PTCONT.1435188,R LEOVIGILDO DIAS PEREIRA RAMALHO,8,7240-259,MOURÃO,-7.343754281790836,38.381772072749605
pt.ine.add.PTCONT.1435190,LG 25 DE ABRIL,6,7240-100,LUZ MOU,-7.376640682017253,38.34415546859333
pt.ine.add.PTCONT.1435194,R DO BENQUERER,10,7240-248,MOURÃO,-7.343893520714055,38.383785747927796
pt.ine.add.PTCONT.1435198,R LEOVIGILDO DIAS PEREIRA RAMALHO,3,7240-259,MOURÃO,-7.343765368847857,38.38148283820592
pt.ine.add.PTCONT.1435201,R DA PEDREIRA,11,7240-243,MOURÃO,-7.342523102739368,38.38390352175717
pt.ine.add.PTCONT.1435205,PC DA REPÚBLICA,19,7240-233,MOURÃO,-7.3436523642804685,38.3831994602636
pt.ine.add.PTCONT.1435206,R MARCOS GOMES VASCONCELOS ROSADO,3,7240-235,MOURÃO,-7.342754261907474,38.38318897721593
pt.ine.add.PTCONT.1435209,R NOVA DE MOURA,17,7240-267,MOURÃO,-7.343003434868216,38.38101786314237
pt.ine.add.PTCONT.1435522,R NOVA DE MOURA,22,7240-267,MOURÃO,-7.342921911211937,38.38122328602848
pt.ine.add.PTCONT.1435883,R DOS MEIGOS,8,7240-012,GRANJA MOU,-7.257075356860308,38.30083621518314
pt.ine.add.PTCONT.1435888,R DR LIBANIO ESQUIVEL,27,7240-256,MOURÃO,-7.34053369793319,38.382387677151954
pt.ine.add.PTCONT.1435889,MTE DO BENJOIM,,7240-250,MOURÃO,-7.326452124487454,38.34493124692559
pt.ine.add.PTCONT.1435893,R JOAQUIM ANTÓNIO DE CASTRO,17,7240-012,GRANJA MOU,-7.254980668755442,38.30412658810628
pt.ine.add.PTCONT.1435894,R JOÃO JOSE VASCONCELOS ROSADO,4,7240-254,MOURÃO,-7.344268675794394,38.384410749159365
pt.ine.add.PTCONT.1435896,R DA ESTRELA,21,7240-100,LUZ MOU,-7.3727046422343845,38.34442953086696
pt.ine.add.PTCONT.1435898,R NOVA,29,7240-100,LUZ MOU,-7.377567225542099,38.34542488048498
pt.ine.add.PTCONT.1435903,R DE SÃO SEBASTIÃO,71,7240-245,MOURÃO,-7.342159247007066,38.38597344212177
pt.ine.add.PTCONT.1435907,R DA MISERICÓRDIA,8,7240-012,GRANJA MOU,-7.254381502255833,38.30230391814859
pt.ine.add.PTCONT.1435914,MTE MARIA ARSENIO ROCHA,,7240-014,GRANJA MOU,-7.215887490073144,38.26482520922965
pt.ine.add.PTCONT.1435915,LG TEN GENERAL JOSÉ ANTÓNIO DA ROSA,1,7240-231,MOURÃO,-7.341750207217429,38.38205874158102
pt.ine.add.PTCONT.1435929,BC DA MISERICÓRDIA,,7240-012,GRANJA MOU,-7.256224620885121,38.30165450445587
pt.ine.add.PTCONT.1435930,R NOVA DE MOURA,19,7240-267,MOURÃO,-7.342947346829657,38.38107157940055
pt.ine.add.PTCONT.1436190,LG MIGUEL BOMBARDA,6,7240-230,MOURÃO,-7.3411783381039015,38.38103393994641
pt.ine.add.PTCONT.1436588,R DIREITA,32,7240-012,GRANJA MOU,-7.254195205750937,38.30032883007725
pt.ine.add.PTCONT.1436589,R SACADURA CABRAL,18,7240-264,MOURÃO,-7.343472017579145,38.379645090978755
pt.ine.add.PTCONT.1436590,R SACADURA CABRAL,4,7240-264,MOURÃO,-7.342933602204835,38.37990614753577
pt.ine.add.PTCONT.1436594,R DE TRÁS,25,7240-100,LUZ MOU,-7.378485364500359,38.34513350946509
pt.ine.add.PTCONT.1436595,R DO TELHEIRO,16,7240-012,GRANJA MOU,-7.255350169890391,38.30311904951293
pt.ine.add.PTCONT.1436601,R DE SÃO SEBASTIÃO,43,7240-245,MOURÃO,-7.341710280642499,38.385131040111006
pt.ine.add.PTCONT.1436603,TV DOS CURRAIS,17,7240-270,MOURÃO,-7.3408335273904095,38.38504775714478
pt.ine.add.PTCONT.1436609,R DE SANTA MARGARIDA,1,7240-265,MOURÃO,-7.345231936936486,38.38390288663668
pt.ine.add.PTCONT.1436617,R DA CANHOTA,35,7240-012,GRANJA MOU,-7.256318570836194,38.30246132001115
pt.ine.add.PTCONT.1436618,AV NOSSA SENHORA DAS CANDEIAS,4,7240-247,MOURÃO,-7.339161014804307,38.384056253873794
pt.ine.add.PTCONT.1436619,R DO ALCANCE,73,7240-266,MOURÃO,-7.3428667506847285,38.380608557194314
pt.ine.add.PTCONT.1436622,R NOVA DE MOURA,1,7240-267,MOURÃO,-7.343425616645063,38.38059627728357
pt.ine.add.PTCONT.1436623,R DO ALCANCE,22,7240-246,MOURÃO,-7.341419428925856,38.38116389371738
pt.ine.add.PTCONT.1436894,AV NOSSA SENHORA DAS CANDEIAS,30,7240-233,MOURÃO,-7.337835495055372,38.38495922288081
pt.ine.add.PTCONT.1436906,R DO BENQUERER,26,7240-248,MOURÃO,-7.34339606386173,38.38354663880098
pt.ine.add.PTCONT.1437272,R DA MISERICÓRDIA,3,7240-012,GRANJA MOU,-7.254060071760821,38.30251394475215
pt.ine.add.PTCONT.1437307,EN 256,2,7240-227,MOURÃO,-7.339245715940432,38.38249132587591
pt.ine.add.PTCONT.1437354,MTE FINCA DO PITO,,7240-202,MOURÃO,-7.32743990269362,38.38069289394345
pt.ine.add.PTCONT.1437355,R NOVA DE MOURA,27,7240-267,MOURÃO,-7.342706932521203,38.38130506004634
pt.ine.add.PTCONT.1437356,R NOVA DE MOURA,5,7240-267,MOURÃO,-7.343273347396334,38.38074505127564
pt.ine.add.PTCONT.1437388,PC DA REPÚBLICA,33,7240-233,MOURÃO,-7.3447064470973915,38.38332958530087
pt.ine.add.PTCONT.1437547,R 12 DE DEZEMBRO,15,7240-234,MOURÃO,-7.345108261461385,38.38015270444033
pt.ine.add.PTCONT.1437600,TV DOS CURRAIS,14,7240-270,MOURÃO,-7.341042323121026,38.38470697563074
pt.ine.add.PTCONT.1437650,R DO ROSSIO,23,7240-100,LUZ MOU,-7.37480897318404,38.34436290939283
pt.ine.add.PTCONT.1437700,R DO ALCANCE,35,7240-246,MOURÃO,-7.341378135654087,38.38134292200797
pt.ine.add.PTCONT.1438007,R NOVA,50,7240-012,GRANJA MOU,-7.255225555073395,38.30062100617921
pt.ine.add.PTCONT.1438018,R MOUZINHO DE ALBUQUERQUE,11,7240-262,MOURÃO,-7.339926358729593,38.383477963142525
pt.ine.add.PTCONT.1438019,R D MANUEL I,20 A,7240-251,MOURÃO,-7.344385446631402,38.37970610473715
pt.ine.add.PTCONT.1438028,R DA CORREDOURA,8,7240-012,GRANJA MOU,-7.256199830703491,38.30466318542175
pt.ine.add.PTCONT.1438029,LG MIGUEL BOMBARDA,1,7240-230,MOURÃO,-7.340868032125845,38.381396991456626
pt.ine.add.PTCONT.1438030,LG MIGUEL BOMBARDA,4,7240-230,MOURÃO,-7.340687389131104,38.381170557769316
pt.ine.add.PTCONT.1438031,BR LUIS DE CAMÕES,,7240-224,MOURÃO,-7.340308067002089,38.38656408745048
pt.ine.add.PTCONT.1438037,R DO TELHEIRO,20,7240-012,GRANJA MOU,-7.255626638908989,38.303098052449634
pt.ine.add.PTCONT.1438042,R DA CANHOTA,19,7240-012,GRANJA MOU,-7.255585500356045,38.302514548924826
pt.ine.add.PTCONT.1438045,R DA IGREJA,23,7240-100,LUZ MOU,-7.37734524760667,38.3442640563072
pt.ine.add.PTCONT.1438046,R DO ROSSIO,27,7240-100,LUZ MOU,-7.374604114739119,38.34436874627794
pt.ine.add.PTCONT.1438050,R DA ESTRELA,24,7240-100,LUZ MOU,-7.372154554870474,38.34433295426465
pt.ine.add.PTCONT.1438051,R DE SÃO JOSÉ,11,7240-268,MOURÃO,-7.34629661903593,38.38361249294287
pt.ine.add.PTCONT.1438057,R DA IGREJA,38,7240-100,LUZ MOU,-7.377373349925373,38.34414542772646
pt.ine.add.PTCONT.1438060,LG TEN GENERAL JOSÉ ANTÓNIO DA ROSA,24,7240-261,MOURÃO,-7.342271269302968,38.382143444449724
pt.ine.add.PTCONT.1438067,MTE DA GALEANA,,7240-016,GRANJA MOU,-7.1612537905465405,38.26350257105721
pt.ine.add.PTCONT.1438068,R PROF AGOSTINHO FORTES,8,7240-273,MOURÃO,-7.33976875871733,38.38610373024696
pt.ine.add.PTCONT.1438369,R DO ALCANCE,9,7240-246,MOURÃO,-7.340348380537689,38.381837260928336
pt.ine.add.PTCONT.1438393,R DE TRÁS,7,7240-100,LUZ MOU,-7.378526501569994,38.34447614764797
pt.ine.add.PTCONT.1438747,R DA CORREDOURA,,7240-012,GRANJA MOU,-7.256327549903289,38.3039511849294
pt.ine.add.PTCONT.1438751,R CÂNDIDO DOS REIS,7,7240-236,MOURÃO,-7.341389703851011,38.38167448714294
pt.ine.add.PTCONT.1438757,R NOVA,36,7240-100,LUZ MOU,-7.377585549110885,38.34525116985842
pt.ine.add.PTCONT.1438766,R DR SÁ CARNEIRO,8,7240-100,LUZ MOU,-7.376056221454323,38.344665712027954
pt.ine.add.PTCONT.1438767,R DE SÃO JOSÉ,2,7240-268,MOURÃO,-7.3461258779242575,38.38362219034199
pt.ine.add.PTCONT.1438771,R JOSÉ TEODORO DE ABREU BRAVO,10,7240-258,MOURÃO,-7.344351434042699,38.38397730593036
pt.ine.add.PTCONT.1438779,MTE DA FRAGA,,7240-016,GRANJA MOU,-7.128549722801046,38.18401431066671
pt.ine.add.PTCONT.1438782,MTE DA FRAGA,,7240-016,GRANJA MOU,-7.128549722801046,38.18401431066671
pt.ine.add.PTCONT.1438786,R DA CRUZ,12,7240-012,GRANJA MOU,-7.256271094461864,38.30190519499959
pt.ine.add.PTCONT.1439044,R PEDRO PITEIRA,39,7240-012,GRANJA MOU,-7.257160226416172,38.30180563220757
pt.ine.add.PTCONT.1439052,R NOVA,41,7240-012,GRANJA MOU,-7.2551433801572625,38.30074426910665
pt.ine.add.PTCONT.1439053,R REVERENDO DEAO ALCANTARA GUERREIRO,5,7240-273,MOURÃO,-7.339313641372631,38.38632075299687
pt.ine.add.PTCONT.1439480,R NOVA,52,7240-012,GRANJA MOU,-7.255304073820275,38.30060038667489
pt.ine.add.PTCONT.1439481,R NOVA,34,7240-012,GRANJA MOU,-7.254749784721139,38.30071558588586
pt.ine.add.PTCONT.1439492,R DO ALCANCE,14,7240-246,MOURÃO,-7.340590175219123,38.381565814639615
pt.ine.add.PTCONT.1439493,EN 256 1,,7240-253,MOURÃO,-7.2608233814597405,38.38151334535352
pt.ine.add.PTCONT.1439494,R FREI ANTÓNIO DAS CHAGAS,16,7240-252,MOURÃO,-7.3459652872302605,38.38436315368406
pt.ine.add.PTCONT.1439505,R ÁLVARO AFONSO,25,7240-012,GRANJA MOU,-7.254959336408726,38.30176215055938
pt.ine.add.PTCONT.1439506,R DO MEIO,17,7240-100,LUZ MOU,-7.377813040363554,38.34488594915499
pt.ine.add.PTCONT.1439507,R DE SÃO SEBASTIÃO,37 A,7240-245,MOURÃO,-7.341593418212923,38.38490298455409
pt.ine.add.PTCONT.1439517,LG FURTADO MENDONÇA,5,7240-229,MOURÃO,-7.345763526651343,38.383870692732586
pt.ine.add.PTCONT.1439753,R FREI ANTÓNIO DAS CHAGAS,1,7240-252,MOURÃO,-7.345964730715029,38.38465990457237
pt.ine.add.PTCONT.1439757,R NOVA,1,7240-012,GRANJA MOU,-7.253279603296234,38.301287357482664
pt.ine.add.PTCONT.1439773,R NOVA,30,7240-012,GRANJA MOU,-7.2545778880744916,38.300750332929965
pt.ine.add.PTCONT.1439786,R DR LIBANIO ESQUIVEL,50,7240-256,MOURÃO,-7.339832750111911,38.38246854370325
pt.ine.add.PTCONT.1439832,R DE MOURÃO,5,7240-100,LUZ MOU,-7.373862103800078,38.34531987176985
pt.ine.add.PTCONT.1440237,R MANUEL JOAQUIM BAÇÃO LOPES,3,7240-224,MOURÃO,-7.339720076491649,38.38512740885391
pt.ine.add.PTCONT.1440244,R NOVA,10,7240-012,GRANJA MOU,-7.253692344296492,38.30104122470114
pt.ine.add.PTCONT.1440245,R DE OLIVENÇA,25,7240-242,MOURÃO,-7.340663844687337,38.38437742699645
pt.ine.add.PTCONT.1440258,R NOVA,41,7240-100,LUZ MOU,-7.3769864279309205,38.34507137325621
pt.ine.add.PTCONT.1440259,R NOVA,39,7240-100,LUZ MOU,-7.377065932936555,38.34512593738055
pt.ine.add.PTCONT.1440260,R DO POÇO,12,7240-250,MOURÃO,-7.342399300092932,38.38651927785868
pt.ine.add.PTCONT.1440263,R DO TELHEIRO,7 A,7240-012,GRANJA MOU,-7.255200812982556,38.303271056028834
pt.ine.add.PTCONT.1440265,R DE MOURÃO,16,7240-100,LUZ MOU,-7.373192328407096,38.345334534973624
pt.ine.add.PTCONT.1440270,R MACHADO SANTOS,4,7240-260,MOURÃO,-7.344649758419782,38.3830932117418
pt.ine.add.PTCONT.1440271,PC REPUBLICA,4,7240-233,MOURÃO,-7.344649758419782,38.3830932117418
pt.ine.add.PTCONT.1440272,R DE OLIVENÇA,20,7240-242,MOURÃO,-7.340789391778122,38.38449277373157
pt.ine.add.PTCONT.1440275,R DE SANTA MARGARIDA,14,7240-265,MOURÃO,-7.345124177073231,38.38392342059553
pt.ine.add.PTCONT.1440276,R DE SANTA MARGARIDA,28,7240-265,MOURÃO,-7.344718279760897,38.38376345424898
pt.ine.add.PTCONT.1440278,LG TEN GENERAL JOSÉ ANTÓNIO DA ROSA,21,7240-261,MOURÃO,-7.342362602263779,38.38208009025213
pt.ine.add.PTCONT.1440286,TV DOS PINHEIROS,1,7240-271,MOURÃO,-7.345083926050933,38.38175884226456
pt.ine.add.PTCONT.1440287,TV DOS PINHEIROS,1,7240-271,MOURÃO,-7.345083926050933,38.38175884226456
pt.ine.add.PTCONT.1440288,TV DOS PINHEIROS,1,7240-271,MOURÃO,-7.345083926050933,38.38175884226456
pt.ine.add.PTCONT.1440289,TV DOS PINHEIROS,1,7240-271,MOURÃO,-7.345083926050933,38.38175884226456
pt.ine.add.PTCONT.1440294,R DAS FLORES,42,7240-012,GRANJA MOU,-7.25546587304287,38.301313507959904
pt.ine.add.PTCONT.1440295,LG DO ROSSIO,3,7240-273,MOURÃO,-7.339954066603583,38.38556079866499
pt.ine.add.PTCONT.1440579,R JOAQUIM JOSE VASCONCELOS GUSMÃO,20,7240-255,MOURÃO,-7.342026057263333,38.38344552993448
pt.ine.add.PTCONT.1441068,BR ALTO DA ESCOLA,,7240-012,GRANJA MOU,-7.255997401143139,38.30628321596094
pt.ine.add.PTCONT.1441069,AV PAPA JOAO PAULO II,8,7240-238,MOURÃO,-7.341444313876242,38.3799071304337
pt.ine.add.PTCONT.1441070,R DO ALCANCE,48,7240-228,MOURÃO,-7.343083580531529,38.38034648998355
pt.ine.add.PTCONT.1441071,R D MANUEL I,32,7240-251,MOURÃO,-7.344978464424627,38.37941400039813
pt.ine.add.PTCONT.1441072,TV VALE GROU,3,7240-264,MOURÃO,-7.344678552452884,38.37850817835534
pt.ine.add.PTCONT.1441073,R DE SÃO SEBASTIÃO,68,7240-245,MOURÃO,-7.342313284552432,38.38596947445513
pt.ine.add.PTCONT.1441074,R DE SÃO SEBASTIÃO,61,7240-245,MOURÃO,-7.342008395129024,38.3856845529497
pt.ine.add.PTCONT.1441101,R ÁLVARO AFONSO,3,7240-012,GRANJA MOU,-7.2538648428837735,38.30205123494984
pt.ine.add.PTCONT.1441102,R JOAQUIM ANTÓNIO DE CASTRO,64,7240-012,GRANJA MOU,-7.252941901104464,38.30115279423723
pt.ine.add.PTCONT.1441103,R DIREITA,33,7240-012,GRANJA MOU,-7.254801302376555,38.30023536363355
pt.ine.add.PTCONT.1441104,R DE SÃO BENTO,4,7240-266,MOURÃO,-7.345766083872881,38.383734362540906
pt.ine.add.PTCONT.1441105,R DA PEDREIRA,35,7240-243,MOURÃO,-7.341749234143795,38.383798284922186
pt.ine.add.PTCONT.1441106,R DO BENQUERER,21,7240-248,MOURÃO,-7.343460697020974,38.38351103927278
pt.ine.add.PTCONT.1441107,R GEN HUMBERTO DELGADO,6,7240-253,MOURÃO,-7.343454160728644,38.38274557298411
pt.ine.add.PTCONT.1441139,R DO MONTINHO,57,7240-100,LUZ MOU,-7.375197217189543,38.343873518388406
pt.ine.add.PTCONT.1441140,BR LUIS DE CAMÕES,,7240-224,MOURÃO,-7.339456063713471,38.38708663270916
pt.ine.add.PTCONT.1441141,R ANTÓNIO JOAQUIM BORGES BARRETO,4,7240-273,MOURÃO,-7.33782406203388,38.38542037789545
pt.ine.add.PTCONT.1441142,R VASCO DA GAMA,4,7240-269,MOURÃO,-7.340386172199847,38.38405557740222
pt.ine.add.PTCONT.1441143,EN 256 MONTE FONTE DOS ARCOS,,7240-253,MOURÃO,-7.329844998257951,38.39191596772447
pt.ine.add.PTCONT.1441144,EN 256,1,7240-256,MOURÃO,-7.333903405431235,38.381971302950525
pt.ine.add.PTCONT.1441282,BR LUIS DE CAMÕES,,7240-224,MOURÃO,-7.340048613626463,38.38726499541899
pt.ine.add.PTCONT.1441286,R DA CANHOTA,23,7240-012,GRANJA MOU,-7.255791368499202,38.30250708026483
pt.ine.add.PTCONT.1441291,R DA ESTRELA,5,7240-100,LUZ MOU,-7.373506055723868,38.344362656367984
pt.ine.add.PTCONT.1441317,R MANUEL JOAQUIM BAÇÃO LOPES,12,7240-224,MOURÃO,-7.339557512389699,38.38551633968702
pt.ine.add.PTCONT.1441746,R MANUEL JOAQUIM BAÇÃO LOPES,5,7240-224,MOURÃO,-7.339629619445663,38.38518817511793
pt.ine.add.PTCONT.1441759,R DIREITA,28,7240-012,GRANJA MOU,-7.254072071101568,38.30037824286416
pt.ine.add.PTCONT.1441760,R DA MURALHA,1,7240-241,MOURÃO,-7.340749654204368,38.38308679095877
pt.ine.add.PTCONT.1441763,MTE CEREJEIRINHA,,7240-238,MOURÃO,-7.31383736501027,38.352852385039604
pt.ine.add.PTCONT.1441764,MTE CEREJEIRINHA,,7240-238,MOURÃO,-7.31383736501027,38.352852385039604
pt.ine.add.PTCONT.1441767,R FREI ANTÓNIO DAS CHAGAS,10,7240-252,MOURÃO,-7.3459663818097996,38.38450735840139
pt.ine.add.PTCONT.1441771,R DA ESTRELA,31,7240-100,LUZ MOU,-7.372292308493029,38.344480907782895
pt.ine.add.PTCONT.1441772,CM 1135 TAPADINHA,,7240-253,MOURÃO,-7.284168432886219,38.39244084858557
pt.ine.add.PTCONT.1441773,R DA PEDREIRA,26,7240-243,MOURÃO,-7.341870959349637,38.383839676410396
pt.ine.add.PTCONT.1441780,R MACHADO DOS SANTOS,,7240-260,MOURÃO,-7.344804944646223,38.382855884889
pt.ine.add.PTCONT.1441783,PC DA REPÚBLICA,14,7240-233,MOURÃO,-7.343939287144668,38.38282418346064
pt.ine.add.PTCONT.1441784,BR DR JOSE TOMAS RAVASCO ANJOS,29,7240-223,MOURÃO,-7.343836643239321,38.38184379003337
pt.ine.add.PTCONT.1441788,R DAS FLORES,16,7240-012,GRANJA MOU,-7.254222127762824,38.30153532622527
pt.ine.add.PTCONT.1441789,R DO MONTINHO,37,7240-100,LUZ MOU,-7.376394150685813,38.343831805787836
pt.ine.add.PTCONT.1441790,R MACHADO DOS SANTOS,31,7240-260,MOURÃO,-7.343962632496238,38.38240146411165
pt.ine.add.PTCONT.1441793,R NOVA,13,7240-012,GRANJA MOU,-7.253875692168952,38.30109721366708
pt.ine.add.PTCONT.1441798,MTE DE CANCER,,7240-014,GRANJA MOU,-7.202276619704677,38.2676908623198
pt.ine.add.PTCONT.1441803,R JOAQUIM JOSE VASCONCELOS GUSMÃO,17,7240-255,MOURÃO,-7.341784074978273,38.38340332777305
pt.ine.add.PTCONT.1441805,R DE SÃO BRÁS,19,7240-012,GRANJA MOU,-7.257398931903404,38.300983250594975
pt.ine.add.PTCONT.1441806,R DE SÃO BRÁS,21,7240-012,GRANJA MOU,-7.257420371219923,38.300920491982254
pt.ine.add.PTCONT.1441807,LG MIGUEL BOMBARDA,23,7240-230,MOURÃO,-7.340940409950442,38.38086529388266
pt.ine.add.PTCONT.1442050,MTE DE CANCER,,7240-014,GRANJA MOU,-7.202276619704677,38.2676908623198
pt.ine.add.PTCONT.1442068,R DA LAPA,3,7240-240,MOURÃO,-7.341559986445725,38.382779209025045
pt.ine.add.PTCONT.1442075,R DO BENQUERER,16,7240-248,MOURÃO,-7.343699058527221,38.383694530042646
pt.ine.add.PTCONT.1442705,R DA CORREDOURA,35,7240-012,GRANJA MOU,-7.256225264705346,38.303220861288324
pt.ine.add.PTCONT.1442706,R PEDRO PITEIRA,28,7240-012,GRANJA MOU,-7.256966446548639,38.30203357776842
pt.ine.add.PTCONT.1442733,R DA IGREJA,36,7240-100,LUZ MOU,-7.377497973414249,38.344147786618265
pt.ine.add.PTCONT.1442734,R ANTÓNIO JOAQUIM BORGES BARRETO,16,7240-273,MOURÃO,-7.337863174796903,38.38616016097971
pt.ine.add.PTCONT.1442735,R DE OLIVENÇA,29,7240-242,MOURÃO,-7.3405994048905026,38.38449495771988
pt.ine.add.PTCONT.1442736,R MOUZINHO DE ALBUQUERQUE,6,7240-262,MOURÃO,-7.34034481479781,38.38361392962093
pt.ine.add.PTCONT.1442737,R DO ALCANCE,19,7240-246,MOURÃO,-7.340678014937505,38.38167647981671
pt.ine.add.PTCONT.1442738,R DO ALCANCE,10,7240-246,MOURÃO,-7.340384445553091,38.38166397753049
pt.ine.add.PTCONT.1442754,MTE DO MERCADOR,,7240-253,MOURÃO,-7.331585516046129,38.40947639162183
pt.ine.add.PTCONT.1442755,MTE POSTO DAS FERRARIAS,,7240-253,MOURÃO,-7.322159085948883,38.426212294245865
pt.ine.add.PTCONT.1442756,MTE POSTO DAS FERRARIAS,,7240-253,MOURÃO,-7.322159085948883,38.426212294245865
pt.ine.add.PTCONT.1442757,MTE POSTO DAS FERRARIAS,,7240-253,MOURÃO,-7.322159085948883,38.426212294245865
pt.ine.add.PTCONT.1442758,MTE POSTO DAS FERRARIAS,,7240-253,MOURÃO,-7.322159085948883,38.426212294245865
pt.ine.add.PTCONT.1442759,CM 1135,,7240-204,MOURÃO,-7.3280700070046985,38.385796033562954
pt.ine.add.PTCONT.1442760,R MACHADO DOS SANTOS,20,7240-260,MOURÃO,-7.3442885368529005,38.382582155802986
pt.ine.add.PTCONT.1442761,ESTR CIRCUNVALACAO,27,7240-238,MOURÃO,-7.341447303589861,38.37964741361342
pt.ine.add.PTCONT.1442762,R DO POÇO,8,7240-250,MOURÃO,-7.342521807226666,38.386489191483356
pt.ine.add.PTCONT.1442763,R JOÃO JOSE VASCONCELOS ROSADO,6,7240-254,MOURÃO,-7.344209285910518,38.384392760380074
pt.ine.add.PTCONT.1442773,R DO TELHEIRO,15,7240-012,GRANJA MOU,-7.255670601091918,38.303237871084434
pt.ine.add.PTCONT.1443270,LG DO CORRO,4,7240-012,GRANJA MOU,-7.2577359975795765,38.30145859558307
pt.ine.add.PTCONT.1443277,R VASCO DA GAMA,5,7240-269,MOURÃO,-7.340148750949073,38.38393715922926
pt.ine.add.PTCONT.1443280,R ALTO DA FORCA,13,7240-247,MOURÃO,-7.339592971192209,38.38323719946351
pt.ine.add.PTCONT.1443286,TV DOS CASTELHANOS,,7240-012,GRANJA MOU,-7.2534813636180555,38.299937063238715
pt.ine.add.PTCONT.1443294,R DE MOURÃO,9,7240-100,LUZ MOU,-7.3736898730700435,38.345381816536495
pt.ine.add.PTCONT.1443295,R DA PEDREIRA,30,7240-243,MOURÃO,-7.3417391003506935,38.38385231078499
pt.ine.add.PTCONT.1443299,LG 25 DE ABRIL,11,7240-100,LUZ MOU,-7.377039836360961,38.344737727158765
pt.ine.add.PTCONT.1443302,R ÁLVARO AFONSO,5,7240-012,GRANJA MOU,-7.253990801465449,38.30203416186061
pt.ine.add.PTCONT.1443303,R DE SÃO BENTO,21,7240-266,MOURÃO,-7.345518000669177,38.38353975089282
pt.ine.add.PTCONT.1443306,R DA FONTE,18,7240-100,LUZ MOU,-7.373638043165041,38.34373848418416
pt.ine.add.PTCONT.1443308,R MACHADO DOS SANTOS,45,7240-260,MOURÃO,-7.343248999240119,38.382492660629104
pt.ine.add.PTCONT.1443313,TV DOS PINHEIROS,38,7240-271,MOURÃO,-7.344189689472425,38.38136319687502
pt.ine.add.PTCONT.1443315,R MANUEL PALMA JORDÃO,7,7240-223,MOURÃO,-7.34385336984703,38.38104101466521
pt.ine.add.PTCONT.1443661,R NOVA,26,7240-100,LUZ MOU,-7.3780693832661575,38.34553621790662
pt.ine.add.PTCONT.1444035,R D MANUEL I,19,7240-251,MOURÃO,-7.344237613776243,38.379937269295965
pt.ine.add.PTCONT.1444037,R DA LAPA,1,7240-240,MOURÃO,-7.341567863163074,38.38272330496817
pt.ine.add.PTCONT.1444042,R DOS MEIGOS,1,7240-012,GRANJA MOU,-7.2570533637970955,38.3010044024781
pt.ine.add.PTCONT.1444043,R DOS MEIGOS,17,7240-012,GRANJA MOU,-7.257441370530602,38.30062045563502
pt.ine.add.PTCONT.1444044,R DOS MEIGOS,12,7240-019,GRANJA MOU,-7.257181735233435,38.300727048089826
pt.ine.add.PTCONT.1444048,BR ALTO DA ESCOLA,6,7240-012,GRANJA MOU,-7.255773084422179,38.30583811908417
pt.ine.add.PTCONT.1444051,R DA CORREDOURA,70,7240-012,GRANJA MOU,-7.255317051712687,38.29973449475419
pt.ine.add.PTCONT.1444052,MTE DO TARRINHO VELHO,,7240-238,MOURÃO,-7.34404378345003,38.36191495382206
pt.ine.add.PTCONT.1444058,R DO TELHEIRO,2,7240-012,GRANJA MOU,-7.254526230365064,38.3031835218154
pt.ine.add.PTCONT.1444059,R DE SÃO SEBASTIÃO,12,7240-245,MOURÃO,-7.3414779067572,38.38419721519799
pt.ine.add.PTCONT.1444069,BR LUIS DE CAMÕES,,7240-224,MOURÃO,-7.33923939067179,38.38695322882548
pt.ine.add.PTCONT.1444070,R PEDRO PITEIRA,27,7240-012,GRANJA MOU,-7.257038815594029,38.30226942699612
pt.ine.add.PTCONT.1444071,R JOAQUIM JOSE VASCONCELOS GUSMÃO,9,7240-255,MOURÃO,-7.3419886152050955,38.38337765940378
pt.ine.add.PTCONT.1444078,R ANTÓNIO JOAQUIM BORGES BARRETO,8,7240-273,MOURÃO,-7.3378217257922085,38.38563402567459
pt.ine.add.PTCONT.1444079,R MANUEL JOAQUIM BAÇÃO LOPES,8,7240-224,MOURÃO,-7.339729035191286,38.385389162881346
pt.ine.add.PTCONT.1444365,R DO BENQUERER,22,7240-248,MOURÃO,-7.3435727800254895,38.38363573867755
pt.ine.add.PTCONT.1444440,R DE SÃO SEBASTIÃO,16,7240-245,MOURÃO,-7.341503797534335,38.38429435668566
pt.ine.add.PTCONT.1444835,R JOAQUIM ANTÓNIO DE CASTRO,72,7240-012,GRANJA MOU,-7.252771733182062,38.300864623623
pt.ine.add.PTCONT.1444836,R NOVA,31,7240-012,GRANJA MOU,-7.254608706850896,38.30085794606853
pt.ine.add.PTCONT.1444837,R NOVA,47,7240-012,GRANJA MOU,-7.255365141008963,38.30071246721795
pt.ine.add.PTCONT.1444875,CM 1135 MONTE DA AVÓ,,7240-253,MOURÃO,-7.3160057643991285,38.39449027425977
pt.ine.add.PTCONT.1444876,R S BENTO,27,7240-266,MOURÃO,-7.345406269513049,38.38347992416245
pt.ine.add.PTCONT.1444877,R LEOVIGILDO DIAS PEREIRA RAMALHO,11,7240-259,MOURÃO,-7.34406108335338,38.38175529332838
pt.ine.add.PTCONT.1444915,R DE SÃO JOÃO,35,7240-267,MOURÃO,-7.342523222288989,38.380985495618845
pt.ine.add.PTCONT.1444916,BR DR JOSE TOMAS RAVASCO ANJOS,17,7240-223,MOURÃO,-7.344741707544147,38.38049794956507
pt.ine.add.PTCONT.1444917,R DE SÃO SEBASTIÃO,40 B,7240-245,MOURÃO,-7.3418523387618935,38.385166385451846
pt.ine.add.PTCONT.1444918,R JOSÉ TEODORO DE ABREU BRAVO,14,7240-258,MOURÃO,-7.344340326813227,38.38401449217872
pt.ine.add.PTCONT.1444919,R DA PEDREIRA,27,7240-243,MOURÃO,-7.342146194829938,38.383808472652795
pt.ine.add.PTCONT.1445116,LG ROGERIO BAÇÃO BARRETO,11,7240-273,MOURÃO,-7.338993391528115,38.38561096885532
pt.ine.add.PTCONT.1445173,R JOÃO JOSE VASCONCELOS ROSADO,12,7240-254,MOURÃO,-7.344031266109508,38.38435767309597
pt.ine.add.PTCONT.1445240,LG TEN GENERAL JOSÉ ANTÓNIO DA ROSA,2 B,7240-231,MOURÃO,-7.342013293930178,38.38192922370455
pt.ine.add.PTCONT.1445241,LG TEN GENERAL JOSÉ ANTÓNIO DA ROSA,2 B,7240-231,MOURÃO,-7.342013293930178,38.38192922370455
pt.ine.add.PTCONT.1445272,R DE OLIVENÇA,14,7240-242,MOURÃO,-7.340994116617241,38.38432541179661
pt.ine.add.PTCONT.1445743,R NOVA,3,7240-012,GRANJA MOU,-7.253394347365946,38.30125218374442
pt.ine.add.PTCONT.1445780,R DIREITA,17,7240-012,GRANJA MOU,-7.254114703589553,38.300474595649234
pt.ine.add.PTCONT.1445781,R DIREITA,52,7240-012,GRANJA MOU,-7.254966918272801,38.300075912931966
pt.ine.add.PTCONT.1445782,R DE OLIVENÇA,37,7240-242,MOURÃO,-7.340385545624205,38.384708859974815
pt.ine.add.PTCONT.1445813,R DR LIBANIO ESQUIVEL,12,7240-256,MOURÃO,-7.341025519770536,38.382578247715905
pt.ine.add.PTCONT.1445814,R ALTO DA FORCA,9,7240-247,MOURÃO,-7.339625184651803,38.383034327965696
pt.ine.add.PTCONT.1445815,MTE DO PALMIRA,,7240-256,MOURÃO,-7.329698006603545,38.378303120429315
pt.ine.add.PTCONT.1445816,PC DA REPÚBLICA,6,7240-233,MOURÃO,-7.344542175507552,38.38304715907365
pt.ine.add.PTCONT.1445817,TV DOS PINHEIROS,24,7240-271,MOURÃO,-7.3444827531357735,38.38162133930027
pt.ine.add.PTCONT.1445818,LOTEAM BARRUSCA,7,7240-230,MOURÃO,-7.340287182432706,38.381120013906425
pt.ine.add.PTCONT.1445853,TV VALE GROU,4,7240-264,MOURÃO,-7.343889106901054,38.37826439013329
pt.ine.add.PTCONT.1445854,R DA PEDREIRA,14,7240-243,MOURÃO,-7.342343946123107,38.38392383556792
pt.ine.add.PTCONT.1445902,R NOVA,23,7240-012,GRANJA MOU,-7.254253500273756,38.30097082579659
pt.ine.add.PTCONT.1445928,LG 25 DE ABRIL,9,7240-100,LUZ MOU,-7.376999400540149,38.34462017199076
pt.ine.add.PTCONT.1445929,R DO BENQUERER,22 A,7240-248,MOURÃO,-7.343524793489287,38.3836134383126
pt.ine.add.PTCONT.1445979,R DR LIBANIO ESQUIVEL,40,7240-256,MOURÃO,-7.340174439837236,38.382506519233594
pt.ine.add.PTCONT.1446404,R MANUEL JOAQUIM BAÇÃO LOPES,9,7240-224,MOURÃO,-7.3394746566971,38.385324283225295
pt.ine.add.PTCONT.1446408,R NOVA,18,7240-012,GRANJA MOU,-7.254026966847394,38.30093941621499
pt.ine.add.PTCONT.1446423,R NOVA,22,7240-100,LUZ MOU,-7.3781369838334445,38.345635747559605
pt.ine.add.PTCONT.1446424,CM 1135 MONTE DO VELHO GALEGO,,7240-253,MOURÃO,-7.302674498764561,38.425679463777854
pt.ine.add.PTCONT.1446427,R DE MOURÃO,28,7240-100,LUZ MOU,-7.372643962315878,38.34548505190804
pt.ine.add.PTCONT.1446430,R DE SÃO SEBASTIÃO,3,7240-245,MOURÃO,-7.341344175702171,38.38410435139363
pt.ine.add.PTCONT.1446434,LG 25 DE ABRIL,4,7240-100,LUZ MOU,-7.376789164207368,38.34413980913585
pt.ine.add.PTCONT.1446435,R NOVA,25,7240-012,GRANJA MOU,-7.25434078612909,38.30094031003364
pt.ine.add.PTCONT.1446437,MTE DO MANUEL JORGE,,7240-016,GRANJA MOU,-7.171125481125369,38.21064920859307
pt.ine.add.PTCONT.1446440,R ALTO DA FORCA,26,7240-247,MOURÃO,-7.339228963903557,38.383719105956274
pt.ine.add.PTCONT.1446441,R ALTO DA FORCA,28,7240-247,MOURÃO,-7.339193449959389,38.38382696749227
pt.ine.add.PTCONT.1446442,AV NOSSA SENHORA DAS CANDEIAS,6,7240-247,MOURÃO,-7.339127319709493,38.38411978604382
pt.ine.add.PTCONT.1446443,R JOAQUIM JOSE VASCONCELOS GUSMÃO,3,7240-255,MOURÃO,-7.342470462374842,38.38330577393399
pt.ine.add.PTCONT.1446448,ESTR CIRCUNVALACAO,10,7240-228,MOURÃO,-7.340714110458255,38.3805970954235
pt.ine.add.PTCONT.1446449,R DO NORTE,9,7240-249,MOURÃO,-7.343073726983493,38.382831584031884
pt.ine.add.PTCONT.1446679,R MACHADO DOS SANTOS,39,7240-260,MOURÃO,-7.343487768846658,38.382420248993576
pt.ine.add.PTCONT.1446702,R DAS FLORES,17,7240-012,GRANJA MOU,-7.254250010800705,38.301636005161136
pt.ine.add.PTCONT.1446719,R DA LAPA,17,7240-240,MOURÃO,-7.341498494681637,38.383354520247444
pt.ine.add.PTCONT.1447164,R DIREITA,24,7240-012,GRANJA MOU,-7.2539201256030585,38.30042938363681
pt.ine.add.PTCONT.1447168,R DO ALCANCE,3,7240-246,MOURÃO,-7.340115722764782,38.38195691119461
pt.ine.add.PTCONT.1447174,R JOAQUIM ANTÓNIO DE CASTRO,,7240-012,GRANJA MOU,-7.254221179288464,38.302837651989144
pt.ine.add.PTCONT.1447180,R DA CANHOTA,15,7240-012,GRANJA MOU,-7.2553908461765495,38.30254011829863
pt.ine.add.PTCONT.1447181,,,7240-256,MOURÃO,-7.221926995430826,38.32097768498171
pt.ine.add.PTCONT.1447182,,,7240-256,MOURÃO,-7.221926995430826,38.32097768498171
pt.ine.add.PTCONT.1447189,R DA ESTRELA,14,7240-100,LUZ MOU,-7.372557353535205,38.34431790524649
pt.ine.add.PTCONT.1447190,R DA ESTRELA,32,7240-100,LUZ MOU,-7.371756041887535,38.34435130704559
pt.ine.add.PTCONT.1447191,R GENERAL HUMBERTO DELGADO,17,7240-233,MOURÃO,-7.343442512738856,38.3826339457662
pt.ine.add.PTCONT.1447192,TV DOS CURRAIS,19,7240-270,MOURÃO,-7.3408047363432924,38.38508706033364
pt.ine.add.PTCONT.1447194,R DA IGREJA,42,7240-100,LUZ MOU,-7.377086891090863,38.34413789768639
pt.ine.add.PTCONT.1447199,MTE DA AZEDA JOSE DOMINGUES,,7240-019,GRANJA MOU,-7.262821066229876,38.31216259186219
pt.ine.add.PTCONT.1447200,LG TEN GENERAL JOSÉ ANTÓNIO DA ROSA,23,7240-261,MOURÃO,-7.342308801074844,38.38214123651919
pt.ine.add.PTCONT.1447202,BR LUIS DE CAMÕES,,7240-224,MOURÃO,-7.339638967932043,38.38704601924486
pt.ine.add.PTCONT.1447203,R DO ALCANCE,57,7240-246,MOURÃO,-7.342249121408367,38.38091139308538
pt.ine.add.PTCONT.1447204,R JOAQUIM JOSE VASCONCELOS GUSMÃO,30,7240-255,MOURÃO,-7.341739173423988,38.38349468620688
pt.ine.add.PTCONT.1447206,R PEDRO PITEIRA,37,7240-012,GRANJA MOU,-7.257124983807943,38.30189917090927
pt.ine.add.PTCONT.1447207,TV DOS PINHEIROS,7,7240-271,MOURÃO,-7.344619595619068,38.38144072661392
pt.ine.add.PTCONT.1447208,R DA LAPA,12,7240-240,MOURÃO,-7.341663164292499,38.38299686836124
pt.ine.add.PTCONT.1447211,R PEDRO PITEIRA,26,7240-012,GRANJA MOU,-7.256952170344096,38.30209942928329
pt.ine.add.PTCONT.1447214,R DO ALCANCE,38,7240-246,MOURÃO,-7.3421987724032425,38.38078064890605
pt.ine.add.PTCONT.1447470,R GENERAL HUMBERTO DELGADO,17,7240-233,MOURÃO,-7.343442512738856,38.3826339457662
pt.ine.add.PTCONT.1447479,R JOAQUIM JOSE VASCONCELOS GUSMÃO,5,7240-255,MOURÃO,-7.342348116058621,38.383321478396404
pt.ine.add.PTCONT.1447910,R ÁLVARO AFONSO,58,7240-012,GRANJA MOU,-7.256514514187966,38.30131434499237
pt.ine.add.PTCONT.1447913,R DIREITA,37,7240-012,GRANJA MOU,-7.254949580278041,38.3001878607505
pt.ine.add.PTCONT.1447914,R DA MURALHA,8,7240-241,MOURÃO,-7.340880219323699,38.383035698839585
pt.ine.add.PTCONT.1447937,R JOAQUIM ANTÓNIO DE CASTRO,1,7240-012,GRANJA MOU,-7.255387812326758,38.30477422355955
pt.ine.add.PTCONT.1447940,R DE MOURÃO,10,7240-100,LUZ MOU,-7.373646518053737,38.34520986645238
pt.ine.add.PTCONT.1447941,EN 256 1,,7240-204,MOURÃO,-7.33401729554738,38.38306210831073
pt.ine.add.PTCONT.1447951,TV DOS PINHEIROS,12,7240-271,MOURÃO,-7.345110901943097,38.382065837243694
pt.ine.add.PTCONT.1447958,R DO ROSSIO,2,7240-100,LUZ MOU,-7.376088636500723,38.34417977856536
pt.ine.add.PTCONT.1447959,R DO MONTINHO,47,7240-100,LUZ MOU,-7.37557718508509,38.34387873387324
pt.ine.add.PTCONT.1447972,R DA CORREDOURA,43,7240-012,GRANJA MOU,-7.256171332601181,38.302730376828436
pt.ine.add.PTCONT.1448243,R DO POÇO,4,7240-250,MOURÃO,-7.3426661870717576,38.38645410051005
pt.ine.add.PTCONT.1448730,R DA MURALHA,13,7240-262,MOURÃO,-7.340608449040775,38.38373233003377
pt.ine.add.PTCONT.1448733,R SACADURA CABRAL,22,7240-264,MOURÃO,-7.343691684761957,38.37954258696557
pt.ine.add.PTCONT.1448736,R NOVA DE DE MOURÃO,23,7240-012,GRANJA MOU,-7.255517643047827,38.30414459443524
pt.ine.add.PTCONT.1448737,R DE VALADARES,10,7240-019,GRANJA MOU,-7.256832034384124,38.30057801339681
pt.ine.add.PTCONT.1448738,R DE SÃO SEBASTIÃO,17,7240-012,GRANJA MOU,-7.256037328946223,38.3001440013567
pt.ine.add.PTCONT.1448739,R DE SÃO SEBASTIÃO,25,7240-012,GRANJA MOU,-7.255813564445548,38.2999230734778
pt.ine.add.PTCONT.1448740,R DA CORREDOURA,72,7240-012,GRANJA MOU,-7.255402174590337,38.29970249900587
pt.ine.add.PTCONT.1448741,R DA CORREDOURA,68,7240-012,GRANJA MOU,-7.255287216811183,38.299755690306604
pt.ine.add.PTCONT.1448742,ANTIGA ESTRADA NACIONAL 256 MONTE DAS AVESTRUZES,,7240-251,MOURÃO,-7.357831358538464,38.38009606844344
pt.ine.add.PTCONT.1448748,R FREI ANTÓNIO DAS CHAGAS,18,7240-252,MOURÃO,-7.3459634237368014,38.38428999749908
pt.ine.add.PTCONT.1448750,R DE TRÁS,38,7240-100,LUZ MOU,-7.378786346050663,38.345892166884866
pt.ine.add.PTCONT.1448754,R DA MISERICÓRDIA,29,7240-012,GRANJA MOU,-7.255415521698576,38.30207833561571
pt.ine.add.PTCONT.1448755,R DAS FLORES,14,7240-012,GRANJA MOU,-7.254144790560033,38.30155815374556
pt.ine.add.PTCONT.1448756,LG TEN GENERAL JOSÉ ANTÓNIO DA ROSA,13,7240-231,MOURÃO,-7.342619290766717,38.38175705300406
pt.ine.add.PTCONT.1448757,R DE SANTA MARGARIDA,10,7240-265,MOURÃO,-7.345258408416707,38.383992318138745
pt.ine.add.PTCONT.1448770,MTE DO FELICIO,,7240-016,GRANJA MOU,-7.158992517540812,38.21377425256026
pt.ine.add.PTCONT.1448771,R MANUEL JOAQUIM BAÇÃO LOPES,16,7240-273,MOURÃO,-7.339378939023398,38.38563992725431
pt.ine.add.PTCONT.1448775,R DO ALCANCE,75,7240-266,MOURÃO,-7.342970843790622,38.380557639182285
pt.ine.add.PTCONT.1448776,R DO NORTE,10,7240-249,MOURÃO,-7.34313814682654,38.38289951891901
pt.ine.add.PTCONT.1449059,R DR LIBANIO ESQUIVEL,48,7240-256,MOURÃO,-7.339905146479344,38.3824779493139
pt.ine.add.PTCONT.1449142,TV DOS CURRAIS,5,7240-270,MOURÃO,-7.340922966520112,38.38464823179605
pt.ine.add.PTCONT.1449499,BR DO ROSSIO,,7240-220,MOURÃO,-7.33975390739712,38.384625453415595
pt.ine.add.PTCONT.1449503,R DR MANUEL RAMOS,5,7240-238,MOURÃO,-7.341545134979008,38.37957802495741
pt.ine.add.PTCONT.1449514,R DO TELHEIRO,10,7240-012,GRANJA MOU,-7.2549217474956595,38.3031504429776
pt.ine.add.PTCONT.1449521,TV DOS CURRAIS,2,7240-270,MOURÃO,-7.340992862915127,38.38444046174522
pt.ine.add.PTCONT.1449523,R DE SÃO JOÃO,7,7240-267,MOURÃO,-7.343038870930737,38.3823852613049
pt.ine.add.PTCONT.1449524,R MACHADO DOS SANTOS,23,7240-260,MOURÃO,-7.344286449342853,38.382501541726235
pt.ine.add.PTCONT.1449528,R NOVA,15,7240-012,GRANJA MOU,-7.253976853704086,38.30105955387511
pt.ine.add.PTCONT.1449529,R NOVA,39,7240-012,GRANJA MOU,-7.255036843512503,38.30077621787098
pt.ine.add.PTCONT.1449530,BR LUIS DE CAMÕES,,7240-224,MOURÃO,-7.339684566732139,38.38734561277003
pt.ine.add.PTCONT.1449533,R PEDRO PITEIRA,21,7240-012,GRANJA MOU,-7.256984989965291,38.30248032310463
pt.ine.add.PTCONT.1449534,R PADRE INACIO NUNES BRANCO,6,7240-221,MOURÃO,-7.344707244558796,38.38085583046325
pt.ine.add.PTCONT.1449836,R DO MONTINHO,26,7240-100,LUZ MOU,-7.375788900600196,38.34374339073889
pt.ine.add.PTCONT.1450303,R LEOVIGILDO DIAS PEREIRA RAMALHO,14,7240-259,MOURÃO,-7.344049785313445,38.381993153643926
pt.ine.add.PTCONT.1450350,R JOAQUIM ANTÓNIO DE CASTRO,14,7240-019,GRANJA MOU,-7.254989511237583,38.304537019411356
pt.ine.add.PTCONT.1450351,MTE DO PICO AMENDINHA,,7240-020,GRANJA MOU,-7.24426579936571,38.273619824437915
pt.ine.add.PTCONT.1450352,R DIREITA,38,7240-012,GRANJA MOU,-7.254364289408284,38.300281570310226
pt.ine.add.PTCONT.1450353,R NOVA,18,7240-100,LUZ MOU,-7.378295529474298,38.34578991411196
pt.ine.add.PTCONT.1450354,R DA LAPA,6,7240-240,MOURÃO,-7.341684159076441,38.3827675571256
pt.ine.add.PTCONT.1450398,R DA ESTRELA,39,7240-100,LUZ MOU,-7.372017701819003,38.34448813434627
pt.ine.add.PTCONT.1450399,R DR LIBANIO ESQUIVEL,18,7240-256,MOURÃO,-7.340808096537685,38.38257143004886
pt.ine.add.PTCONT.1450565,R DA CORREDOURA,,7240-012,GRANJA MOU,-7.25649844363981,38.30644911594103
pt.ine.add.PTCONT.1450977,TV PUBLICA,1,7240-012,GRANJA MOU,-7.25656208657045,38.30354310862648
pt.ine.add.PTCONT.1450978,R DIREITA,18,7240-012,GRANJA MOU,-7.253752387581622,38.3004818850328
pt.ine.add.PTCONT.1450983,R DA CORREDOURA,28,7240-012,GRANJA MOU,-7.256105950456152,38.30391477140812
pt.ine.add.PTCONT.1450984,R DR LIBANIO ESQUIVEL,47,7240-256,MOURÃO,-7.33991888691832,38.38229194905614
pt.ine.add.PTCONT.1450987,EN 256 1,,7240-204,MOURÃO,-7.276818721293543,38.3857481492504
pt.ine.add.PTCONT.1450988,LG GOVERNADOR FURTADO MENDONÇA,12,7240-229,MOURÃO,-7.345869931329356,38.384097106506424
pt.ine.add.PTCONT.1450990,R JOAQUIM ANTÓNIO DE CASTRO,34,7240-012,GRANJA MOU,-7.253841595596122,38.302614169113184
pt.ine.add.PTCONT.1450998,R DR SÁ CARNEIRO,44,7240-100,LUZ MOU,-7.37420797434047,38.34506086188857
pt.ine.add.PTCONT.1450999,R DO MEIO,7,7240-100,LUZ MOU,-7.377849014581784,38.344533339006134
pt.ine.add.PTCONT.1451000,R MACHADO DOS SANTOS,,7240-260,MOURÃO,-7.344686630144919,38.382810046655955
pt.ine.add.PTCONT.1451007,R DE OLIVENÇA,14 A,7240-242,MOURÃO,-7.341014517016734,38.38425514097633
pt.ine.add.PTCONT.1451010,R MACHADO DOS SANTOS,21,7240-260,MOURÃO,-7.344335886402072,38.38254029837632
pt.ine.add.PTCONT.1451014,R NOVA,19,7240-012,GRANJA MOU,-7.254132804080318,38.3010030955547
pt.ine.add.PTCONT.1451015,MTE DO BLÉ,,7240-100,LUZ MOU,-7.3377050890554765,38.34100831497912
pt.ine.add.PTCONT.1451019,PC DA REPÚBLICA,30,7240-233,MOURÃO,-7.344634079259369,38.383448979280466
pt.ine.add.PTCONT.1451027,R PEDRO PITEIRA,35,7240-012,GRANJA MOU,-7.257106518283992,38.30198105796945
pt.ine.add.PTCONT.1451028,R JOSE JOAQUIM VASCONCELOS GUSMÃO,3,7240-257,MOURÃO,-7.342950750187635,38.3835190393538
pt.ine.add.PTCONT.1451034,R PEDRO PITEIRA,6,7240-012,GRANJA MOU,-7.256772031706294,38.30279081664283
pt.ine.add.PTCONT.1451035,AV NOSSA SENHORA DAS CANDEIAS,26,7240-233,MOURÃO,-7.338122865432986,38.38482006925755
pt.ine.add.PTCONT.1451036,R NOVA DE MOURA,16,7240-267,MOURÃO,-7.343058190022499,38.381086888739055
pt.ine.add.PTCONT.1451039,R DO NORTE,11,7240-249,MOURÃO,-7.343067774163873,38.3828825410754
pt.ine.add.PTCONT.1451745,R JOÃO JOSE VASCONCELOS ROSADO,32,7240-254,MOURÃO,-7.342938655953275,38.38411068066448
pt.ine.add.PTCONT.1451746,R NOVA,28,7240-100,LUZ MOU,-7.377908335392214,38.345430120937436
pt.ine.add.PTCONT.1451747,R DO POÇO,15,7240-250,MOURÃO,-7.34197134404777,38.3865490227264
pt.ine.add.PTCONT.1451754,R JOAQUIM ANTÓNIO DE CASTRO,60,7240-012,GRANJA MOU,-7.253038650483924,38.301360386942626
pt.ine.add.PTCONT.1451758,LG TEN GENERAL JOSÉ ANTÓNIO DA ROSA,12,7240-231,MOURÃO,-7.3426383906581725,38.38172519708659
pt.ine.add.PTCONT.1451762,MTE DO PICO,,7240-020,GRANJA MOU,-7.242268947933641,38.28179350817304
pt.ine.add.PTCONT.1452005,R 12 DE DEZEMBRO,1,7240-234,MOURÃO,-7.344154676945442,38.3805284244722
pt.ine.add.PTCONT.1452031,R DE VALADARES,12,7240-019,GRANJA MOU,-7.256889730106461,38.30053340145521
pt.ine.add.PTCONT.1452457,R 12 DE DEZEMBRO,12,7240-234,MOURÃO,-7.3451980958490495,38.380364088551055
pt.ine.add.PTCONT.1452469,R DE OLIVENÇA,11,7240-242,MOURÃO,-7.341092308151943,38.38397227524621
pt.ine.add.PTCONT.1452471,R DE VALADARES,12,7240-012,GRANJA MOU,-7.256094214634012,38.300585223990446
pt.ine.add.PTCONT.1452472,R DA FÁBRICA,11,7240-239,MOURÃO,-7.3411503815332875,38.381683428540725
pt.ine.add.PTCONT.1452479,MTE ESTACARIA,,7240-263,MOURÃO,-7.330869732426332,38.36442901708523
pt.ine.add.PTCONT.1452484,R NOVA DE DE MOURÃO,14,7240-012,GRANJA MOU,-7.255348878573434,38.30412531450986
pt.ine.add.PTCONT.1452489,MTE TIO BENTO GAFENHO,,7240-256,MOURÃO,-7.319520717646767,38.377593326452896
pt.ine.add.PTCONT.1452490,R DE SÃO SEBASTIÃO,28,7240-245,MOURÃO,-7.341630064109734,38.384719442290425
pt.ine.add.PTCONT.1452494,R DO ROSSIO,10,7240-100,LUZ MOU,-7.375624802621314,38.344208724069254
pt.ine.add.PTCONT.1452503,BR LUIS DE CAMÕES,,7240-224,MOURÃO,-7.339207715750937,38.386709784810094
pt.ine.add.PTCONT.1452504,R 9 DE ABRIL,8,7240-235,MOURÃO,-7.342826825629867,38.38333803383133
pt.ine.add.PTCONT.1452506,BR DR JOSE TOMAS RAVASCO ANJOS,7,7240-223,MOURÃO,-7.344392865317444,38.38154561709194
pt.ine.add.PTCONT.1452748,R JOAQUIM SILVESTRE VASCONCELOS ROSADO,15,7240-256,MOURÃO,-7.341925416042385,38.38253616532055
pt.ine.add.PTCONT.1452788,R DE SANTA MARGARIDA,3,7240-265,MOURÃO,-7.345197520189467,38.383881415054105
pt.ine.add.PTCONT.1453315,R DAS FLORES,25,7240-012,GRANJA MOU,-7.254537057350736,38.30154806963201
pt.ine.add.PTCONT.1453316,R NOVA,37,7240-012,GRANJA MOU,-7.254956657165136,38.30078977279049
pt.ine.add.PTCONT.1453317,MTE DO VAQUEIRO,,7240-011,GRANJA MOU,-7.244607503325789,38.30371112626235
pt.ine.add.PTCONT.1453318,R NOVA,8,7240-012,GRANJA MOU,-7.25359092305409,38.30106724591286
pt.ine.add.PTCONT.1453319,R NOVA,4 A,7240-012,GRANJA MOU,-7.253408578393636,38.30113826162801
pt.ine.add.PTCONT.1453320,R DAS PALHOTAS,16,7240-100,LUZ MOU,-7.373899991592881,38.34497779103983
pt.ine.add.PTCONT.1453321,R DA IGREJA,19,7240-100,LUZ MOU,-7.377556234062667,38.344280719719585
pt.ine.add.PTCONT.1453367,R LEOVIGILDO DIAS PEREIRA RAMALHO,15,7240-259,MOURÃO,-7.344226029386439,38.38189995767166
pt.ine.add.PTCONT.1453368,R MARCOS GOMES VASCONCELOS ROSADO,2,7240-261,MOURÃO,-7.342696621020609,38.38322314971161
pt.ine.add.PTCONT.1453403,R D MANUEL I,3,7240-251,MOURÃO,-7.34355012268885,38.380269109717375
pt.ine.add.PTCONT.1453404,LOTEAM BARRUSCA,21,7240-238,MOURÃO,-7.341603297888063,38.37979357877702
pt.ine.add.PTCONT.1453405,R DO POÇO,14,7240-250,MOURÃO,-7.342340209120593,38.38653605305773
pt.ine.add.PTCONT.1453406,BR LUIS DE CAMÕES,,7240-224,MOURÃO,-7.340017361470724,38.387320974493434
pt.ine.add.PTCONT.1453505,MTE VELHO CARDO,,7240-014,GRANJA MOU,-7.217367531116146,38.26070181294546
pt.ine.add.PTCONT.1465741,R NOVA,4,7240-012,GRANJA MOU,-7.253315494506909,38.30115526627566
pt.ine.add.PTCONT.1454028,R DA MISERICÓRDIA,12,7240-012,GRANJA MOU,-7.254596044259193,38.302239036403215
pt.ine.add.PTCONT.1454029,R PEDRO PITEIRA,1,7240-012,GRANJA MOU,-7.256809276687421,38.303309058639655
pt.ine.add.PTCONT.1454030,R DAS FLORES,47,7240-012,GRANJA MOU,-7.255741489547447,38.30124455241636
pt.ine.add.PTCONT.1454064,R DO ROSSIO,6,7240-220,MOURÃO,-7.3396815321748825,38.38454498697233
pt.ine.add.PTCONT.1454065,R DO ALCANCE,6,7240-246,MOURÃO,-7.340211899231582,38.381756150438804
pt.ine.add.PTCONT.1454066,CM 256 1 MONTE DO SR LÚCIO,,7240-204,MOURÃO,-7.325173432625251,38.38382126154063
pt.ine.add.PTCONT.1454106,R DE SÃO SEBASTIÃO,40 A,7240-245,MOURÃO,-7.341822169319057,38.38510860755551
pt.ine.add.PTCONT.1454107,R DE SÃO SEBASTIÃO,51,7240-245,MOURÃO,-7.3418311245852745,38.38534700238134
pt.ine.add.PTCONT.1454108,PC DA REPÚBLICA,25,7240-233,MOURÃO,-7.344204002366472,38.383464992765546
pt.ine.add.PTCONT.1454109,R DO NORTE,12,7240-249,MOURÃO,-7.343114161232714,38.38303005180737
pt.ine.add.PTCONT.1454757,R D MANUEL I,1,7240-251,MOURÃO,-7.343446889855805,38.3803289776951
pt.ine.add.PTCONT.1454762,AV PAPA JOAO PAULO II,16,7240-238,MOURÃO,-7.3409426749884785,38.380285824160836
pt.ine.add.PTCONT.1454766,R DR LIBANIO ESQUIVEL,20,7240-256,MOURÃO,-7.340742477040303,38.38256385448707
pt.ine.add.PTCONT.1454767,R CÂNDIDO DOS REIS,1,7240-236,MOURÃO,-7.341311556534261,38.38147407132635
pt.ine.add.PTCONT.1454768,R D MANUEL I,8,7240-251,MOURÃO,-7.34367644249721,38.38005125899597
pt.ine.add.PTCONT.1454781,EN 256 1 MONTE DA FAIA,,7240-256,MOURÃO,-7.307733790615587,38.37554707822267
pt.ine.add.PTCONT.1454782,EN 256 1 MONTE DA FAIA,,7240-256,MOURÃO,-7.307733790615587,38.37554707822267
pt.ine.add.PTCONT.1454787,R DE SÃO BENTO,9,7240-266,MOURÃO,-7.345804541477331,38.3836729990399
pt.ine.add.PTCONT.1454791,PC DR FERNANDO AUGUSTO PIRES,2,7240-012,GRANJA MOU,-7.254967758771106,38.30160005911339
pt.ine.add.PTCONT.1454796,MTE HERDADE DO CARVOEIRO,,7240-019,GRANJA MOU,-7.271979698853483,38.31890554220529
pt.ine.add.PTCONT.1454797,R JOSE JOAQUIM VASCONCELOS GUSMÃO,10,7240-257,MOURÃO,-7.342974838775749,38.38376758066094
pt.ine.add.PTCONT.1454802,R DO ALCANCE,37 A,7240-246,MOURÃO,-7.34154128313239,38.38125708624909
pt.ine.add.PTCONT.1454807,R PEDRO PITEIRA,11,7240-012,GRANJA MOU,-7.256899816194386,38.30281682951396
pt.ine.add.PTCONT.1454812,ESTR DA CIRCUNVALAÇÃO,,7240-012,GRANJA MOU,-7.257359761932692,38.30327552115362
pt.ine.add.PTCONT.1454813,AV NOSSA SENHORA DAS CANDEIAS,22,7240-233,MOURÃO,-7.338473478019093,38.384651421905005
pt.ine.add.PTCONT.1454814,R DO ALCANCE,69,7240-266,MOURÃO,-7.342658564038054,38.38071039293505
pt.ine.add.PTCONT.1454818,R DE SÃO BRÁS,5,7240-012,GRANJA MOU,-7.257026972246927,38.301522606198695
pt.ine.add.PTCONT.1455160,R JOÃO JOSÉ VASCONCELOS ROSADO,15,7240-254,MOURÃO,-7.3433568640668785,38.38411780319663
pt.ine.add.PTCONT.1455195,R DA TAPADA,4,7240-100,LUZ MOU,-7.377733575019775,38.34397123096931
pt.ine.add.PTCONT.1455196,R DO ROSSIO,10,7240-224,MOURÃO,-7.340296988373994,38.38511245549803
pt.ine.add.PTCONT.1455197,EN 256 1,,7240-253,MOURÃO,-7.2607785810168215,38.38143193578051
pt.ine.add.PTCONT.1455198,MTE ENG BAÇÃO,,7240-256,MOURÃO,-7.317445892587956,38.378921175287026
pt.ine.add.PTCONT.1455199,TV DOS PINHEIROS,19,7240-271,MOURÃO,-7.344218455747164,38.38108541304469
pt.ine.add.PTCONT.1455227,R CRISTÓVÃO MENDONÇA,,7240-229,MOURÃO,-7.344743665236266,38.38599043296237
pt.ine.add.PTCONT.1455228,LG DAS PORTAS DE SÃO BENTO,9,7240-270,MOURÃO,-7.345889495337332,38.38265255961235
pt.ine.add.PTCONT.1455229,R DO BENQUERER,4,7240-248,MOURÃO,-7.34409557662956,38.38387901378904
pt.ine.add.PTCONT.1455230,R DE SÃO BENTO,20,7240-266,MOURÃO,-7.345358062645776,38.38352126186795
pt.ine.add.PTCONT.1455746,MTE HORTA DA JANEIRA,,7240-012,GRANJA MOU,-7.255179567630587,38.28781849601222
pt.ine.add.PTCONT.1455747,R DE MOURÃO,12,7240-100,LUZ MOU,-7.3735446680031895,38.34523782341439
pt.ine.add.PTCONT.1456314,R VASCO DA GAMA,13,7240-269,MOURÃO,-7.339842962350805,38.38388825421038
pt.ine.add.PTCONT.1456336,R DO MONTINHO,9,7240-100,LUZ MOU,-7.377363939337115,38.343787101116405
pt.ine.add.PTCONT.1456337,LG DAS PORTAS DE SÃO BENTO,,7240-263,MOURÃO,-7.345291605345958,38.38258962193661
pt.ine.add.PTCONT.1456339,R NOVA,27,7240-012,GRANJA MOU,-7.254437509275437,38.300909859492435
pt.ine.add.PTCONT.1456345,R DE SANTA MARGARIDA,11,7240-265,MOURÃO,-7.344901084963613,38.38375581108294
pt.ine.add.PTCONT.1456351,AV NOSSA SENHORA DAS CANDEIAS,2,7240-247,MOURÃO,-7.339206915535867,38.38397391172196
pt.ine.add.PTCONT.1456598,R DA PEDREIRA,16,7240-243,MOURÃO,-7.342288297409155,38.38390710161617
pt.ine.add.PTCONT.1456624,R PADRE INACIO NUNES BRANCO,4,7240-221,MOURÃO,-7.34463565573521,38.38075905068862
pt.ine.add.PTCONT.1456689,R IGREJA,26,7240-100,LUZ MOU,-7.378299750747425,38.34415536823778
pt.ine.add.PTCONT.1457091,BR ALTO DA ESCOLA,7,7240-012,GRANJA MOU,-7.255795862750563,38.30593037423229
pt.ine.add.PTCONT.1457094,R DR SÁ CARNEIRO,55,7240-100,LUZ MOU,-7.374320945742629,38.34519672167346
pt.ine.add.PTCONT.1457097,R DR SÁ CARNEIRO,39,7240-100,LUZ MOU,-7.375055823977056,38.34498135723752
pt.ine.add.PTCONT.1457098,BR LUIS DE CAMÕES,,7240-224,MOURÃO,-7.340180799897204,38.38668934564783
pt.ine.add.PTCONT.1457100,CM 1135 MONTE DA MALHOEIRA,,7240-253,MOURÃO,-7.301806113010217,38.39953080895313
pt.ine.add.PTCONT.1457101,R JOÃO JOSE VASCONCELOS ROSADO,26,7240-254,MOURÃO,-7.343135116204744,38.38413880238128
pt.ine.add.PTCONT.1457123,TV DOS PINHEIROS,18,7240-271,MOURÃO,-7.3446187677647226,38.381743010622884
pt.ine.add.PTCONT.1457131,R DA CRUZ,10,7240-012,GRANJA MOU,-7.256309338982328,38.30200521400415
pt.ine.add.PTCONT.1457134,R ANTÓNIO JOAQUIM BORGES BARRETO,5,7240-273,MOURÃO,-7.337987153627578,38.38541509092807
pt.ine.add.PTCONT.1457135,R DR TITO FERNANDES,10,7240-273,MOURÃO,-7.338381649273813,38.38562137267865
pt.ine.add.PTCONT.1457350,R JOÃO JOSE VASCONCELOS ROSADO,20,7240-254,MOURÃO,-7.343497734339775,38.38423282057873
pt.ine.add.PTCONT.1457385,R DO ALCANCE,13,7240-246,MOURÃO,-7.340514953295327,38.38175416494296
pt.ine.add.PTCONT.1457852,R NOVA,28,7240-012,GRANJA MOU,-7.254485194753877,38.300790370079866
pt.ine.add.PTCONT.1457853,TV DAS EIRAS,11,7240-220,MOURÃO,-7.33977065861597,38.38482272058216
pt.ine.add.PTCONT.1457860,R DAS FLORES,56,7240-012,GRANJA MOU,-7.255980025306436,38.301080823405364
pt.ine.add.PTCONT.1457866,R DE SÃO SEBASTIÃO,21,7240-012,GRANJA MOU,-7.255951102820272,38.30006661787031
pt.ine.add.PTCONT.1457870,R DR SÁ CARNEIRO,17,7240-100,LUZ MOU,-7.375834809732584,38.34481946959866
pt.ine.add.PTCONT.1457875,R DO TELHEIRO,9,7240-012,GRANJA MOU,-7.255338313156012,38.303245059303585
pt.ine.add.PTCONT.1457876,R DE MOURÃO,4,7240-100,LUZ MOU,-7.373850752828997,38.3451553088123
pt.ine.add.PTCONT.1457877,CM 1135 MONTE DO CAEIRINHO,,7240-253,MOURÃO,-7.300903453111721,38.417352120887934
pt.ine.add.PTCONT.1457880,R DE MOURÃO,24,7240-100,LUZ MOU,-7.37281650956398,38.345437691120836
pt.ine.add.PTCONT.1457883,R DR SÁ CARNEIRO,30,7240-100,LUZ MOU,-7.375101006246923,38.34481597430429
pt.ine.add.PTCONT.1457884,R DA IGREJA,13,7240-100,LUZ MOU,-7.377971839144138,38.34429940959366
pt.ine.add.PTCONT.1457885,R DE SÃO JOSÉ,8,7240-268,MOURÃO,-7.34623011489071,38.38350906758592
pt.ine.add.PTCONT.1457889,BR DR JOSE TOMAS RAVASCO ANJOS,28,7240-223,MOURÃO,-7.343915619676179,38.381898324160325
pt.ine.add.PTCONT.1457892,R DE SANTA MARGARIDA,24,7240-265,MOURÃO,-7.344825838855552,38.38380242410613
pt.ine.add.PTCONT.1457893,MTE DA JANEIRA DE MARIANA SILVA,,7240-012,GRANJA MOU,-7.254067321423205,38.29000826602977
pt.ine.add.PTCONT.1457899,R PADRE INACIO NUNES BRANCO,16,7240-221,MOURÃO,-7.345235759825176,38.38129884508254
pt.ine.add.PTCONT.1457901,R DO NORTE,8,7240-249,MOURÃO,-7.34315022871874,38.38282600533283
pt.ine.add.PTCONT.1458132,LG ROGERIO BAÇÃO BARRETO,9,7240-273,MOURÃO,-7.338709961709972,38.3856106240215
pt.ine.add.PTCONT.1458178,R SACADURA CABRAL,12,7240-264,MOURÃO,-7.343264377994508,38.37974578472794
pt.ine.add.PTCONT.1458431,MTE DA AZEDA RUI DOMINGUES,,7240-012,GRANJA MOU,-7.260280216649122,38.312377934291696
pt.ine.add.PTCONT.1458468,R PEDRO PITEIRA,3,7240-012,GRANJA MOU,-7.256820696859918,38.303225016412185
pt.ine.add.PTCONT.1458469,R DA CRUZ,4,7240-012,GRANJA MOU,-7.256375549298412,38.30224014646683
pt.ine.add.PTCONT.1458470,R DE SÃO SEBASTIÃO,18,7240-012,GRANJA MOU,-7.255728539139261,38.3000266876124
pt.ine.add.PTCONT.1458471,R DA CORREDOURA,78,7240-012,GRANJA MOU,-7.255586367116748,38.29959577402524
pt.ine.add.PTCONT.1458472,LG 25 DE ABRIL,18,7240-100,LUZ MOU,-7.376728709172367,38.34492085515843
pt.ine.add.PTCONT.1458473,R NOVA,42,7240-100,LUZ MOU,-7.377250888574272,38.34504448140226
pt.ine.add.PTCONT.1458474,R DA IGREJA,12,7240-100,LUZ MOU,-7.37883399346055,38.34417957248453
pt.ine.add.PTCONT.1458514,R DO MONTINHO,30,7240-100,LUZ MOU,-7.375592552997422,38.34375561735797
pt.ine.add.PTCONT.1458515,BR LUIS DE CAMÕES,,7240-224,MOURÃO,-7.33937358167534,38.38708130783241
pt.ine.add.PTCONT.1458545,TV DOS PINHEIROS,16,7240-271,MOURÃO,-7.344651271643294,38.381772113233396
pt.ine.add.PTCONT.1458546,TV DOS PINHEIROS,27,7240-271,MOURÃO,-7.343664131223971,38.38058327555643
pt.ine.add.PTCONT.1458547,TV DOS CURRAIS,7,7240-270,MOURÃO,-7.340928950710734,38.384699790969876
pt.ine.add.PTCONT.1458548,R JOAQUIM JOSE VASCONCELOS GUSMÃO,14,7240-255,MOURÃO,-7.342265153534432,38.383402061949866
pt.ine.add.PTCONT.1458842,R DO ROSSIO,16,7240-224,MOURÃO,-7.340483267936229,38.38534009348538
pt.ine.add.PTCONT.1458874,R JOSE JOAQUIM VASCONCELOS GUSMÃO,12,7240-257,MOURÃO,-7.3429703063404395,38.38382546039252
pt.ine.add.PTCONT.1458886,R DO TELHEIRO,8,7240-012,GRANJA MOU,-7.254843026820045,38.30315561998454
pt.ine.add.PTCONT.1459542,R DE VALADARES,13,7240-012,GRANJA MOU,-7.257014713323333,38.300611977285755
pt.ine.add.PTCONT.1459577,R DE TRÁS,11,7240-100,LUZ MOU,-7.378513568155612,38.34462020175128
pt.ine.add.PTCONT.1459578,MTE VILA RUIVA,,7240-100,LUZ MOU,-7.35854530627856,38.32813941997894
pt.ine.add.PTCONT.1459593,R D MANUEL I,17,7240-251,MOURÃO,-7.344168792206772,38.37997718230278
pt.ine.add.PTCONT.1459594,R 12 DEZEMBRO,12,7240-234,MOURÃO,-7.34522556743111,38.38012202076799
pt.ine.add.PTCONT.1459595,ESTR DA PÓVOA MONTE MANUEL RAMALHO,,7240-263,MOURÃO,-7.332718948666491,38.3596310987407
pt.ine.add.PTCONT.1459596,R DE SÃO SEBASTIÃO,5,7240-245,MOURÃO,-7.34135907834608,38.38414990536246
pt.ine.add.PTCONT.1459597,R DE SANTA MARGARIDA,18,7240-265,MOURÃO,-7.3449791265231426,38.383856575265725
pt.ine.add.PTCONT.1459655,SIT LAVRADIAS,,7240-277,MOURÃO,-7.303884826158542,38.41296812779854
pt.ine.add.PTCONT.1460075,LG MIGUEL BOMBARDA,29,7240-230,MOURÃO,-7.340716673812294,38.380981591441106
pt.ine.add.PTCONT.1460082,R DA ESCOLA,5,7240-238,MOURÃO,-7.341920674721812,38.380396635782326
pt.ine.add.PTCONT.1460083,R DA ESCOLA,13,7240-238,MOURÃO,-7.341489339514434,38.38060154206097
pt.ine.add.PTCONT.1460086,R DR LIBANIO ESQUIVEL,38,7240-256,MOURÃO,-7.340258163479962,38.382516001245804
pt.ine.add.PTCONT.1460091,R NOVA DE DE MOURÃO,3,7240-012,GRANJA MOU,-7.255626088743335,38.304839066354425
pt.ine.add.PTCONT.1460097,R DA ESTRELA,13,7240-100,LUZ MOU,-7.373150912927547,38.34441440676632
pt.ine.add.PTCONT.1460098,CM 1135 MONTE DOS RUIVOS,,7240-253,MOURÃO,-7.301452054413731,38.41244641663989
pt.ine.add.PTCONT.1460099,R DE SÃO SEBASTIÃO,20 A,7240-245,MOURÃO,-7.341551829647874,38.384479525641396
pt.ine.add.PTCONT.1460104,R DA CORREDOURA,38,7240-012,GRANJA MOU,-7.256029143591099,38.3026980386371
pt.ine.add.PTCONT.1460105,R DE SÃO SEBASTIÃO,38 A,7240-245,MOURÃO,-7.341807101129096,38.385078203035114
pt.ine.add.PTCONT.1460110,R DE MOURA,13,7240-100,LUZ MOU,-7.372827975029175,38.34286255627572
pt.ine.add.PTCONT.1460117,R DE MOURA,6,7240-100,LUZ MOU,-7.372822740660719,38.3426269659066
pt.ine.add.PTCONT.1460118,BR DR JOSE TOMAS RAVASCO ANJOS,14,7240-223,MOURÃO,-7.344104803223675,38.381284555114995
pt.ine.add.PTCONT.1460127,R DA CORREDOURA,45,7240-012,GRANJA MOU,-7.256088468408259,38.302518310559044
pt.ine.add.PTCONT.1460130,R MANUEL JOAQUIM BAÇÃO LOPES,11,7240-224,MOURÃO,-7.339394053942944,38.3853687800022
pt.ine.add.PTCONT.1460131,R DO ALCANCE,30,7240-246,MOURÃO,-7.341783746212619,38.38098704368322
pt.ine.add.PTCONT.1460921,R DE VALADARES,14,7240-019,GRANJA MOU,-7.256970395655983,38.300479952464286
pt.ine.add.PTCONT.1460922,R ANTÓNIO JOAQUIM BORGES BARRETO,9,7240-273,MOURÃO,-7.338030564229186,38.38563158940383
pt.ine.add.PTCONT.1460961,EN 256 JUNCAL,,7240-204,MOURÃO,-7.33091209859079,38.38442820886309
pt.ine.add.PTCONT.1460962,MTE DO RETIRO,,7240-256,MOURÃO,-7.2814248261324686,38.37457515726245
pt.ine.add.PTCONT.1460963,AV PAPA JOAO PAULO II,2,7240-238,MOURÃO,-7.341884343721075,38.37961398603444
pt.ine.add.PTCONT.1460964,MTE SANTA RITA,,7240-263,MOURÃO,-7.335838797739012,38.373516480689496
pt.ine.add.PTCONT.1460999,R NOVA,11 A,7240-012,GRANJA MOU,-7.253805852631918,38.30111575773112
pt.ine.add.PTCONT.1461000,R PEDRO PITEIRA,5,7240-012,GRANJA MOU,-7.256842546569913,38.30310306290414
pt.ine.add.PTCONT.1461001,LG DO CORRO,4 A,7240-012,GRANJA MOU,-7.257656305843482,38.30143097509182
pt.ine.add.PTCONT.1461002,R DE SÃO SEBASTIÃO,40,7240-245,MOURÃO,-7.3418410874056415,38.385139037160336
pt.ine.add.PTCONT.1461103,R DAS FLORES,48,7240-012,GRANJA MOU,-7.255704942390046,38.30114778450155
pt.ine.add.PTCONT.1461155,R DA LAPA,19,7240-240,MOURÃO,-7.341501234110112,38.38344791191306
pt.ine.add.PTCONT.1461156,R MOUZINHO DE ALBUQUERQUE,18,7240-262,MOURÃO,-7.339583853901206,38.38352287852405
pt.ine.add.PTCONT.1461211,R ANTÓNIO JOAQUIM BORGES BARRETO,7,7240-273,MOURÃO,-7.338008957519845,38.385514332336356
pt.ine.add.PTCONT.1461241,R ANTÓNIO JOAQUIM BORGES BARRETO,15,7240-273,MOURÃO,-7.338048145516821,38.386052137181636
pt.ine.add.PTCONT.1461601,R D MANUEL I,7,7240-251,MOURÃO,-7.34368751217457,38.380212834544125
pt.ine.add.PTCONT.1461614,MTE DAS ROSADAS,,7240-238,MOURÃO,-7.317107777017666,38.370306689543895
pt.ine.add.PTCONT.1461619,LG MIGUEL BOMBARDA,3,7240-230,MOURÃO,-7.340743821521482,38.38124300729703
pt.ine.add.PTCONT.1461626,R DE SÃO SEBASTIÃO,42,7240-245,MOURÃO,-7.341882509396517,38.385224163348084
pt.ine.add.PTCONT.1461637,R JOAQUIM ANTÓNIO DE CASTRO,54,7240-012,GRANJA MOU,-7.253195636338244,38.30161380495987
pt.ine.add.PTCONT.1461892,R DA TAPADA,1,7240-100,LUZ MOU,-7.377920798433997,38.34392659398262
pt.ine.add.PTCONT.1461920,R DAS FLORES,64,7240-012,GRANJA MOU,-7.2564048670134875,38.30092615639539
pt.ine.add.PTCONT.1462049,R DO BENQUERER,8,7240-248,MOURÃO,-7.3439465406761455,38.38381207820118
pt.ine.add.PTCONT.1462596,R DAS FLORES,40,7240-012,GRANJA MOU,-7.255311290764605,38.30124110058628
pt.ine.add.PTCONT.1462597,R ÁLVARO AFONSO,44,7240-012,GRANJA MOU,-7.255539339027678,38.30150576748021
pt.ine.add.PTCONT.1462631,R DO MONTINHO,45,7240-100,LUZ MOU,-7.375823328678575,38.343865010943674
pt.ine.add.PTCONT.1462632,R DR TITO FERNANDES,12,7240-273,MOURÃO,-7.338392947061997,38.38582143079083
pt.ine.add.PTCONT.1462633,R MANUEL JOAQUIM BAÇÃO LOPES,2,7240-224,MOURÃO,-7.340031405072052,38.38518103250332
pt.ine.add.PTCONT.1462717,R DO ALCANCE,37,7240-246,MOURÃO,-7.341447600401295,38.381302639349116
pt.ine.add.PTCONT.1462771,PC DA REPÚBLICA,7,7240-233,MOURÃO,-7.344500595146428,38.38302872090692
pt.ine.add.PTCONT.1462774,R DE OLIVENÇA,16,7240-242,MOURÃO,-7.340835653764403,38.38445187160209
pt.ine.add.PTCONT.1463095,R NOVA,20,7240-012,GRANJA MOU,-7.254125773077657,38.30090895992194
pt.ine.add.PTCONT.1463100,R 12 DE DEZEMBRO,9,7240-234,MOURÃO,-7.34466568888306,38.3802807664688
pt.ine.add.PTCONT.1463102,R DE OLIVENÇA,9,7240-242,MOURÃO,-7.34114897139592,38.383962598276725
pt.ine.add.PTCONT.1463106,R DA CORREDOURA,,7240-012,GRANJA MOU,-7.256335829194668,38.3038569765227
pt.ine.add.PTCONT.1463107,R DR LIBANIO ESQUIVEL,24,7240-256,MOURÃO,-7.340651977331022,38.38255254332919
pt.ine.add.PTCONT.1463120,CM 1135 MONTE DA TILIA,,7240-253,MOURÃO,-7.3192334119792735,38.394040837045004
pt.ine.add.PTCONT.1463123,R DA CANHOTA,11,7240-012,GRANJA MOU,-7.254978783820898,38.30258207715421
pt.ine.add.PTCONT.1463124,R DE SÃO SEBASTIÃO,30,7240-245,MOURÃO,-7.341648750869624,38.38477108178961
pt.ine.add.PTCONT.1463126,LG 25 DE ABRIL,1,7240-100,LUZ MOU,-7.376871473395664,38.34430345028695
pt.ine.add.PTCONT.1463131,TV DOS CURRAIS,12,7240-270,MOURÃO,-7.341029887515859,38.384646786865105
pt.ine.add.PTCONT.1463137,R DAS FLORES,22,7240-012,GRANJA MOU,-7.254512594219367,38.30146977207708
pt.ine.add.PTCONT.1463138,R DO MONTINHO,23,7240-100,LUZ MOU,-7.376771789626438,38.34381622497475
pt.ine.add.PTCONT.1463433,R DA PEDREIRA,28,7240-243,MOURÃO,-7.341813661324061,38.38384229488417
pt.ine.add.PTCONT.1463435,R D MANUEL I,9,7240-251,MOURÃO,-7.343756370781584,38.38016955829441
pt.ine.add.PTCONT.1463436,R DR LIBANIO ESQUIVEL,46,7240-256,MOURÃO,-7.339966235149156,38.38248549558943
pt.ine.add.PTCONT.1463451,R MOUZINHO DE ALBUQUERQUE,13,7240-262,MOURÃO,-7.339809543118761,38.383460643862186
pt.ine.add.PTCONT.1463453,R DA PEDREIRA,25,7240-243,MOURÃO,-7.342212858380553,38.383822446011294
pt.ine.add.PTCONT.1463482,R DR LIBANIO ESQUIVEL,42,7240-256,MOURÃO,-7.340099778662844,38.38249709756719
pt.ine.add.PTCONT.1463491,R NOVA,27,7240-100,LUZ MOU,-7.377635293183407,38.34547937052901
pt.ine.add.PTCONT.1463534,R JOAQUIM SILVESTRE VASCONCELOS ROSADO,8,7240-256,MOURÃO,-7.342681659287172,38.382578709021764
pt.ine.add.PTCONT.1463882,R MANUEL JOAQUIM BAÇÃO LOPES,1,7240-224,MOURÃO,-7.339848823823613,38.385022261805524
pt.ine.add.PTCONT.1463888,R DOS MEIGOS,19,7240-012,GRANJA MOU,-7.257523167834431,38.3005431095271
pt.ine.add.PTCONT.1463902,EN 256 TAPADA DOS COITOS,,7240-204,MOURÃO,-7.332617382968288,38.38851493467206
pt.ine.add.PTCONT.1463903,EN 256 TAPADA DOS COITOS,,7240-204,MOURÃO,-7.332617382968288,38.38851493467206
pt.ine.add.PTCONT.1463912,R DR SÁ CARNEIRO,12,7240-100,LUZ MOU,-7.375833458743718,38.34469324794388
pt.ine.add.PTCONT.1463915,R DA MISERICÓRDIA,20,7240-012,GRANJA MOU,-7.2548190351834885,38.30216478013382
pt.ine.add.PTCONT.1463918,R DA IGREJA,34,7240-100,LUZ MOU,-7.377612681241538,38.34415086073613
pt.ine.add.PTCONT.1463919,R DA IGREJA,14,7240-100,LUZ MOU,-7.37868990440529,38.34416189860569
pt.ine.add.PTCONT.1463929,R DE SÃO JOÃO,30,7240-267,MOURÃO,-7.342462814244802,38.38107584624526
pt.ine.add.PTCONT.1463939,LG DO ROSSIO,2,7240-233,MOURÃO,-7.339846908364635,38.385636332328914
pt.ine.add.PTCONT.1464223,R DR LIBANIO ESQUIVEL,44,7240-256,MOURÃO,-7.340034159313282,38.38248952161033
pt.ine.add.PTCONT.1464235,R JOAQUIM JOSE VASCONCELOS GUSMÃO,16,7240-255,MOURÃO,-7.342159937755859,38.38342238963965
pt.ine.add.PTCONT.1464442,R JOAQUIM ANTÓNIO DE CASTRO,48,7240-012,GRANJA MOU,-7.253363619076524,38.30190333956558
pt.ine.add.PTCONT.1464455,MTE SR LOBO,,7240-238,MOURÃO,-7.343951644713048,38.37040037221094
pt.ine.add.PTCONT.1464515,R DO ALCANCE,34,7240-246,MOURÃO,-7.341919077432154,38.38092003657959
pt.ine.add.PTCONT.1464526,AV PAPA JOAO PAULO II,32,7240-246,MOURÃO,-7.339932449077416,38.381694058795986
pt.ine.add.PTCONT.1464908,R DE SÃO SEBASTIÃO,23,7240-245,MOURÃO,-7.341470011665206,38.38456882665888
pt.ine.add.PTCONT.1464951,ANTIGA ESTRADA NACIONAL 256 MONTE PEDREIRA DO XISTO,,7240-251,MOURÃO,-7.349728748628768,38.37903324862493
pt.ine.add.PTCONT.1465017,R DE SÃO SEBASTIÃO,45,7240-245,MOURÃO,-7.341751801525214,38.385207076531195
pt.ine.add.PTCONT.1465091,R DAS FLORES,1,7240-012,GRANJA MOU,-7.2535522113749025,38.30183825879459
pt.ine.add.PTCONT.1465156,R DAS FLORES,24,7240-012,GRANJA MOU,-7.254597321453672,38.301423290870154
pt.ine.add.PTCONT.1465169,R JOÃO JOSE VASCONCELOS ROSADO,7,7240-254,MOURÃO,-7.343845668337993,38.384218992553286
pt.ine.add.PTCONT.1465180,R JOAQUIM SILVESTRE VASCONCELOS ROSADO,20,7240-256,MOURÃO,-7.342264355967814,38.38261869930921
pt.ine.add.PTCONT.1465189,R NOVA,35,7240-012,GRANJA MOU,-7.254830700947357,38.30080684694915
pt.ine.add.PTCONT.1465229,AV NOSSA SENHORA DAS CANDEIAS,3,7240-220,MOURÃO,-7.339277779160561,38.38451621889611
pt.ine.add.PTCONT.1465252,R MACHADO DOS SANTOS,43,7240-260,MOURÃO,-7.343315363309092,38.382436099224485
pt.ine.add.PTCONT.1465348,R SACADURA CABRAL,10,7240-264,MOURÃO,-7.343131595910747,38.37980917025029
pt.ine.add.PTCONT.1465520,R DE SÃO SEBASTIÃO,19,7240-012,GRANJA MOU,-7.255991175310768,38.30008325909094
pt.ine.add.PTCONT.1465522,PQ MARIA CRISTINA,1,7240-232,MOURÃO,-7.346226938529204,38.38406462707454
pt.ine.add.PTCONT.1465535,R DA CANHOTA,10,7240-012,GRANJA MOU,-7.254797298288415,38.30246360681357
pt.ine.add.PTCONT.1465555,EN 256 1,,7240-204,MOURÃO,-7.276818721293543,38.3857481492504
pt.ine.add.PTCONT.1465565,MTE ROSADAS,,7240-000,,-7.31952232771268,38.370296445137555
pt.ine.add.PTCONT.1465577,R NOVA,42,7240-012,GRANJA MOU,-7.2549497577808255,38.30067666700576
pt.ine.add.PTCONT.1465599,R 25 DE ABRIL,2,7240-224,MOURÃO,-7.339442366547095,38.385024537304844
pt.ine.add.PTCONT.1465653,AV NOSSA SENHORA DAS CANDEIAS,9,7240-220,MOURÃO,-7.338607077211017,38.38483748463477
pt.ine.add.PTCONT.1465719,R DE SÃO SEBASTIÃO,16,7240-012,GRANJA MOU,-7.255819274243254,38.300103073500715
pt.ine.add.PTCONT.1465734,R DE SÃO BRÁS,4,7240-012,GRANJA MOU,-7.256873240882445,38.30151832924836
pt.ine.add.PTCONT.1465762,R DA IGREJA,24,7240-100,LUZ MOU,-7.378157101214429,38.344153088730785
pt.ine.add.PTCONT.1465789,CM 1135 HERDADE DA MALHOEIRA,,7240-253,MOURÃO,-7.298042914597862,38.399269838031366
pt.ine.add.PTCONT.1465803,R DE SÃO BRÁS,1,7240-012,GRANJA MOU,-7.256887941605508,38.30163243549107
pt.ine.add.PTCONT.1465852,TV VALE GROU,5,7240-264,MOURÃO,-7.344107655754114,38.37895388927352
pt.ine.add.PTCONT.1465870,R MANUEL JOAQUIM BAÇÃO LOPES,4,7240-224,MOURÃO,-7.339905101087277,38.385278756160446
pt.ine.add.PTCONT.1465905,R DA CRUZ,6,7240-012,GRANJA MOU,-7.256372465158876,38.302140401101106
pt.ine.add.PTCONT.1465930,LG DO CORRO,8,7240-012,GRANJA MOU,-7.257929241144751,38.30155012337807
pt.ine.add.PTCONT.1466012,R CÂNDIDO DOS REIS,4,7240-236,MOURÃO,-7.341433570979673,38.38154356726551
pt.ine.add.PTCONT.1466022,R DR LIBANIO ESQUIVEL,10,7240-256,MOURÃO,-7.341120569676268,38.382587805643006
pt.ine.add.PTCONT.1466030,R JOÃO JOSE VASCONCELOS ROSADO,8,7240-254,MOURÃO,-7.344131793999752,38.38436850143055
pt.ine.add.PTCONT.1466038,R DO MONTINHO,11,7240-100,LUZ MOU,-7.377229652413584,38.34378590586231
pt.ine.add.PTCONT.1466084,R TELHEIRO,34,7240-012,GRANJA MOU,-7.256101135401987,38.3033652119713
pt.ine.add.PTCONT.1466085,R DE SÃO BENTO,32,7240-266,MOURÃO,-7.344982387828447,38.38331262656625
pt.ine.add.PTCONT.1466101,R D MANUEL I CONDOMTNIO D MANUEL I,,7240-251,MOURÃO,-7.344459108658371,38.3798238884591
pt.ine.add.PTCONT.1466151,R NOVA DE MOURA,20,7240-267,MOURÃO,-7.3429566749215684,38.38118607107661
pt.ine.add.PTCONT.1466161,R DAS FLORES,50,7240-012,GRANJA MOU,-7.255807967934098,38.30112889114033
pt.ine.add.PTCONT.1466198,R SÉRGIO VIEIRA DE MELO,2,7240-220,MOURÃO,-7.3389497910655965,38.384690136974456
pt.ine.add.PTCONT.1466208,R DR LIBANIO ESQUIVEL,15,7240-256,MOURÃO,-7.341056309107538,38.38245540494902
pt.ine.add.PTCONT.1466264,R DR LIBANIO ESQUIVEL,41,7240-256,MOURÃO,-7.340112952037639,38.3823277690967
pt.ine.add.PTCONT.1466458,R DE TRÁS,31,7240-100,LUZ MOU,-7.378494372521136,38.345367790569114
pt.ine.add.PTCONT.1466468,R DR SÁ CARNEIRO,34,7240-100,LUZ MOU,-7.374895924620198,38.344872942956755
pt.ine.add.PTCONT.1466537,R DO TELHEIRO,22,7240-012,GRANJA MOU,-7.255773157048467,38.303083290610545
pt.ine.add.PTCONT.1466552,R DA CANHOTA,9,7240-012,GRANJA MOU,-7.25487590392495,38.302581306930186
pt.ine.add.PTCONT.1466561,R DA CORREDOURA,27,7240-012,GRANJA MOU,-7.256314858764491,38.303655084315736
pt.ine.add.PTCONT.1466602,R DAS FLORES,19,7240-012,GRANJA MOU,-7.254338646307311,38.30161393335426
pt.ine.add.PTCONT.1466609,R DR SÁ CARNEIRO,13,7240-100,LUZ MOU,-7.3759805852181595,38.34480420268266
pt.ine.add.PTCONT.1466731,R 12 DE DEZEMBRO,14,7240-234,MOURÃO,-7.345349409850501,38.38031931249472
pt.ine.add.PTCONT.1466742,R DA MISERICÓRDIA,25,7240-012,GRANJA MOU,-7.255216906082415,38.30213152330763
