id,street,house,postcode,city,lon,lat
pt.ine.add.MAD.27443,,,9270-013,ACHADAS DA CRUZ,-17.212996869257356,32.855335972619365
pt.ine.add.MAD.28275,,,9270-013,ACHADAS DA CRUZ,-17.213949201176803,32.855824113935
pt.ine.add.MAD.27466,CAM LADEIRA,,9270-034,PORTO MONIZ,-17.170968561350772,32.86467567906719
pt.ine.add.MAD.27467,CAM LADEIRA,,9270-034,PORTO MONIZ,-17.17069283674591,32.86476162673401
pt.ine.add.MAD.27468,CAM JUNQUEIRA,,9270-041,PORTO MONIZ,-17.184525756158877,32.85237366820683
pt.ine.add.MAD.28276,CAM ACHADA,,9270-014,ACHADAS DA CRUZ,-17.207306375239444,32.84385765597991
pt.ine.add.MAD.29103,CAM POMBAIS,,9270-042,PORTO MONIZ,-17.199701380176872,32.85818570201139
pt.ine.add.MAD.29104,CAM POMBAIS,,9270-042,PORTO MONIZ,-17.19941458183218,32.85825387113112
pt.ine.add.MAD.29105,CAM POMBAIS,,9270-042,PORTO MONIZ,-17.198696804648215,32.858609170364204
pt.ine.add.MAD.29127,CAM CASTANHEIRO,,9270-035,PORTO MONIZ,-17.173694273291307,32.856394993290145
pt.ine.add.MAD.29128,CAM CAPELA,,9270-035,PORTO MONIZ,-17.170253791097654,32.85375839063148
pt.ine.add.MAD.74875,ER 101,,9270-093,PORTO MONIZ,-17.190134499158663,32.85975137968737
pt.ine.add.MAD.29129,CAM CAPELA,,9270-035,PORTO MONIZ,-17.170498622089205,32.85415994773626
pt.ine.add.MAD.29130,CAM CAPELA,,9270-035,PORTO MONIZ,-17.170812201414645,32.85387495019535
pt.ine.add.MAD.29131,CAM CAPELA,,9270-035,PORTO MONIZ,-17.171292780873156,32.85386660780277
pt.ine.add.MAD.29153,CAM FARROBO,,9270-124,SEIXAL PMZ,-17.110359245793024,32.8249065016208
pt.ine.add.MAD.29913,CAM TRANCAS,,9270-035,PORTO MONIZ,-17.16876559369467,32.857580745488775
pt.ine.add.MAD.29914,SITIO LAMACEIROS,,9270-035,PORTO MONIZ,-17.169560886264602,32.8573324856869
pt.ine.add.MAD.29937,CAM PORTADA,,9270-126,SEIXAL PMZ,-17.10611059206935,32.82274159668761
pt.ine.add.MAD.30737,ER 101,,9270-091,PORTO MONIZ,-17.182123249985906,32.857664012528964
pt.ine.add.MAD.30738,ER 101,,9270-091,PORTO MONIZ,-17.182076032399742,32.85791733685538
pt.ine.add.MAD.30739,ER 101,,9270-091,PORTO MONIZ,-17.181858238845077,32.85774979720477
pt.ine.add.MAD.30740,ER 101,,9270-091,PORTO MONIZ,-17.182315930136802,32.85767868611401
pt.ine.add.MAD.33287,ER 209,367,9270-104,RIBEIRA DA JANELA,-17.15361786345496,32.84709311918666
pt.ine.add.MAD.33288,ER 209,371,9270-104,RIBEIRA DA JANELA,-17.15354703817631,32.84681478194362
pt.ine.add.MAD.27439,,,9270-013,ACHADAS DA CRUZ,-17.212575801906137,32.85601975772666
pt.ine.add.MAD.27440,,,9270-013,ACHADAS DA CRUZ,-17.21264675276774,32.85586519986196
pt.ine.add.MAD.27441,,,9270-013,ACHADAS DA CRUZ,-17.212953771075423,32.85575155398592
pt.ine.add.MAD.27442,,,9270-013,ACHADAS DA CRUZ,-17.212944815486637,32.85539100050175
pt.ine.add.MAD.27429,CAM TELEFERICO,7,9270-013,ACHADAS DA CRUZ,-17.21025908181026,32.84187570266623
pt.ine.add.MAD.27430,CAM TELEFERICO,10,9270-013,ACHADAS DA CRUZ,-17.210160249857452,32.841336379560566
pt.ine.add.MAD.27431,CAM TELEFERICO,,9270-013,ACHADAS DA CRUZ,-17.209953622030163,32.841619582739966
pt.ine.add.MAD.27432,CAM EIRINHA,3,9270-013,ACHADAS DA CRUZ,-17.211242951692853,32.84148858367546
pt.ine.add.MAD.27433,CAM FIGUEIRAS,,9270-013,ACHADAS DA CRUZ,-17.210841838024553,32.84125219244537
pt.ine.add.MAD.27434,CAM FIGUEIRAS,26,9270-013,ACHADAS DA CRUZ,-17.210302363043596,32.84103628038052
pt.ine.add.MAD.27435,CAM PADRE ANTÓNIO CAMARA,,9270-013,ACHADAS DA CRUZ,-17.209319519734507,32.84060275168202
pt.ine.add.MAD.27436,,,9270-013,ACHADAS DA CRUZ,-17.212205664196226,32.85660344482479
pt.ine.add.MAD.27437,,,9270-013,ACHADAS DA CRUZ,-17.21246705734775,32.85637337575418
pt.ine.add.MAD.27438,,,9270-013,ACHADAS DA CRUZ,-17.212313738539162,32.85622278546058
pt.ine.add.MAD.27444,CAM POÇO DA EIRA VELHA,9,9270-042,PORTO MONIZ,-17.198552400704127,32.85925197511742
pt.ine.add.MAD.27445,CAM POMBAIS,,9270-042,PORTO MONIZ,-17.19830164475821,32.85904897319089
pt.ine.add.MAD.27446,CAM POMBAIS,,9270-042,PORTO MONIZ,-17.198660091717354,32.85885329726115
pt.ine.add.MAD.27447,CAM POMBAIS,48,9270-042,PORTO MONIZ,-17.198818733439484,32.8587873832117
pt.ine.add.MAD.27448,CAM POMBAIS,35,9270-042,PORTO MONIZ,-17.197424545671804,32.859443137232844
pt.ine.add.MAD.27449,CAM POMBAIS,,9270-042,PORTO MONIZ,-17.197345338624167,32.85926417233886
pt.ine.add.MAD.27450,CAM POMBAIS,,9270-042,PORTO MONIZ,-17.197176245578767,32.85890642998768
pt.ine.add.MAD.27451,CAM LOMBO BRASIL,,9270-042,PORTO MONIZ,-17.197582771077734,32.8576277722787
pt.ine.add.MAD.27452,CAM LOMBO BRASIL,,9270-042,PORTO MONIZ,-17.197557624563494,32.857907767036906
pt.ine.add.MAD.27453,CAM LOMBO BRASIL,,9270-042,PORTO MONIZ,-17.197774779314262,32.858048236288255
pt.ine.add.MAD.27454,ER 101,47,9270-095,PORTO MONIZ,-17.169510994435196,32.86493544109954
pt.ine.add.MAD.27455,ER 101,47,9270-095,PORTO MONIZ,-17.169510994435196,32.86493544109954
pt.ine.add.MAD.27456,R SERENO,45,9270-095,PORTO MONIZ,-17.169435789134102,32.86491871007439
pt.ine.add.MAD.27457,R SERENO,41,9270-095,PORTO MONIZ,-17.169254433728174,32.864930874189724
pt.ine.add.MAD.27458,R SERENO,37,9270-095,PORTO MONIZ,-17.16895646660217,32.86498113234498
pt.ine.add.MAD.27459,R SERENO,35,9270-095,PORTO MONIZ,-17.16888170037127,32.86498242916288
pt.ine.add.MAD.27460,R SERENO,33,9270-095,PORTO MONIZ,-17.168807153640486,32.86499274002622
pt.ine.add.MAD.27461,R SERENO,31,9270-095,PORTO MONIZ,-17.168733484880654,32.86503910720775
pt.ine.add.MAD.27462,ER 101,27,9270-095,PORTO MONIZ,-17.168573710358537,32.86505991395011
pt.ine.add.MAD.27463,ER 101,21,9270-095,PORTO MONIZ,-17.168308443421978,32.86513665717381
pt.ine.add.MAD.27464,ER 101,17,9270-095,PORTO MONIZ,-17.168192270037657,32.86519277897149
pt.ine.add.MAD.27465,CAM LADEIRA,,9270-034,PORTO MONIZ,-17.170968561350772,32.86467567906719
pt.ine.add.MAD.27469,CAM PICO ALTO,104,9270-041,PORTO MONIZ,-17.184707303706645,32.85237049708339
pt.ine.add.MAD.27470,CAM JUNQUEIRA,104,9270-041,PORTO MONIZ,-17.185260635879498,32.85227966945643
pt.ine.add.MAD.27471,CAM JUNQUEIRA,,9270-041,PORTO MONIZ,-17.185555896341185,32.852121206410246
pt.ine.add.MAD.27472,CAM PICO ALTO,,9270-041,PORTO MONIZ,-17.18039388297648,32.852923716934086
pt.ine.add.MAD.27473,SIT LEVADA GRANDE,,9270-041,PORTO MONIZ,-17.179854275647457,32.85226579952843
pt.ine.add.MAD.27474,SIT LEVADA GRANDE,,9270-041,PORTO MONIZ,-17.17948897499416,32.85218198696733
pt.ine.add.MAD.27475,CAM ANEL,31,9270-041,PORTO MONIZ,-17.18293707140843,32.85076015286028
pt.ine.add.MAD.27476,CAM JUNQUEIRA,,9270-041,PORTO MONIZ,-17.182925410586762,32.85246473546838
pt.ine.add.MAD.27477,CAM ANEL,2,9270-041,PORTO MONIZ,-17.183164408725926,32.85219002752638
pt.ine.add.MAD.27478,CAM JUNQUEIRA,121,9270-041,PORTO MONIZ,-17.18546360900352,32.85184326503079
pt.ine.add.MAD.27479,CAM JUNQUEIRA,119,9270-041,PORTO MONIZ,-17.18544512461104,32.85196082036026
pt.ine.add.MAD.27480,CAM JUNQUEIRA,,9270-041,PORTO MONIZ,-17.184974797112094,32.85195100208958
pt.ine.add.MAD.27481,CAM JUNQUEIRA,951,9270-041,PORTO MONIZ,-17.183393974034132,32.852402449179316
pt.ine.add.MAD.27482,CAM JUNQUEIRA,,9270-041,PORTO MONIZ,-17.18619943159566,32.851352458093764
pt.ine.add.MAD.27483,CAM SALAO,,9270-035,PORTO MONIZ,-17.17219237264601,32.85658341077894
pt.ine.add.MAD.27484,CAM LOMBINHO,,9270-035,PORTO MONIZ,-17.17013013894199,32.857016000255456
pt.ine.add.MAD.27485,CAM GORGULHO,10,9270-035,PORTO MONIZ,-17.17103169841265,32.85630597423776
pt.ine.add.MAD.27486,ER 101,,9270-128,SEIXAL PMZ,-17.114813688963967,32.82493049414152
pt.ine.add.MAD.27487,ER 101,89,9270-128,SEIXAL PMZ,-17.112985875494697,32.824871192337646
pt.ine.add.MAD.27488,ER 101,82,9270-128,SEIXAL PMZ,-17.112786011539463,32.8250008203783
pt.ine.add.MAD.27489,ER 101,,9270-128,SEIXAL PMZ,-17.112479381874344,32.82513225064528
pt.ine.add.MAD.27490,ER 101,,9270-128,SEIXAL PMZ,-17.112005555161574,32.82541980983705
pt.ine.add.MAD.27491,R JOÃO DE AZEVEDO,41,9270-128,SEIXAL PMZ,-17.11169080712225,32.82565959227667
pt.ine.add.MAD.27492,R JOÃO DE AZEVEDO,,9270-128,SEIXAL PMZ,-17.111928471607044,32.82532191196655
pt.ine.add.MAD.27493,R JOÃO DE AZEVEDO,33,9270-128,SEIXAL PMZ,-17.112091825738222,32.82500352174682
pt.ine.add.MAD.27494,R JOÃO DE AZEVEDO,29,9270-128,SEIXAL PMZ,-17.112010046995017,32.82470730528432
pt.ine.add.MAD.27495,R JOÃO DE AZEVEDO,,9270-128,SEIXAL PMZ,-17.112291267417536,32.82440496149536
pt.ine.add.MAD.27496,CAM MANUEL IDELFONSO DE CASTRO,6,9270-123,SEIXAL PMZ,-17.111682937987403,32.82352243854765
pt.ine.add.MAD.27497,CAM MANUEL IDELFONSO DE CASTRO,8,9270-123,SEIXAL PMZ,-17.111430973395606,32.82370705218235
pt.ine.add.MAD.27498,CAM MANUEL IDELFONSO DE CASTRO,10,9270-123,SEIXAL PMZ,-17.111186057352036,32.823738238896695
pt.ine.add.MAD.27499,CAM MANUEL IDELFONSO DE CASTRO,26,9270-123,SEIXAL PMZ,-17.11061402528516,32.82348636425905
pt.ine.add.MAD.27500,CAM MANUEL IDELFONSO DE CASTRO,,9270-123,SEIXAL PMZ,-17.109998438272495,32.82319914899178
pt.ine.add.MAD.27501,VR MOINHO,,9270-123,SEIXAL PMZ,-17.110202751787156,32.82416063940202
pt.ine.add.MAD.28262,,,9270-013,ACHADAS DA CRUZ,-17.213413590449374,32.85533761578214
pt.ine.add.MAD.28263,,,9270-013,ACHADAS DA CRUZ,-17.213864589618385,32.85542882873383
pt.ine.add.MAD.28264,,,9270-013,ACHADAS DA CRUZ,-17.213809777324414,32.854942837971855
pt.ine.add.MAD.28265,,,9270-013,ACHADAS DA CRUZ,-17.213882517076705,32.8548603901697
pt.ine.add.MAD.28266,,,9270-013,ACHADAS DA CRUZ,-17.213989982592746,32.85488554114941
pt.ine.add.MAD.28267,,,9270-013,ACHADAS DA CRUZ,-17.214003501675656,32.85456967891969
pt.ine.add.MAD.28268,,,9270-013,ACHADAS DA CRUZ,-17.214266228376175,32.85439368945681
pt.ine.add.MAD.28269,,,9270-013,ACHADAS DA CRUZ,-17.214360101822688,32.85430184942092
pt.ine.add.MAD.28270,,,9270-013,ACHADAS DA CRUZ,-17.215124002594973,32.853657075968734
pt.ine.add.MAD.28271,,,9270-013,ACHADAS DA CRUZ,-17.2168970790631,32.85192129645225
pt.ine.add.MAD.28272,,,9270-013,ACHADAS DA CRUZ,-17.218133189581515,32.850934476154904
pt.ine.add.MAD.28273,,,9270-013,ACHADAS DA CRUZ,-17.21852606298942,32.85083733001041
pt.ine.add.MAD.28274,,,9270-013,ACHADAS DA CRUZ,-17.218559670424888,32.8508998584051
pt.ine.add.MAD.28277,CAM LOMBO DOS FORNEIROS,51,9270-037,PORTO MONIZ,-17.19478159270637,32.86145543904047
pt.ine.add.MAD.28278,CAM LOMBO DOS FORNEIROS,,9270-037,PORTO MONIZ,-17.19503014504078,32.86113545216034
pt.ine.add.MAD.28279,CAM LOMBO DOS FORNEIROS,37,9270-037,PORTO MONIZ,-17.194684379601064,32.86097919979737
pt.ine.add.MAD.28280,CAM POMBAIS,,9270-042,PORTO MONIZ,-17.197209611205416,32.85939280679578
pt.ine.add.MAD.28281,CAM POMBAIS,,9270-042,PORTO MONIZ,-17.196877641394046,32.85936256769241
pt.ine.add.MAD.28282,CAM POMBAIS,,9270-042,PORTO MONIZ,-17.196643803314267,32.85897890844458
pt.ine.add.MAD.28283,CAM POMBAIS,,9270-042,PORTO MONIZ,-17.19551528011559,32.85914301155823
pt.ine.add.MAD.28284,CAM POMBAIS,,9270-042,PORTO MONIZ,-17.19527163926539,32.85922844929239
pt.ine.add.MAD.28285,CAM CABEÇO CARRACHOTE,,9270-042,PORTO MONIZ,-17.194347162744716,32.859001192739235
pt.ine.add.MAD.28286,CAM CABEÇO CARRACHOTE,,9270-042,PORTO MONIZ,-17.19503447673195,32.85870957760562
pt.ine.add.MAD.28287,ER 101,,9270-034,PORTO MONIZ,-17.17097493329915,32.86493708731211
pt.ine.add.MAD.28288,ER 101,,9270-034,PORTO MONIZ,-17.17097493329915,32.86493708731211
pt.ine.add.MAD.28289,CAM LADEIRA,,9270-034,PORTO MONIZ,-17.171195715621316,32.86478896776068
pt.ine.add.MAD.28290,CAM LADEIRA,,9270-034,PORTO MONIZ,-17.171078665721907,32.86480903584327
pt.ine.add.MAD.28291,CAM PEDRA MOLE DE BAIXO,95,9270-095,PORTO MONIZ,-17.173371430325986,32.864183044732805
pt.ine.add.MAD.28292,CAM PEDRA MOLE DE BAIXO,95,9270-095,PORTO MONIZ,-17.173371430325986,32.864183044732805
pt.ine.add.MAD.28293,CAM PEDRA MOLE DE BAIXO,95,9270-095,PORTO MONIZ,-17.173371430325986,32.864183044732805
pt.ine.add.MAD.28294,CAM PEDRA MOLE DE BAIXO,95,9270-095,PORTO MONIZ,-17.173371430325986,32.864183044732805
pt.ine.add.MAD.28295,CAM LADEIRA,83,9270-034,PORTO MONIZ,-17.171828873221628,32.86446234639621
pt.ine.add.MAD.28296,CAM LADEIRA,,9270-034,PORTO MONIZ,-17.171574511846163,32.86454792493483
pt.ine.add.MAD.28297,CAM LADEIRA,,9270-034,PORTO MONIZ,-17.171089040784715,32.86435796110515
pt.ine.add.MAD.28298,CAM LADEIRA,CCI 120,9270-034,PORTO MONIZ,-17.17066392173899,32.86401364352005
pt.ine.add.MAD.28299,CAM PEDRA MOLE,2,9270-039,PORTO MONIZ,-17.17610603209214,32.8637116459893
pt.ine.add.MAD.28300,CAM PEDRA MOLE,,9270-039,PORTO MONIZ,-17.176025871995705,32.86392947006133
pt.ine.add.MAD.28301,CAM GORGULHO,,9270-035,PORTO MONIZ,-17.17103521293734,32.856450199664884
pt.ine.add.MAD.28302,CAM CASTANHEIRO,,9270-035,PORTO MONIZ,-17.172148025902825,32.85607917864378
pt.ine.add.MAD.28303,CAM CASTANHEIRO,,9270-035,PORTO MONIZ,-17.172366237492458,32.85626476435359
pt.ine.add.MAD.28304,CAM CASTANHEIRO,,9270-035,PORTO MONIZ,-17.173350319850364,32.856310792056476
pt.ine.add.MAD.28305,CAM FAJA DO BARRO,,9270-035,PORTO MONIZ,-17.170061354329047,32.85506932630449
pt.ine.add.MAD.28306,CAM LOMBINHO,,9270-035,PORTO MONIZ,-17.16961164220262,32.85590677608101
pt.ine.add.MAD.28307,CAM LOMBINHO,,9270-035,PORTO MONIZ,-17.16989722034347,32.856226466130934
pt.ine.add.MAD.28308,CAM LOMBINHO,,9270-035,PORTO MONIZ,-17.17006414563023,32.856061247504556
pt.ine.add.MAD.28309,CAM FAJA DE BAIXO,,9270-035,PORTO MONIZ,-17.16955567714768,32.85492479506869
pt.ine.add.MAD.28310,CAM CASTANHEIRO,,9270-035,PORTO MONIZ,-17.171113591524094,32.85484365227482
pt.ine.add.MAD.28311,CAM CASTANHEIRO,,9270-035,PORTO MONIZ,-17.17041005126708,32.854909971035134
pt.ine.add.MAD.28312,CAM CASTANHEIRO,,9270-035,PORTO MONIZ,-17.170334634832468,32.854884226084216
pt.ine.add.MAD.28313,R MORGADA,,9270-035,PORTO MONIZ,-17.170591305388403,32.85445593011174
pt.ine.add.MAD.28314,R MORGADA,,9270-035,PORTO MONIZ,-17.170130984019796,32.854418828835264
pt.ine.add.MAD.28315,CAM FAJA DA PARREIRA,,9270-122,SEIXAL PMZ,-17.120978365598287,32.82590831890838
pt.ine.add.MAD.28316,CAM FAJA DA PARREIRA,,9270-122,SEIXAL PMZ,-17.120538736952934,32.82628551081323
pt.ine.add.MAD.28317,CAM FAJA DA PARREIRA,,9270-122,SEIXAL PMZ,-17.120368125709778,32.826297420183074
pt.ine.add.MAD.28318,CAM FAJA DA PARREIRA,,9270-122,SEIXAL PMZ,-17.12010653083645,32.826076401307226
pt.ine.add.MAD.28319,VIA EXPRESSO,,9270-122,SEIXAL PMZ,-17.119606231267902,32.82614800380192
pt.ine.add.MAD.28320,VIA EXPRESSO,24,9270-122,SEIXAL PMZ,-17.11956138288449,32.826058582865336
pt.ine.add.MAD.28321,VR CALHAU MIUDO,,9270-122,SEIXAL PMZ,-17.1194018768197,32.82608833892381
pt.ine.add.MAD.28322,VR CALHAU MIUDO,,9270-122,SEIXAL PMZ,-17.11919155772443,32.82622717219047
pt.ine.add.MAD.28323,VR CALHAU MIUDO,,9270-122,SEIXAL PMZ,-17.118987845771038,32.82619454995288
pt.ine.add.MAD.28324,VR CALHAU MIUDO,,9270-122,SEIXAL PMZ,-17.11896071070505,32.825951521667314
pt.ine.add.MAD.28325,VIA EXPRESSO,,9270-122,SEIXAL PMZ,-17.11910440040373,32.82570560042584
pt.ine.add.MAD.28326,VIA EXPRESSO,3,9270-122,SEIXAL PMZ,-17.115245450483112,32.82512159378044
pt.ine.add.MAD.28327,R JOÃO DE AZEVEDO,56,9270-124,SEIXAL PMZ,-17.111489232375785,32.82571710250276
pt.ine.add.MAD.28328,ER ENG JORGE MANUEL JARDIM FERNANDES,62,9270-124,SEIXAL PMZ,-17.111152915275415,32.825948229524435
pt.ine.add.MAD.28329,ER ENG JORGE MANUEL JARDIM FERNANDES,5,9270-124,SEIXAL PMZ,-17.11057787076102,32.8260210571179
pt.ine.add.MAD.28330,ER ENG JORGE MANUEL JARDIM FERNANDES,,9270-124,SEIXAL PMZ,-17.11030027829579,32.82602573915148
pt.ine.add.MAD.29086,CAM LOMBO DOS FORNEIROS,,9270-037,PORTO MONIZ,-17.19456023484173,32.860710843338595
pt.ine.add.MAD.29087,CAM LOMBO DOS FORNEIROS,7,9270-037,PORTO MONIZ,-17.194127744115516,32.85963629155436
pt.ine.add.MAD.29088,CAM RIBEIRO DO CHARCO,,9270-092,PORTO MONIZ,-17.19413911331624,32.85923028922361
pt.ine.add.MAD.29089,CAM COXA,,9270-092,PORTO MONIZ,-17.19436337176288,32.85965921069695
pt.ine.add.MAD.29090,CAM COXA,,9270-092,PORTO MONIZ,-17.19442365572468,32.85993770590987
pt.ine.add.MAD.29091,CAM COXA,,9270-092,PORTO MONIZ,-17.194787445469355,32.85995837520737
pt.ine.add.MAD.29092,CAM COXA,69,9270-092,PORTO MONIZ,-17.194864649276344,32.86005621643106
pt.ine.add.MAD.29093,CAM COXA,,9270-092,PORTO MONIZ,-17.19511917692554,32.86041246238965
pt.ine.add.MAD.29094,CAM COXA,,9270-092,PORTO MONIZ,-17.195706792427604,32.86084402028842
pt.ine.add.MAD.29095,CAM COXA,45,9270-092,PORTO MONIZ,-17.196159583383313,32.86100740809671
pt.ine.add.MAD.29096,CAM COXA,,9270-092,PORTO MONIZ,-17.196754775781727,32.86131257808894
pt.ine.add.MAD.29097,CAM COXA,,9270-092,PORTO MONIZ,-17.196994632465092,32.86150675664463
pt.ine.add.MAD.29098,CAM COXA,,9270-092,PORTO MONIZ,-17.196991519899747,32.86138056168603
pt.ine.add.MAD.29099,CAM COXA,,9270-092,PORTO MONIZ,-17.196769022638936,32.86102375717667
pt.ine.add.MAD.29100,CAM POMBAIS,81,9270-042,PORTO MONIZ,-17.20078293115731,32.85785104945955
pt.ine.add.MAD.29101,CAM POMBAIS,,9270-042,PORTO MONIZ,-17.200450075896185,32.857784764008656
pt.ine.add.MAD.29102,CAM POMBAIS,63,9270-042,PORTO MONIZ,-17.199788822254444,32.858265324374734
pt.ine.add.MAD.29106,CAM CABEÇO CARRACHOTE,,9270-042,PORTO MONIZ,-17.193639227083697,32.858021650000474
pt.ine.add.MAD.29107,CAM CABEÇO CARRACHOTE,,9270-042,PORTO MONIZ,-17.193807885403267,32.85792851302269
pt.ine.add.MAD.29108,CAM VALINHO,,9270-042,PORTO MONIZ,-17.194391326279995,32.85689024267568
pt.ine.add.MAD.29109,CAM VALINHO,,9270-042,PORTO MONIZ,-17.196006602833783,32.85783581617041
pt.ine.add.MAD.29110,CAM LOMBO BRASIL,,9270-042,PORTO MONIZ,-17.195207224812997,32.85661440631294
pt.ine.add.MAD.29111,CAM LOMBO BRASIL,,9270-042,PORTO MONIZ,-17.196361729938882,32.85707208129107
pt.ine.add.MAD.29112,CAM LOMBO BRASIL,43,9270-042,PORTO MONIZ,-17.196679899722337,32.85697631465998
pt.ine.add.MAD.29113,CAM PEDRA MOLE,,9270-039,PORTO MONIZ,-17.175387123457593,32.86358888624087
pt.ine.add.MAD.29114,CAM PEDRA MOLE,,9270-152,PORTO MONIZ,-17.176301917078742,32.86341966484106
pt.ine.add.MAD.29115,CAM PEDRA MOLE,,9270-152,PORTO MONIZ,-17.176122107861538,32.86349493709503
pt.ine.add.MAD.29116,CAM FAZENDINHA,,9270-035,PORTO MONIZ,-17.170186112982528,32.85799798038626
pt.ine.add.MAD.29117,CAM FAZENDINHA,28,9270-035,PORTO MONIZ,-17.17177704241946,32.85926893979798
pt.ine.add.MAD.29118,CAM LADEIRA,,9270-052,PORTO MONIZ,-17.16892806570867,32.86074321218112
pt.ine.add.MAD.29119,CAM LADEIRA,,9270-052,PORTO MONIZ,-17.16486295173966,32.85702612691358
pt.ine.add.MAD.29120,CAM ASSOMADA,28,9270-035,PORTO MONIZ,-17.169611377737212,32.859405727532746
pt.ine.add.MAD.29121,CAM ASSOMADA,,9270-035,PORTO MONIZ,-17.169329234123147,32.860105000606765
pt.ine.add.MAD.29122,CAM ASSOMADA,41,9270-035,PORTO MONIZ,-17.172748719009732,32.8592430437057
pt.ine.add.MAD.29123,CAM ASSOMADA,,9270-035,PORTO MONIZ,-17.171962252932605,32.85897715054709
pt.ine.add.MAD.29124,CAM FAZENDINHA,3,9270-035,PORTO MONIZ,-17.17082142422606,32.85776150655351
pt.ine.add.MAD.29125,CAM CASTANHEIRO,,9270-035,PORTO MONIZ,-17.171126970625146,32.8575848623236
pt.ine.add.MAD.29126,CAM CASTANHEIRO,,9270-035,PORTO MONIZ,-17.173515575035857,32.856515331741114
pt.ine.add.MAD.29132,CAM JUNQUEIRA,5,9270-035,PORTO MONIZ,-17.174528237415682,32.85379235954177
pt.ine.add.MAD.29133,CAM CERCA NOVA,9,9270-035,PORTO MONIZ,-17.171731836419752,32.85215460060326
pt.ine.add.MAD.29134,CAM CERCA NOVA,5,9270-035,PORTO MONIZ,-17.17111872166338,32.85198488707482
pt.ine.add.MAD.29135,CAM CAPELA,,9270-035,PORTO MONIZ,-17.171753013435055,32.85346182910757
pt.ine.add.MAD.29136,CAM CAPELA,5,9270-035,PORTO MONIZ,-17.170056729636663,32.85356341602722
pt.ine.add.MAD.29137,ESTR ANTIGA ER 101,,9270-035,PORTO MONIZ,-17.154618411504845,32.854452570948176
pt.ine.add.MAD.29138,ESTR ANTIGA ER 101,,9270-035,PORTO MONIZ,-17.15445167716563,32.85462678424264
pt.ine.add.MAD.29139,SIT JUNQUEIRA,,9270-033,PORTO MONIZ,-17.17648776027259,32.85615703320862
pt.ine.add.MAD.29140,SIT JUNQUEIRA,,9270-033,PORTO MONIZ,-17.176140611671624,32.85637950356304
pt.ine.add.MAD.29141,CAM POÇO DA ACHADA,10,9270-033,PORTO MONIZ,-17.175986695763612,32.85532708845394
pt.ine.add.MAD.29142,CAM JUNQUEIRA,,9270-033,PORTO MONIZ,-17.17612178886223,32.85517143375769
pt.ine.add.MAD.29143,CAM JUNQUEIRA,,9270-033,PORTO MONIZ,-17.176817067936316,32.855204423447645
pt.ine.add.MAD.29144,CAM JUNQUEIRA,,9270-033,PORTO MONIZ,-17.17691340513627,32.85521176449993
pt.ine.add.MAD.29145,CAM JUNQUEIRA,,9270-033,PORTO MONIZ,-17.177637534662008,32.85555085558896
pt.ine.add.MAD.29146,ER ENG JORGE MANUEL JARDIM FERNANDES,,9270-124,SEIXAL PMZ,-17.109612709528665,32.825856971628994
pt.ine.add.MAD.29147,ER ENG JORGE MANUEL JARDIM FERNANDES,14 B,9270-124,SEIXAL PMZ,-17.109726740999633,32.82571075957796
pt.ine.add.MAD.29148,ER ENG JORGE MANUEL JARDIM FERNANDES,14 B,9270-124,SEIXAL PMZ,-17.109726740999633,32.82571075957796
pt.ine.add.MAD.29149,VR DESNATADEIRA,,9270-124,SEIXAL PMZ,-17.110145061759,32.8253339640027
pt.ine.add.MAD.29150,VR DESNATADEIRA,,9270-124,SEIXAL PMZ,-17.110351328532673,32.82547477476305
pt.ine.add.MAD.29151,VR DESNATADEIRA,,9270-124,SEIXAL PMZ,-17.11021467955136,32.825116355801086
pt.ine.add.MAD.29152,CAM CRUZ,12,9270-124,SEIXAL PMZ,-17.11020123077122,32.82499934744276
pt.ine.add.MAD.29154,CAM FARROBO,15,9270-124,SEIXAL PMZ,-17.110628931069883,32.82501918806885
pt.ine.add.MAD.29155,CAM FARROBO,,9270-124,SEIXAL PMZ,-17.11102608551382,32.82555357354746
pt.ine.add.MAD.29156,VR DESNATADEIRA,,9270-124,SEIXAL PMZ,-17.11070044433734,32.825784519254164
pt.ine.add.MAD.29157,VR DESNATADEIRA,,9270-124,SEIXAL PMZ,-17.110561221906806,32.82576883148853
pt.ine.add.MAD.29158,VR DESNATADEIRA,,9270-124,SEIXAL PMZ,-17.111231500686706,32.82565832482728
pt.ine.add.MAD.29159,CAM FARROBO,3,9270-124,SEIXAL PMZ,-17.111349369848615,32.82567437215935
pt.ine.add.MAD.29160,R JOÃO FERNANDES CORREIA,5,9270-126,SEIXAL PMZ,-17.106427519999006,32.82485551561
pt.ine.add.MAD.29161,R JOÃO FERNANDES CORREIA,7,9270-126,SEIXAL PMZ,-17.106392084621902,32.824711822544344
pt.ine.add.MAD.29162,R JOÃO FERNANDES CORREIA,P,9270-126,SEIXAL PMZ,-17.106151667727506,32.82448139885788
pt.ine.add.MAD.29163,CAM MUNICIPAL HENRIQUE RODRIGUES,17,9270-126,SEIXAL PMZ,-17.105986625701593,32.82427676040102
pt.ine.add.MAD.29876,CAM COXA,27,9270-092,PORTO MONIZ,-17.197338180058622,32.861572863113594
pt.ine.add.MAD.29877,CAM COXA,28,9270-092,PORTO MONIZ,-17.19767038063629,32.86161211455027
pt.ine.add.MAD.29878,CAM COXA,,9270-092,PORTO MONIZ,-17.197318827775188,32.861221507758316
pt.ine.add.MAD.29879,CAM COXA,,9270-092,PORTO MONIZ,-17.19705672148048,32.86099164939656
pt.ine.add.MAD.29880,CAM COXA,54,9270-092,PORTO MONIZ,-17.19625838467928,32.86068103088542
pt.ine.add.MAD.29881,CAM COXA,,9270-092,PORTO MONIZ,-17.195514786956714,32.86042355311841
pt.ine.add.MAD.29882,CAM RIBEIRO CHARCO,,9270-092,PORTO MONIZ,-17.19342219344049,32.8596216151295
pt.ine.add.MAD.29883,ER 101,,9270-092,PORTO MONIZ,-17.192169329552254,32.85907545932537
pt.ine.add.MAD.29884,ER 101,,9270-092,PORTO MONIZ,-17.192452365661712,32.858854069229515
pt.ine.add.MAD.29885,ER 101,,9270-092,PORTO MONIZ,-17.19240254686196,32.85856637154061
pt.ine.add.MAD.29886,ER 101,,9270-092,PORTO MONIZ,-17.193153722151482,32.858264629247714
pt.ine.add.MAD.29887,CAM CABEÇO CARRACHOTE,15,9270-092,PORTO MONIZ,-17.193732213035926,32.858326625593044
pt.ine.add.MAD.29888,CAM RIBEIRO CHARCO,19,9270-092,PORTO MONIZ,-17.193200408428925,32.858858988241124
pt.ine.add.MAD.29889,CAM LOMBO BRASIL,,9270-042,PORTO MONIZ,-17.197611030443838,32.85747397249823
pt.ine.add.MAD.29890,CAM LOMBO BRASIL,,9270-042,PORTO MONIZ,-17.197461513433296,32.85747659980873
pt.ine.add.MAD.29891,CAM CABEÇO CARRACHOTE,,9270-093,PORTO MONIZ,-17.19304700972239,32.856967930782794
pt.ine.add.MAD.29892,CAM LOMBO BRASIL,,9270-093,PORTO MONIZ,-17.19394171705393,32.85598732861963
pt.ine.add.MAD.29893,CAM LOMBO BRASIL,,9270-042,PORTO MONIZ,-17.196287429506185,32.85665856557416
pt.ine.add.MAD.29894,VR POCAS,1,9270-095,PORTO MONIZ,-17.17110054682937,32.8674599156346
pt.ine.add.MAD.29895,VR POCAS,2,9270-095,PORTO MONIZ,-17.17110054682937,32.8674599156346
pt.ine.add.MAD.29896,VR POCAS,3,9270-095,PORTO MONIZ,-17.17110054682937,32.8674599156346
pt.ine.add.MAD.29897,VR POCAS,4,9270-095,PORTO MONIZ,-17.17110054682937,32.8674599156346
pt.ine.add.MAD.29898,VR POCAS,5,9270-095,PORTO MONIZ,-17.17110054682937,32.8674599156346
pt.ine.add.MAD.29899,VR POCAS,7,9270-095,PORTO MONIZ,-17.17110054682937,32.8674599156346
pt.ine.add.MAD.29900,VR POCAS,8,9270-095,PORTO MONIZ,-17.17110054682937,32.8674599156346
pt.ine.add.MAD.29901,VR POCAS,9,9270-095,PORTO MONIZ,-17.17110054682937,32.8674599156346
pt.ine.add.MAD.29902,CAM CASTANHEIRO,32,9270-035,PORTO MONIZ,-17.173929009515383,32.85638189525752
pt.ine.add.MAD.29903,CAM CASTANHEIRO,,9270-035,PORTO MONIZ,-17.17418466533324,32.8563503973154
pt.ine.add.MAD.29904,CAM CASTANHEIRO,38,9270-035,PORTO MONIZ,-17.174580258578636,32.85636155517865
pt.ine.add.MAD.29905,CAM CASTANHEIRO,42,9270-035,PORTO MONIZ,-17.17501681062784,32.856299856319964
pt.ine.add.MAD.29906,CAM ASSOMADA,,9270-035,PORTO MONIZ,-17.169613638426014,32.85862113078547
pt.ine.add.MAD.29907,CAM ASSOMADA,,9270-035,PORTO MONIZ,-17.16980075314258,32.857968595410874
pt.ine.add.MAD.29908,CAM FAZENDINHA,,9270-035,PORTO MONIZ,-17.169820782603512,32.856597526452276
pt.ine.add.MAD.29909,CAM TRANCAS,,9270-035,PORTO MONIZ,-17.168343298921805,32.85691172500438
pt.ine.add.MAD.29910,CAM TRANCAS,,9270-035,PORTO MONIZ,-17.168007683203996,32.857170044968605
pt.ine.add.MAD.29911,CAM TRANCAS,,9270-035,PORTO MONIZ,-17.169095721845547,32.857097071043164
pt.ine.add.MAD.29912,CAM TRANCAS,,9270-035,PORTO MONIZ,-17.168964563510656,32.85741497253967
pt.ine.add.MAD.29915,SITIO LAMACEIROS,,9270-035,PORTO MONIZ,-17.16956703277578,32.857584880386874
pt.ine.add.MAD.29916,CAM ASSOMADA,,9270-035,PORTO MONIZ,-17.16881240948203,32.85862601067526
pt.ine.add.MAD.29917,ER 101,,9270-034,PORTO MONIZ,-17.179339881978123,32.85831674555426
pt.ine.add.MAD.29918,CAM CASTANHEIRO,,9270-035,PORTO MONIZ,-17.174735615129638,32.85616046009798
pt.ine.add.MAD.29919,CAM CASTANHEIRO,,9270-035,PORTO MONIZ,-17.1735477386344,32.856081913731465
pt.ine.add.MAD.29920,CAM POÇO DA ACHADA,,9270-033,PORTO MONIZ,-17.17510886416702,32.85569405653025
pt.ine.add.MAD.29921,CAM POÇO DA ACHADA,,9270-033,PORTO MONIZ,-17.174791992649283,32.85584385345582
pt.ine.add.MAD.29922,CAM JUNQUEIRA,,9270-033,PORTO MONIZ,-17.175365860422176,32.85396716892047
pt.ine.add.MAD.29923,CAM JUNQUEIRA,,9270-033,PORTO MONIZ,-17.175542675344595,32.85420757649053
pt.ine.add.MAD.29924,CAM JUNQUEIRA,,9270-033,PORTO MONIZ,-17.175667634118877,32.85451201113831
pt.ine.add.MAD.29925,CAM JUNQUEIRA,,9270-033,PORTO MONIZ,-17.176082484678997,32.85487452722163
pt.ine.add.MAD.29926,CAM JUNQUEIRA,,9270-033,PORTO MONIZ,-17.176727335207467,32.85459276873436
pt.ine.add.MAD.29927,CAM JUNQUEIRA,,9270-033,PORTO MONIZ,-17.17688400529904,32.85444575560621
pt.ine.add.MAD.29928,CAM JUNQUEIRA,45,9270-033,PORTO MONIZ,-17.177250748765694,32.85502553436925
pt.ine.add.MAD.29929,CAM JUNQUEIRA,,9270-033,PORTO MONIZ,-17.176256881495984,32.85501577893158
pt.ine.add.MAD.29930,SIT LAMACEIROS,,9270-035,PORTO MONIZ,-17.172460636691945,32.855316245132116
pt.ine.add.MAD.29931,CAM CASTANHEIRO,,9270-035,PORTO MONIZ,-17.171365594367703,32.85510079650145
pt.ine.add.MAD.29932,CAM JUNQUEIRA,,9270-033,PORTO MONIZ,-17.175446884179834,32.85466013743875
pt.ine.add.MAD.29933,SIT LAMACEIROS,15,9270-035,PORTO MONIZ,-17.167862555552,32.85164458031607
pt.ine.add.MAD.29934,SIT LAMACEIROS,17,9270-035,PORTO MONIZ,-17.167659868122087,32.851657111228135
pt.ine.add.MAD.29935,CAM MUNICIPAL HENRIQUE RODRIGUES,,9270-126,SEIXAL PMZ,-17.105503669991627,32.82372576551433
pt.ine.add.MAD.29936,CAM ÁLVARO GOUVEIA DA SILVA,11,9270-126,SEIXAL PMZ,-17.105910934888474,32.82288022851566
pt.ine.add.MAD.29938,VR MANUEL ÁLVARO DA SILVA,,9270-126,SEIXAL PMZ,-17.106284144861043,32.82330681588561
pt.ine.add.MAD.29939,VR MANUEL ÁLVARO DA SILVA,,9270-126,SEIXAL PMZ,-17.106484228063888,32.82318621249054
pt.ine.add.MAD.29940,VR MANUEL ÁLVARO DA SILVA,26,9270-126,SEIXAL PMZ,-17.10657712192338,32.82304937715201
pt.ine.add.MAD.29941,VR MANUEL ÁLVARO DA SILVA,26,9270-126,SEIXAL PMZ,-17.10657712192338,32.82304937715201
pt.ine.add.MAD.29942,ER ENG JORGE MANUEL JARDIM FERNANDES,24,9270-126,SEIXAL PMZ,-17.106711869132894,32.82287576471242
pt.ine.add.MAD.29943,ER ENG JORGE MANUEL JARDIM FERNANDES,28,9270-126,SEIXAL PMZ,-17.106644798620806,32.82320154551359
pt.ine.add.MAD.29944,ER ENG JORGE MANUEL JARDIM FERNANDES,30,9270-126,SEIXAL PMZ,-17.106551266120665,32.82331133735055
pt.ine.add.MAD.29945,ER ENG JORGE MANUEL JARDIM FERNANDES,,9270-126,SEIXAL PMZ,-17.10631291305086,32.82407287019602
pt.ine.add.MAD.29946,ER ENG JORGE MANUEL JARDIM FERNANDES,,9270-126,SEIXAL PMZ,-17.106315467250045,32.82418104440256
pt.ine.add.MAD.29947,R JOÃO FERNANDES CORREIA,8,9270-126,SEIXAL PMZ,-17.10574298235587,32.82436202371331
pt.ine.add.MAD.29948,R JOAO FERNANDES CORREIA,10,9270-126,SEIXAL PMZ,-17.105517074362133,32.82429368040324
pt.ine.add.MAD.29949,CAM HENRIQUE RODRIGUES,,9270-126,SEIXAL PMZ,-17.105517074362133,32.82429368040324
pt.ine.add.MAD.29950,ER ENG JORGE MANUEL JARDIM FERNANDES,54,9270-121,SEIXAL PMZ,-17.107155197353265,32.825366313264965
pt.ine.add.MAD.30692,CAM EIRINHA,,9270-013,ACHADAS DA CRUZ,-17.21163025872699,32.84159896819595
pt.ine.add.MAD.30693,CAM ACHADA,,9270-014,ACHADAS DA CRUZ,-17.20974871959568,32.84541970549772
pt.ine.add.MAD.30688,CAM VALE,,9270-011,ACHADAS DA CRUZ,-17.213546209566243,32.84562309413845
pt.ine.add.MAD.30689,CAM ACHADA ARRUDA,,9270-011,ACHADAS DA CRUZ,-17.21200014406256,32.84445107578969
pt.ine.add.MAD.30690,CAM ACHADA ARRUDA,,9270-011,ACHADAS DA CRUZ,-17.211398645710805,32.84302787839137
pt.ine.add.MAD.30691,CAM EIRINHA,,9270-013,ACHADAS DA CRUZ,-17.211346541878793,32.84265005114548
pt.ine.add.MAD.30694,CAM ACHADA,14,9270-014,ACHADAS DA CRUZ,-17.209069911970143,32.84475535913554
pt.ine.add.MAD.30695,CAM ACHADA DA ARRUDA,,9270-011,ACHADAS DA CRUZ,-17.211119453635256,32.842969689168505
pt.ine.add.MAD.30696,CAM ACHADA DA ARRUDA,,9270-011,ACHADAS DA CRUZ,-17.21250095884415,32.844829984276956
pt.ine.add.MAD.30697,CAM ACHADA DA ARRUDA,,9270-011,ACHADAS DA CRUZ,-17.211524996090212,32.84467590505665
pt.ine.add.MAD.30698,CAM VOLTA DO CARRO,,9270-093,PORTO MONIZ,-17.192119186977912,32.86311633248745
pt.ine.add.MAD.30699,CAM VOLTA DO CARRO,,9270-093,PORTO MONIZ,-17.192452118154456,32.86231692566275
pt.ine.add.MAD.30700,CAM IRMA MARY JANE WILSON,,9270-093,PORTO MONIZ,-17.19225524346809,32.8616981460878
pt.ine.add.MAD.30701,CAM IRMA MARY JANE WILSON,,9270-093,PORTO MONIZ,-17.192549159336878,32.86191843919709
pt.ine.add.MAD.30702,CAM IRMA MARY JANE WILSON,,9270-093,PORTO MONIZ,-17.192502918321384,32.861342108020295
pt.ine.add.MAD.30703,CAM RIBEIRO CHARCO,,9270-093,PORTO MONIZ,-17.193068669696363,32.85914986958157
pt.ine.add.MAD.30704,CAM IRMA MARY JANE WILSON,,9270-093,PORTO MONIZ,-17.19290727303953,32.86040618013508
pt.ine.add.MAD.30705,CAM PORTELA,,9270-093,PORTO MONIZ,-17.187360322275218,32.86338904053429
pt.ine.add.MAD.30706,CAM PORTELA,,9270-093,PORTO MONIZ,-17.186816777326747,32.86301077936711
pt.ine.add.MAD.30707,CAM PORTELA,,9270-093,PORTO MONIZ,-17.186659016891845,32.86137228826202
pt.ine.add.MAD.30708,CAM IRMA DO PERPETUO SOCORRO,,9270-093,PORTO MONIZ,-17.18739623623214,32.860935555853054
pt.ine.add.MAD.30709,VR POCAS,10,9270-095,PORTO MONIZ,-17.17110054682937,32.8674599156346
pt.ine.add.MAD.30710,R DR JOÃO FRANCA COSME,20,9270-052,PORTO MONIZ,-17.170966573273912,32.86678590006679
pt.ine.add.MAD.30711,R DR JOÃO FRANCA COSME,,9270-052,PORTO MONIZ,-17.171140327564256,32.86690011580959
pt.ine.add.MAD.30712,R DR JOÃO FRANCA COSME,,9270-052,PORTO MONIZ,-17.17210492438099,32.867018631832984
pt.ine.add.MAD.30713,R ESCOLA VELHA,27,9270-040,PORTO MONIZ,-17.172384612209022,32.86709493402873
pt.ine.add.MAD.30714,R ESCOLA VELHA,,9270-040,PORTO MONIZ,-17.172707684740853,32.867197535399704
pt.ine.add.MAD.30715,R ESCOLA VELHA,,9270-040,PORTO MONIZ,-17.17340119972274,32.86671655309236
pt.ine.add.MAD.30716,R ESCOLA VELHA,,9270-040,PORTO MONIZ,-17.173716351298264,32.866494645751295
pt.ine.add.MAD.30717,R ESCOLA VELHA,,9270-040,PORTO MONIZ,-17.17379959937129,32.86640301972665
pt.ine.add.MAD.30718,R ESCOLA VELHA,3,9270-040,PORTO MONIZ,-17.17396785531045,32.86629187998781
pt.ine.add.MAD.30719,R DR JOÃO FRANCA COSME,,9270-052,PORTO MONIZ,-17.17180981008736,32.86718607989097
pt.ine.add.MAD.30720,R TEN CORONEL,,9270-095,PORTO MONIZ,-17.17070415990913,32.86697983146586
pt.ine.add.MAD.30721,R CABO CALHAU,,9270-040,PORTO MONIZ,-17.174615203034023,32.86698401839788
pt.ine.add.MAD.30722,R CABO CALHAU,17,9270-040,PORTO MONIZ,-17.17479347964239,32.86684564964228
pt.ine.add.MAD.30723,R CABO CALHAU,23,9270-040,PORTO MONIZ,-17.175163354164013,32.866676894225385
pt.ine.add.MAD.30724,R TEN CORONEL,,9270-095,PORTO MONIZ,-17.170413876006673,32.867345586021
pt.ine.add.MAD.30725,ER 101,,9270-034,PORTO MONIZ,-17.1802984358132,32.858191823049886
pt.ine.add.MAD.30726,CAM CABEÇO,,9270-034,PORTO MONIZ,-17.180126140813247,32.85857357760728
pt.ine.add.MAD.30727,CAM CABEÇO,,9270-034,PORTO MONIZ,-17.180308142750473,32.858588440400794
pt.ine.add.MAD.30728,CAM CABEÇO,,9270-034,PORTO MONIZ,-17.180677001116333,32.858816473800964
pt.ine.add.MAD.30729,CAM CABEÇO,,9270-034,PORTO MONIZ,-17.181061704182486,32.85881878285955
pt.ine.add.MAD.30730,CAM CABEÇO,,9270-034,PORTO MONIZ,-17.18117049116384,32.85889804638202
pt.ine.add.MAD.30731,CAM CABEÇO,,9270-034,PORTO MONIZ,-17.180904151316085,32.858929745056976
pt.ine.add.MAD.30732,CAM CABEÇO,,9270-034,PORTO MONIZ,-17.180948503795893,32.85855923870459
pt.ine.add.MAD.30733,ER 101,128,9270-091,PORTO MONIZ,-17.185512407986636,32.858623848961564
pt.ine.add.MAD.30734,ER 101,J26,9270-091,PORTO MONIZ,-17.185372019959818,32.858563177263434
pt.ine.add.MAD.30735,ER 101,918,9270-091,PORTO MONIZ,-17.184920143505884,32.858435804970796
pt.ine.add.MAD.30736,ER 101,102,9270-091,PORTO MONIZ,-17.183757718397963,32.85765351828489
pt.ine.add.MAD.30741,ESTR ANTIGA ER101,,9270-035,PORTO MONIZ,-17.175361046139063,32.861208618455976
pt.ine.add.MAD.30742,CAM PICO ALTO,,9270-041,PORTO MONIZ,-17.193670197088668,32.85016656031473
pt.ine.add.MAD.30743,ER 209,19,9270-106,RIBEIRA DA JANELA,-17.15512143777009,32.853163355822026
pt.ine.add.MAD.30744,CAM C 1,2,9270-106,RIBEIRA DA JANELA,-17.154128452551422,32.854073239130706
pt.ine.add.MAD.30745,SIT PONTE,,9270-106,RIBEIRA DA JANELA,-17.154223262102747,32.85401749844995
pt.ine.add.MAD.30746,ER 209,116,9270-102,RIBEIRA DA JANELA,-17.158516980158048,32.85043549006448
pt.ine.add.MAD.30747,ER 209,130,9270-102,RIBEIRA DA JANELA,-17.15918511640533,32.84890894383763
pt.ine.add.MAD.30748,CAM CASAIS DE BAIXO,30,9270-102,RIBEIRA DA JANELA,-17.15786313025923,32.84990569580028
pt.ine.add.MAD.30749,VR MERTORIO,2,9270-103,RIBEIRA DA JANELA,-17.158219454186018,32.84961999164428
pt.ine.add.MAD.30750,CAM PADRE JOÃO DE SOUSA,2,9270-102,RIBEIRA DA JANELA,-17.157942871868105,32.84922797431287
pt.ine.add.MAD.30751,SIT SITIO DOS CASAIS DE BAIXO,,9270-103,RIBEIRA DA JANELA,-17.15845675869804,32.8488313357171
pt.ine.add.MAD.30752,VR CASA VELHA,8,9270-103,RIBEIRA DA JANELA,-17.158380495749164,32.84921140534363
pt.ine.add.MAD.30753,CAM CASAIS DE BAIXO,39,9270-102,RIBEIRA DA JANELA,-17.157917819350168,32.849516980724694
pt.ine.add.MAD.30754,CAM CASAIS DE BAIXO,41,9270-102,RIBEIRA DA JANELA,-17.15790495750956,32.849427023193414
pt.ine.add.MAD.30755,CAM CASAIS DE BAIXO,,9270-102,RIBEIRA DA JANELA,-17.157723849232838,32.84944818353919
pt.ine.add.MAD.30756,CAM CASAIS DE BAIXO,,9270-102,RIBEIRA DA JANELA,-17.15760397838236,32.84935105400819
pt.ine.add.MAD.30757,VR CORREIOS,,9270-121,SEIXAL PMZ,-17.108962967817774,32.82502924196734
pt.ine.add.MAD.30758,VR CORREIOS,,9270-121,SEIXAL PMZ,-17.108841242917048,32.825301836303446
pt.ine.add.MAD.30759,ER ENG JORGE MANUEL JARDIM FERNANDES,14,9270-121,SEIXAL PMZ,-17.108356749470254,32.82513865704105
pt.ine.add.MAD.30760,R JOÃO DE AZEVEDO,,9270-121,SEIXAL PMZ,-17.10772515592991,32.82462624804099
pt.ine.add.MAD.30761,R JOÃO DE AZEVEDO,,9270-121,SEIXAL PMZ,-17.10812681458995,32.82444813784905
pt.ine.add.MAD.30762,R JOÃO DE AZEVEDO,24,9270-121,SEIXAL PMZ,-17.110045789056887,32.824749462251155
pt.ine.add.MAD.30763,R JOÃO DE AZEVEDO,26,9270-121,SEIXAL PMZ,-17.110204870060606,32.824701689102575
pt.ine.add.MAD.30764,CAM CRUZ,,9270-121,SEIXAL PMZ,-17.109985781454824,32.82492181786823
pt.ine.add.MAD.30765,CAM CRUZ,15,9270-121,SEIXAL PMZ,-17.109878589971135,32.82490558917421
pt.ine.add.MAD.30766,CAM CRUZ,9,9270-121,SEIXAL PMZ,-17.109321687928848,32.82529373815237
pt.ine.add.MAD.30767,CAM CRUZ,,9270-121,SEIXAL PMZ,-17.108122316171436,32.82470973839817
pt.ine.add.MAD.30768,CAM COVA,,9270-121,SEIXAL PMZ,-17.10833968106866,32.82486840181204
pt.ine.add.MAD.30769,CAM COVA,,9270-121,SEIXAL PMZ,-17.10856838485224,32.82460302333983
pt.ine.add.MAD.30770,CAM JOÃO DE AZEVEDO,3,9270-121,SEIXAL PMZ,-17.108025187796894,32.82421537949167
pt.ine.add.MAD.30771,CAM JOÃO DE AZEVEDO,,9270-121,SEIXAL PMZ,-17.10876507951386,32.823887279204314
pt.ine.add.MAD.30772,CAM MOINHOS,,9270-124,SEIXAL PMZ,-17.109849150894632,32.82411249354506
pt.ine.add.MAD.30773,CAM MOINHOS,,9270-124,SEIXAL PMZ,-17.109875620755957,32.824328481419464
pt.ine.add.MAD.30774,CAM FARROBO,2,9270-123,SEIXAL PMZ,-17.111561194395996,32.82559865301794
pt.ine.add.MAD.31517,CAM TELEFERICO,,9270-013,ACHADAS DA CRUZ,-17.21117256160684,32.844249280534555
pt.ine.add.MAD.31518,ER 101,,9270-014,ACHADAS DA CRUZ,-17.202792403426617,32.84318874931596
pt.ine.add.MAD.31519,ER 101,,9270-014,ACHADAS DA CRUZ,-17.202795730498178,32.842891102015024
pt.ine.add.MAD.31520,ER 101,8,9270-014,ACHADAS DA CRUZ,-17.204011704977976,32.84324843185711
pt.ine.add.MAD.31521,BC LOMBO DA RELVA,,9270-014,ACHADAS DA CRUZ,-17.205129922929196,32.84181292396338
pt.ine.add.MAD.31522,BC LOMBO DA RELVA,,9270-014,ACHADAS DA CRUZ,-17.204859433207947,32.84210626273089
pt.ine.add.MAD.31523,BC LOMBO DA RELVA,16,9270-014,ACHADAS DA CRUZ,-17.204963338129165,32.84242005545552
pt.ine.add.MAD.31524,BC LOMBO DA RELVA,,9270-014,ACHADAS DA CRUZ,-17.205084165407055,32.8429860491079
pt.ine.add.MAD.31525,BC LOMBO DA RELVA,,9270-014,ACHADAS DA CRUZ,-17.205523301378054,32.84303241406975
pt.ine.add.MAD.31526,BC LOMBO DA RELVA,,9270-014,ACHADAS DA CRUZ,-17.2053291168941,32.84338753325835
pt.ine.add.MAD.31527,BC LOMBO DA RELVA,,9270-014,ACHADAS DA CRUZ,-17.205913479724416,32.84282714156021
pt.ine.add.MAD.31528,BC LOMBO DA RELVA,15,9270-014,ACHADAS DA CRUZ,-17.20507633573451,32.84223770686701
pt.ine.add.MAD.31529,BC LOMBO DA RELVA,,9270-014,ACHADAS DA CRUZ,-17.205201125733083,32.842100239469055
pt.ine.add.MAD.31530,CAM LAMEIROS,5,9270-014,ACHADAS DA CRUZ,-17.205311446465686,32.84180972385446
pt.ine.add.MAD.31531,CAM LAMEIROS,,9270-014,ACHADAS DA CRUZ,-17.206134756363447,32.84184029544208
pt.ine.add.MAD.31532,CAM LAMEIROS,,9270-014,ACHADAS DA CRUZ,-17.207044828353062,32.841923437789404
pt.ine.add.MAD.31533,ESTR ANTIGA ER 101,,9270-014,ACHADAS DA CRUZ,-17.205237121743224,32.84139621374293
pt.ine.add.MAD.31534,CAM IRMA DO PERPETUO SOCORRO,,9270-093,PORTO MONIZ,-17.188338586727166,32.8605854083247
pt.ine.add.MAD.31535,CAM IRMA DO PERPETUO SOCORRO,20,9270-093,PORTO MONIZ,-17.188848357985087,32.86045925459817
pt.ine.add.MAD.31536,CAM VOLTA DO CARRO,,9270-093,PORTO MONIZ,-17.190240870539135,32.86190478268254
pt.ine.add.MAD.31537,CAM VOLTA DO CARRO,,9270-093,PORTO MONIZ,-17.191246046651347,32.86323984986308
pt.ine.add.MAD.31538,CAM VOLTA DO CARRO,23,9270-093,PORTO MONIZ,-17.191467162894362,32.86397543810358
pt.ine.add.MAD.31539,CAM PORTELA,,9270-093,PORTO MONIZ,-17.186424492091952,32.8613944246557
pt.ine.add.MAD.31540,CAM VOLTA DO CARRO,,9270-093,PORTO MONIZ,-17.19109371053052,32.86225957411532
pt.ine.add.MAD.31541,CAM VOLTA DO CARRO,,9270-093,PORTO MONIZ,-17.190342395413026,32.86125371939486
pt.ine.add.MAD.31542,CAM VOLTA DO CARRO,8,9270-093,PORTO MONIZ,-17.190671972070227,32.86075196464504
pt.ine.add.MAD.31543,SIT SANTA,,9270-093,PORTO MONIZ,-17.18961112861388,32.86019340145766
pt.ine.add.MAD.31544,ER 101,,9270-093,PORTO MONIZ,-17.19101691926878,32.860006457882946
pt.ine.add.MAD.31545,ER 101,,9270-093,PORTO MONIZ,-17.191220728764844,32.8600389582644
pt.ine.add.MAD.31546,ER 101,,9270-093,PORTO MONIZ,-17.191192901180273,32.86021078496638
pt.ine.add.MAD.31547,R SERRADO,,9270-095,PORTO MONIZ,-17.16770086728339,32.866076034755125
pt.ine.add.MAD.31548,R SERRADO,,9270-095,PORTO MONIZ,-17.16768082162489,32.866130489646906
pt.ine.add.MAD.31549,R FIGUEIRAL,6,9270-150,PORTO MONIZ,-17.167231914265855,32.8670039891312
pt.ine.add.MAD.31550,R FIGUEIRAL,12,9270-150,PORTO MONIZ,-17.166242514139704,32.8671834557251
pt.ine.add.MAD.31551,BC FIGUEIRAL,8,9270-150,PORTO MONIZ,-17.16640097748641,32.86710856717989
pt.ine.add.MAD.31552,SIT FIGUEIRAL,6,9270-150,PORTO MONIZ,-17.16648533034819,32.867062016203775
pt.ine.add.MAD.31553,BC FIGUEIRAL,N 6,9270-150,PORTO MONIZ,-17.16648533034819,32.867062016203775
pt.ine.add.MAD.31554,BC FIGUEIRAL,,9270-150,PORTO MONIZ,-17.166559440558398,32.86703367844404
pt.ine.add.MAD.31555,BC FIGUEIRAL,,9270-150,PORTO MONIZ,-17.16670744152197,32.86696798869844
pt.ine.add.MAD.31556,BC PASSAL,8,9270-095,PORTO MONIZ,-17.166703055359527,32.86678770669985
pt.ine.add.MAD.31557,BC PASSAL,5,9270-095,PORTO MONIZ,-17.16685932437892,32.866622676618704
pt.ine.add.MAD.31558,BC FIGUEIRAL,,9270-150,PORTO MONIZ,-17.16685581524632,32.86647845102685
pt.ine.add.MAD.31559,BC ILHEU MOLE ALOJAMENTOS RODRIGUES,2,9270-150,PORTO MONIZ,-17.16680576500595,32.867056463926225
pt.ine.add.MAD.31560,R ESCOLA VELHA,,9270-151,PORTO MONIZ,-17.171894289072867,32.86670666455203
pt.ine.add.MAD.31561,R LUGAR DA BICA,14,9270-151,PORTO MONIZ,-17.17254784586578,32.86590173705178
pt.ine.add.MAD.31562,R LUGAR DA BICA,,9270-151,PORTO MONIZ,-17.173427425124974,32.86603975595165
pt.ine.add.MAD.31563,ER 101,82,9270-091,PORTO MONIZ,-17.181443707944734,32.85783818953363
pt.ine.add.MAD.31564,ER 101,,9270-091,PORTO MONIZ,-17.18089055734365,32.85793801582982
pt.ine.add.MAD.31565,SIT COVA FAZENDINHA,134,9270-035,PORTO MONIZ,-17.171579654191962,32.86081442784146
pt.ine.add.MAD.31566,ER 101,,9270-035,PORTO MONIZ,-17.174599099567065,32.861510442977924
pt.ine.add.MAD.31567,SIT COVA PORTO MONIZ,7,9270-036,PORTO MONIZ,-17.171913383082376,32.86091684688479
pt.ine.add.MAD.31568,ER 101,,9270-035,PORTO MONIZ,-17.1757106368041,32.86108530415604
pt.ine.add.MAD.31569,ER 101,,9270-035,PORTO MONIZ,-17.174643053885863,32.86024717432511
pt.ine.add.MAD.31570,ESTR ANTIGA ER 101,,9270-091,PORTO MONIZ,-17.185408990611815,32.85832806673037
pt.ine.add.MAD.31571,ESTR ANTIGA ER 101,123,9270-091,PORTO MONIZ,-17.184890161579588,32.85808463202746
pt.ine.add.MAD.31572,ESTR ANTIGA ER 101,,9270-091,PORTO MONIZ,-17.184738652748415,32.858006118138846
pt.ine.add.MAD.31573,ESTR ANTIGA ER 101,,9270-091,PORTO MONIZ,-17.184483730776567,32.85763182086401
pt.ine.add.MAD.31574,ESTR ANTIGA ER 101,,9270-091,PORTO MONIZ,-17.18436536781967,32.85759781684804
pt.ine.add.MAD.31575,ESTR ANTIGA ER 101,111,9270-091,PORTO MONIZ,-17.183850523086747,32.857516629681705
pt.ine.add.MAD.31576,,,9270-091,PORTO MONIZ,-17.183819956971057,32.856705555158136
pt.ine.add.MAD.31577,,,9270-091,PORTO MONIZ,-17.183434379809142,32.85666719815077
pt.ine.add.MAD.31578,ESTR ANTIGA ER 101,,9270-091,PORTO MONIZ,-17.183510830269217,32.85717086415059
pt.ine.add.MAD.31579,CAM CASAIS DE BAIXO,55,9270-102,RIBEIRA DA JANELA,-17.157644497497905,32.848818296321994
pt.ine.add.MAD.31580,ER 209,151,9270-102,RIBEIRA DA JANELA,-17.159554708109745,32.84828934319828
pt.ine.add.MAD.31602,R JOÃO DE AZEVEDO,50,9270-123,SEIXAL PMZ,-17.111762348049886,32.82507220934051
pt.ine.add.MAD.31581,CAM PADRE JOÃO DE SOUSA,27,9270-102,RIBEIRA DA JANELA,-17.15938384479733,32.84829229312195
pt.ine.add.MAD.31582,ER 209,187,9270-102,RIBEIRA DA JANELA,-17.157910802483684,32.848344769076974
pt.ine.add.MAD.31583,ER 209,181,9270-102,RIBEIRA DA JANELA,-17.158231608266256,32.84835726989659
pt.ine.add.MAD.31584,ER 209,179,9270-102,RIBEIRA DA JANELA,-17.15865636541033,32.84825074264911
pt.ine.add.MAD.31585,VR FONTE VELHA,1,9270-102,RIBEIRA DA JANELA,-17.158021521178952,32.84850518186598
pt.ine.add.MAD.31586,VR FONTE VELHA,3,9270-102,RIBEIRA DA JANELA,-17.158075570987403,32.848531303149414
pt.ine.add.MAD.31587,SIT CASAIS DE BAIXO,,9270-102,RIBEIRA DA JANELA,-17.157893825759697,32.84896730012016
pt.ine.add.MAD.31588,CAM RIBEIRINHO,3,9270-102,RIBEIRA DA JANELA,-17.15759674755493,32.84816982796077
pt.ine.add.MAD.31589,ER 209,204,9270-102,RIBEIRA DA JANELA,-17.157369652769987,32.848056511792585
pt.ine.add.MAD.31590,SIT CASAIS,,9270-101,RIBEIRA DA JANELA,-17.157341966996402,32.84779546886251
pt.ine.add.MAD.31591,CAM RIBEIRINHO,19,9270-101,RIBEIRA DA JANELA,-17.157934311177538,32.8475507843286
pt.ine.add.MAD.31592,CAM RIBEIRINHO,21,9270-101,RIBEIRA DA JANELA,-17.15824247060162,32.847482341866076
pt.ine.add.MAD.31593,VR LOMBINHO,14,9270-101,RIBEIRA DA JANELA,-17.15694901780354,32.84745054573105
pt.ine.add.MAD.31594,VR LOMBINHO,12,9270-101,RIBEIRA DA JANELA,-17.15676856763325,32.84749874710205
pt.ine.add.MAD.31595,VR LOMBINHO,10,9270-101,RIBEIRA DA JANELA,-17.156774883690165,32.847318279222556
pt.ine.add.MAD.31596,CAM FARROBO,,9270-123,SEIXAL PMZ,-17.111284251947545,32.82517947616608
pt.ine.add.MAD.31597,R JOÃO DE AZEVEDO,30,9270-123,SEIXAL PMZ,-17.110436553467572,32.82456251035422
pt.ine.add.MAD.31598,CAM FARROBO,22,9270-123,SEIXAL PMZ,-17.110341744899873,32.824618217914505
pt.ine.add.MAD.31599,R JOÃO DE AZEVEDO,,9270-123,SEIXAL PMZ,-17.110518979243086,32.824434866866476
pt.ine.add.MAD.31600,R JOÃO DE AZEVEDO,34,9270-123,SEIXAL PMZ,-17.11074147812325,32.824358969113156
pt.ine.add.MAD.31601,R JOÃO DE AZEVEDO,,9270-123,SEIXAL PMZ,-17.111339358169953,32.824348882313956
pt.ine.add.MAD.31603,ER ENG JORGE MANUEL JARDIM FERNANDES,,9270-125,SEIXAL PMZ,-17.1069852844292,32.82450343714471
pt.ine.add.MAD.31604,ESTR LOMBINHO,,9270-125,SEIXAL PMZ,-17.10726463461326,32.823669067975736
pt.ine.add.MAD.31605,ESTR LOMBINHO,,9270-125,SEIXAL PMZ,-17.107414103832603,32.82366655074144
pt.ine.add.MAD.31606,CAM ABEL PEREIRA DO VALE,,9270-125,SEIXAL PMZ,-17.1072789602479,32.82337122947049
pt.ine.add.MAD.31607,SIT PORTADA,,9270-127,SEIXAL PMZ,-17.10707227725521,32.823212384175726
pt.ine.add.MAD.31608,ESTR ENG JORGE MANUEL JARDIM FERNANDES,9,9270-127,SEIXAL PMZ,-17.106954017139792,32.822727398088
pt.ine.add.MAD.31609,VR CORONAL ABEL PEREIRA DO VALE,,9270-125,SEIXAL PMZ,-17.106925363618135,32.82332307515005
pt.ine.add.MAD.32346,ESTR ANTIGA ER 101,,9270-014,ACHADAS DA CRUZ,-17.20621744128452,32.84086491115702
pt.ine.add.MAD.32347,SIT PINHEIRO,,9270-014,ACHADAS DA CRUZ,-17.205598551342185,32.840461004477284
pt.ine.add.MAD.32348,ESTR ANTIGA ER 101,19,9270-014,ACHADAS DA CRUZ,-17.20635312847112,32.84073626831482
pt.ine.add.MAD.32349,ESTR ANTIGA ER 101,,9270-014,ACHADAS DA CRUZ,-17.206434757448257,32.84058152535207
pt.ine.add.MAD.32350,CAM LAMEIROS,5,9270-014,ACHADAS DA CRUZ,-17.20589560547927,32.841673174159006
pt.ine.add.MAD.32351,ESTR ANTIGA ER 101,,9270-014,ACHADAS DA CRUZ,-17.206215240752186,32.8412076276442
pt.ine.add.MAD.32352,ESTR ANTIGA ER 101,,9270-014,ACHADAS DA CRUZ,-17.206314464080766,32.8413321272698
pt.ine.add.MAD.32353,CAM CABEÇOS,8,9270-012,ACHADAS DA CRUZ,-17.21364717232008,32.84108534791917
pt.ine.add.MAD.32354,CAM CABEÇOS,,9270-013,ACHADAS DA CRUZ,-17.216025989895865,32.841809742503
pt.ine.add.MAD.32355,CAM CABEÇOS,,9270-013,ACHADAS DA CRUZ,-17.21366091728688,32.84077849897274
pt.ine.add.MAD.32356,CAM EIRINHA,44,9270-012,ACHADAS DA CRUZ,-17.21236841094292,32.84035047409799
pt.ine.add.MAD.32357,CAM EIRINHA,,9270-012,ACHADAS DA CRUZ,-17.211792208984622,32.83994584370636
pt.ine.add.MAD.32358,CAM EIRINHA,,9270-012,ACHADAS DA CRUZ,-17.210716454825118,32.84007307362713
pt.ine.add.MAD.32359,CAM EIRINHA,,9270-012,ACHADAS DA CRUZ,-17.21272524737908,32.84052451895232
pt.ine.add.MAD.32360,CAM IRMA MARY JANE WILSON,,9270-093,PORTO MONIZ,-17.19215988266536,32.86042830178653
pt.ine.add.MAD.32361,CAM IRMA MARY JANE WILSON,,9270-093,PORTO MONIZ,-17.192186123323967,32.8606262343754
pt.ine.add.MAD.32362,CAM IRMA MARY JANE WILSON,,9270-093,PORTO MONIZ,-17.19231114832539,32.86093064932127
pt.ine.add.MAD.32363,R MARY WILSON,S N,9270-093,PORTO MONIZ,-17.192033174777425,32.86179221738435
pt.ine.add.MAD.32364,CAM IRMA MARY JANE WILSON,,9270-093,PORTO MONIZ,-17.191638445585408,32.8618171717055
pt.ine.add.MAD.32365,CAM IRMA MARY JANE WILSON,,9270-093,PORTO MONIZ,-17.19150093168307,32.86187368876284
pt.ine.add.MAD.32366,CAM IRMA MARY JANE WILSON,,9270-093,PORTO MONIZ,-17.191514086737804,32.86153979795815
pt.ine.add.MAD.32367,CAM PICO,,9270-093,PORTO MONIZ,-17.185903430151,32.86106085521587
pt.ine.add.MAD.32368,CAM ALICE ANDRADE CANHA,7,9270-093,PORTO MONIZ,-17.186691839410496,32.86053305353977
pt.ine.add.MAD.32369,CAM ALICE ANDRADE CANHA,,9270-093,PORTO MONIZ,-17.18684230607682,32.86013363662167
pt.ine.add.MAD.32370,CAM ALICE ANDRADE CANHA,18,9270-093,PORTO MONIZ,-17.1868254298919,32.85988143169207
pt.ine.add.MAD.32371,CAM IRMA DO PERPETUO SOCORRO,,9270-093,PORTO MONIZ,-17.18932010554664,32.860090282499364
pt.ine.add.MAD.32372,CAM IRMA DO PERPETUO SOCORRO,,9270-093,PORTO MONIZ,-17.18857803080401,32.860328718105094
pt.ine.add.MAD.32373,CAM IRMA DO PERPETUO SOCORRO,15,9270-093,PORTO MONIZ,-17.18827051952554,32.86042427804759
pt.ine.add.MAD.32374,CAM IRMA DO PERPETUO SOCORRO,15,9270-093,PORTO MONIZ,-17.18827051952554,32.86042427804759
pt.ine.add.MAD.32375,R LUGAR DA BICA,,9270-151,PORTO MONIZ,-17.173427425124974,32.86603975595165
pt.ine.add.MAD.32376,R LUGAR DA BICA,,9270-151,PORTO MONIZ,-17.173427425124974,32.86603975595165
pt.ine.add.MAD.32377,R LUGAR DA BICA,,9270-151,PORTO MONIZ,-17.173427425124974,32.86603975595165
pt.ine.add.MAD.32378,R LUGAR DA BICA,,9270-151,PORTO MONIZ,-17.173427425124974,32.86603975595165
pt.ine.add.MAD.32379,R LUGAR DA BICA,,9270-151,PORTO MONIZ,-17.173427425124974,32.86603975595165
pt.ine.add.MAD.32380,R LUGAR DA BICA,,9270-151,PORTO MONIZ,-17.173427425124974,32.86603975595165
pt.ine.add.MAD.32381,R LUGAR DA BICA,,9270-151,PORTO MONIZ,-17.173427425124974,32.86603975595165
pt.ine.add.MAD.32382,R LUGAR DA BICA,,9270-151,PORTO MONIZ,-17.173427425124974,32.86603975595165
pt.ine.add.MAD.32383,R LUGAR DA BICA,,9270-151,PORTO MONIZ,-17.173427425124974,32.86603975595165
pt.ine.add.MAD.32384,R LUGAR DA BICA,,9270-151,PORTO MONIZ,-17.173427425124974,32.86603975595165
pt.ine.add.MAD.32385,R LUGAR DA BICA,,9270-151,PORTO MONIZ,-17.173427425124974,32.86603975595165
pt.ine.add.MAD.32386,R LUGAR DA BICA,,9270-151,PORTO MONIZ,-17.173427425124974,32.86603975595165
pt.ine.add.MAD.32387,R LUGAR DA BICA,,9270-151,PORTO MONIZ,-17.173427425124974,32.86603975595165
pt.ine.add.MAD.32388,R LUGAR DA BICA,,9270-151,PORTO MONIZ,-17.173427425124974,32.86603975595165
pt.ine.add.MAD.32389,CAM JUNQUEIRA,,9270-091,PORTO MONIZ,-17.18267793972004,32.852829769622595
pt.ine.add.MAD.32390,CAM JUNQUEIRA,,9270-091,PORTO MONIZ,-17.18296274842084,32.852680512840614
pt.ine.add.MAD.32391,CAM CRUZ,137,9270-041,PORTO MONIZ,-17.18303013691902,32.85281460477853
pt.ine.add.MAD.32392,CAM CRUZ,4,9270-091,PORTO MONIZ,-17.18262534537951,32.8532996171188
pt.ine.add.MAD.32393,CAM CRUZ,127,9270-091,PORTO MONIZ,-17.18325159691001,32.85356824067191
pt.ine.add.MAD.32394,CAM CRUZ,115,9270-091,PORTO MONIZ,-17.183751024230887,32.85389318272309
pt.ine.add.MAD.32395,CAM CRUZ,,9270-091,PORTO MONIZ,-17.184234178593922,32.85442581793515
pt.ine.add.MAD.32396,CAM CRUZ,,9270-091,PORTO MONIZ,-17.185795652511835,32.85710389750239
pt.ine.add.MAD.32397,CAM CRUZ,,9270-091,PORTO MONIZ,-17.18604094132923,32.85795630718066
pt.ine.add.MAD.32398,ESTR ANTIGA ER 101,,9270-091,PORTO MONIZ,-17.182074789909617,32.85743039337069
pt.ine.add.MAD.32399,ESTR ANTIGA ER 101,,9270-091,PORTO MONIZ,-17.181575483690946,32.85754731887526
pt.ine.add.MAD.32400,ESTR ANTIGA ER 101,,9270-091,PORTO MONIZ,-17.181182975315515,32.85766237978272
pt.ine.add.MAD.32401,CAM BATALHAO,,9270-091,PORTO MONIZ,-17.180941396828864,32.85739605666207
pt.ine.add.MAD.32402,CAM BATALHAO,,9270-091,PORTO MONIZ,-17.180991970255025,32.85597035007827
pt.ine.add.MAD.32403,VR LOMBINHO,8,9270-101,RIBEIRA DA JANELA,-17.15667790142903,32.84728387965344
pt.ine.add.MAD.32404,VR LOMBINHO,3,9270-101,RIBEIRA DA JANELA,-17.15643773204499,32.84707158968019
pt.ine.add.MAD.32405,CAM VOLTINHA,21,9270-101,RIBEIRA DA JANELA,-17.15653622347509,32.84628532997044
pt.ine.add.MAD.32406,CAM VOLTINHA,19,9270-101,RIBEIRA DA JANELA,-17.15677268259762,32.846344378651374
pt.ine.add.MAD.32407,CAM VOLTINHA,13,9270-101,RIBEIRA DA JANELA,-17.157254098652746,32.846372148601546
pt.ine.add.MAD.32408,CAM VOLTINHA,5,9270-101,RIBEIRA DA JANELA,-17.15781550381925,32.84661496754783
pt.ine.add.MAD.32409,CAM VOLTINHA,3,9270-101,RIBEIRA DA JANELA,-17.15755420815044,32.84685394155506
pt.ine.add.MAD.32410,CAM VOLTINHA,1,9270-101,RIBEIRA DA JANELA,-17.158011868565094,32.84678292086211
pt.ine.add.MAD.32411,VR FAJA DAS CELAS,11,9270-101,RIBEIRA DA JANELA,-17.160289589328972,32.84819549149712
pt.ine.add.MAD.32412,VR FAJA DAS CELAS,14,9270-101,RIBEIRA DA JANELA,-17.16017299494992,32.84823357694258
pt.ine.add.MAD.32413,VR FAJA DAS CELAS,16,9270-102,RIBEIRA DA JANELA,-17.159759792764323,32.848375981542134
pt.ine.add.MAD.32414,ER 209,140,9270-102,RIBEIRA DA JANELA,-17.15961159785849,32.8484326480023
pt.ine.add.MAD.32415,ER 209,138,9270-102,RIBEIRA DA JANELA,-17.1594729896235,32.84844405907503
pt.ine.add.MAD.32416,CAM RIBEIRINHO,2,9270-102,RIBEIRA DA JANELA,-17.157822751631578,32.848238072791936
pt.ine.add.MAD.32417,CAM RIBEIRINHO,26,9270-102,RIBEIRA DA JANELA,-17.158374109879773,32.84762435750157
pt.ine.add.MAD.32418,VR FERRADURO,4,9270-101,RIBEIRA DA JANELA,-17.159142967561813,32.8471692086315
pt.ine.add.MAD.32419,VR BURACO DO CANDEEIRO,3,9270-103,RIBEIRA DA JANELA,-17.16030622157665,32.845796432085
pt.ine.add.MAD.32420,VR CORONAL ABEL PEREIRA DO VALE,,9270-125,SEIXAL PMZ,-17.106980022753756,32.8233762633981
pt.ine.add.MAD.32421,VR CORONAL ABEL PEREIRA DO VALE,,9270-125,SEIXAL PMZ,-17.106972114251263,32.8234936318552
pt.ine.add.MAD.32422,VR CORONAL ABEL PEREIRA DO VALE,,9270-125,SEIXAL PMZ,-17.106898657191287,32.82354897731308
pt.ine.add.MAD.32423,ESTR LOMBINHO,,9270-125,SEIXAL PMZ,-17.107354730539036,32.82386594883539
pt.ine.add.MAD.32424,CAM CHAO DA RIBEIRA,,9270-125,SEIXAL PMZ,-17.106989573291216,32.824232821980246
pt.ine.add.MAD.32425,CAM MANUEL DIAS DE CASTRO,,9270-125,SEIXAL PMZ,-17.10704554084683,32.823889191816384
pt.ine.add.MAD.32426,CAM MANUEL DIAS DE CASTRO,,9270-125,SEIXAL PMZ,-17.10688539481642,32.82389188839098
pt.ine.add.MAD.32427,CAM MANUEL DIAS DE CASTRO,,9270-125,SEIXAL PMZ,-17.10688539481642,32.82389188839098
pt.ine.add.MAD.32428,CAM MANUEL DIAS CASTRO,36,9270-125,SEIXAL PMZ,-17.107027594771587,32.824033783584554
pt.ine.add.MAD.32429,CAM MANUEL DIAS DE CASTRO,,9270-125,SEIXAL PMZ,-17.107027594771587,32.824033783584554
pt.ine.add.MAD.32430,CAM MANUEL DIAS DE CASTRO,,9270-125,SEIXAL PMZ,-17.10680573184773,32.82413671837285
pt.ine.add.MAD.32431,R JOÃO FERNANDES CORREIA,13A,9270-126,SEIXAL PMZ,-17.104649345620114,32.82373111976997
pt.ine.add.MAD.32432,R JOÃO FERNANDES CORREIA,,9270-126,SEIXAL PMZ,-17.104888096311637,32.82343852450248
pt.ine.add.MAD.33214,CAM EIRINHA,,9270-012,ACHADAS DA CRUZ,-17.212628253639487,32.84049016335149
pt.ine.add.MAD.33215,CAM EIRINHA,,9270-012,ACHADAS DA CRUZ,-17.21087465970658,32.84042197271597
pt.ine.add.MAD.33216,CAM EIRINHA,,9270-012,ACHADAS DA CRUZ,-17.211082677155826,32.84062570594227
pt.ine.add.MAD.33217,CAM EIRINHA,,9270-012,ACHADAS DA CRUZ,-17.211281135845077,32.840874696872454
pt.ine.add.MAD.33218,CAM TELEFERICO,,9270-013,ACHADAS DA CRUZ,-17.210358362180475,32.84243305334348
pt.ine.add.MAD.33219,CAM TELEFERICO,,9270-013,ACHADAS DA CRUZ,-17.210563477483255,32.842519606903764
pt.ine.add.MAD.33220,CAM LAMEIROS,,9270-011,ACHADAS DA CRUZ,-17.20842767189484,32.8425483150464
pt.ine.add.MAD.33221,ESTR ANTIGA ER 101,,9270-013,ACHADAS DA CRUZ,-17.2085048893321,32.84049088713411
pt.ine.add.MAD.33222,CAM TELEFERICO,,9270-013,ACHADAS DA CRUZ,-17.20984085883676,32.841810949171695
pt.ine.add.MAD.33223,CAM TELEFERICO,,9270-013,ACHADAS DA CRUZ,-17.210598141670943,32.84219435275523
pt.ine.add.MAD.33224,CAM TELEFERICO,,9270-013,ACHADAS DA CRUZ,-17.210556496199718,32.84180732239581
pt.ine.add.MAD.33225,CAM TELEFERICO,,9270-013,ACHADAS DA CRUZ,-17.210419421793855,32.84144903178953
pt.ine.add.MAD.33226,CAM IRMA MARY JANE WILSON,1,9270-093,PORTO MONIZ,-17.19201042666249,32.859565208426346
pt.ine.add.MAD.33227,ER 101,173,9270-093,PORTO MONIZ,-17.189500162848987,32.85959114824288
pt.ine.add.MAD.33228,CAM TERRA COIMEIRA,,9270-093,PORTO MONIZ,-17.19126773900753,32.85673760156134
pt.ine.add.MAD.33229,CAM TERRA COIMEIRA,,9270-093,PORTO MONIZ,-17.1914403517996,32.857239576641916
pt.ine.add.MAD.33230,CAM TERRA COIMEIRA,,9270-093,PORTO MONIZ,-17.191581628393177,32.85733629730696
pt.ine.add.MAD.33231,CAM TERRA COIMEIRA,,9270-093,PORTO MONIZ,-17.191610305692137,32.85763338380175
pt.ine.add.MAD.33232,ER 101,,9270-093,PORTO MONIZ,-17.19192131763294,32.85811489688436
pt.ine.add.MAD.33233,ER 101,7,9270-093,PORTO MONIZ,-17.1911545058059,32.859084226674454
pt.ine.add.MAD.33234,ER 101,5,9270-093,PORTO MONIZ,-17.19131781042341,32.85920761513172
pt.ine.add.MAD.33235,ER 101,3,9270-093,PORTO MONIZ,-17.191116885089432,32.85929229636238
pt.ine.add.MAD.33236,ER 101,,9270-093,PORTO MONIZ,-17.191072391217556,32.85922093314348
pt.ine.add.MAD.33237,ER 101,,9270-093,PORTO MONIZ,-17.191266368768446,32.859722533872
pt.ine.add.MAD.33238,ER 101,,9270-093,PORTO MONIZ,-17.18895060482299,32.85940237604026
pt.ine.add.MAD.33239,ER 101,,9270-093,PORTO MONIZ,-17.18895060482299,32.85940237604026
pt.ine.add.MAD.33240,ER 101,,9270-093,PORTO MONIZ,-17.18759495302562,32.85902029413532
pt.ine.add.MAD.33241,ER 101,,9270-093,PORTO MONIZ,-17.18635701338641,32.858645157181854
pt.ine.add.MAD.33242,CAM CRUZ,4,9270-093,PORTO MONIZ,-17.18622294247807,32.857971161374316
pt.ine.add.MAD.33243,R LUGAR DA BICA,,9270-151,PORTO MONIZ,-17.173427425124974,32.86603975595165
pt.ine.add.MAD.33244,R LUGAR DA BICA,,9270-151,PORTO MONIZ,-17.173427425124974,32.86603975595165
pt.ine.add.MAD.33245,R LUGAR DA BICA,,9270-151,PORTO MONIZ,-17.173427425124974,32.86603975595165
pt.ine.add.MAD.33246,R LUGAR DA BICA,32,9270-151,PORTO MONIZ,-17.1740002374772,32.865867476493214
pt.ine.add.MAD.33247,R ESCOLA VELHA,8,9270-040,PORTO MONIZ,-17.17351837277689,32.866263622229525
pt.ine.add.MAD.33248,R ESCOLA VELHA,12,9270-040,PORTO MONIZ,-17.17323614444488,32.866521028408094
pt.ine.add.MAD.33249,R FRANCISCO MONIZ O VELHO,18,9270-035,PORTO MONIZ,-17.169549703149606,32.86564718321408
pt.ine.add.MAD.33250,R FRANCISCO MONIZ O VELHO,,9270-035,PORTO MONIZ,-17.169827188603907,32.86563335058504
pt.ine.add.MAD.33251,R SERRADO,,9270-156,PORTO MONIZ,-17.16760730154869,32.86574399446632
pt.ine.add.MAD.33252,"R FRANCISCO MONIZ ""O VELHO",13,9270-095,PORTO MONIZ,-17.16933184800667,32.866354358636876
pt.ine.add.MAD.33253,"R FRANCISCO MONIZ ""O VELHO",5,9270-095,PORTO MONIZ,-17.170539517548402,32.865485719545184
pt.ine.add.MAD.33254,R FRANCISCO MONIZ,,9270-095,PORTO MONIZ,-17.170615957728195,32.865114659080746
pt.ine.add.MAD.33255,PC LYRA,,9270-053,PORTO MONIZ,-17.171350257468102,32.86586843119455
pt.ine.add.MAD.33256,R DR JOÃO FRANCA COSME,21,9270-052,PORTO MONIZ,-17.171058527899206,32.86661296362967
pt.ine.add.MAD.33257,R DR JOÃO FRANCA COSME,36,9270-052,PORTO MONIZ,-17.17060289247012,32.866332301276145
pt.ine.add.MAD.33258,CAM PICO ALTO,,9270-091,PORTO MONIZ,-17.180574447909226,32.855499683001945
pt.ine.add.MAD.33259,CAM PICO ALTO,,9270-091,PORTO MONIZ,-17.180815094713097,32.85485521747621
pt.ine.add.MAD.33260,CAM PICO ALTO,,9270-091,PORTO MONIZ,-17.180616203675186,32.853713414552985
pt.ine.add.MAD.33261,ESTR BATALHAO,38,9270-036,PORTO MONIZ,-17.18064294749,32.8534965190899
pt.ine.add.MAD.33262,ESTR PICO ALTO,,9270-036,PORTO MONIZ,-17.18063787359473,32.85328919626462
pt.ine.add.MAD.33263,ESTR LEVADA GRANDE,,9270-036,PORTO MONIZ,-17.182477172989916,32.85684622797896
pt.ine.add.MAD.33264,SIT LEVADA GRANDE,,9270-036,PORTO MONIZ,-17.175615646167557,32.85675837061055
pt.ine.add.MAD.33265,SIT LEVADA GRANDE,,9270-036,PORTO MONIZ,-17.17583254549026,32.856889865518085
pt.ine.add.MAD.33266,SIT LEVADA GRANDE,,9270-036,PORTO MONIZ,-17.17657848555525,32.85724661874694
pt.ine.add.MAD.33267,SIT LEVADA GRANDE,,9270-036,PORTO MONIZ,-17.17721212464563,32.857379875350375
pt.ine.add.MAD.33268,LEV GRANDE,8,9270-036,PORTO MONIZ,-17.17876590453276,32.85800210297739
pt.ine.add.MAD.33269,SIT LEVADA GRANDE,,9270-036,PORTO MONIZ,-17.178707213887723,32.857786696309695
pt.ine.add.MAD.33270,SIT LEVADA GRANDE,,9270-036,PORTO MONIZ,-17.179190457851085,32.857886491173005
pt.ine.add.MAD.33271,SIT LEVADA GRANDE,,9270-036,PORTO MONIZ,-17.180469846921838,32.857774012173046
pt.ine.add.MAD.33272,SIT LEVADA GRANDE,,9270-036,PORTO MONIZ,-17.180267148566443,32.85778656402652
pt.ine.add.MAD.33273,CAM SITIO DA LEVADA GRANDE,16,9270-036,PORTO MONIZ,-17.178332634110756,32.85732429153026
pt.ine.add.MAD.33274,CAM PICO ALTO,,9270-036,PORTO MONIZ,-17.17985462580959,32.855773750079976
pt.ine.add.MAD.33275,VR BURACO DO CANDEEIRO,3,9270-103,RIBEIRA DA JANELA,-17.160416285536122,32.84592980026277
pt.ine.add.MAD.33276,VR MURTEIRA,8,9270-103,RIBEIRA DA JANELA,-17.160841246767667,32.84583228030906
pt.ine.add.MAD.33277,CCI 109,,9270-101,RIBEIRA DA JANELA,-17.15590294155704,32.84881225485657
pt.ine.add.MAD.33278,CAM DR FRANCISCO RODRIGUES JARDIM,29,9270-101,RIBEIRA DA JANELA,-17.15596284804921,32.846872363010654
pt.ine.add.MAD.33279,CAM VOLTINHA,38,9270-101,RIBEIRA DA JANELA,-17.155761690065933,32.84650609405255
pt.ine.add.MAD.33280,ER 209,307,9270-101,RIBEIRA DA JANELA,-17.155353283644704,32.846846796393194
pt.ine.add.MAD.33281,CAM VOLTINHA,35,9270-101,RIBEIRA DA JANELA,-17.155636165274775,32.84705835244848
pt.ine.add.MAD.33282,CAM VOLTINHA,37,9270-101,RIBEIRA DA JANELA,-17.1554234605332,32.847098089789625
pt.ine.add.MAD.33283,VR PENEDO,4,9270-101,RIBEIRA DA JANELA,-17.155441333523104,32.84739537421675
pt.ine.add.MAD.33284,CAM VOLTINHA,2,9270-101,RIBEIRA DA JANELA,-17.155343915639307,32.847342945204105
pt.ine.add.MAD.33285,ER 209,309,9270-101,RIBEIRA DA JANELA,-17.155236472954243,32.84731774270425
pt.ine.add.MAD.33286,SIT EIRA DA ACHADA,,9270-104,RIBEIRA DA JANELA,-17.15352807027436,32.847356185930046
pt.ine.add.MAD.33289,CAM SERRA DE AGUA,,9270-130,SEIXAL PMZ,-17.1040745663282,32.823362025576934
pt.ine.add.MAD.33290,CAM SERRA DE AGUA,,9270-130,SEIXAL PMZ,-17.103749386091224,32.82316007657732
pt.ine.add.MAD.33291,CAM SERRA DE AGUA,,9270-130,SEIXAL PMZ,-17.103846795419845,32.82276164213346
pt.ine.add.MAD.33292,CAM SERRA DE AGUA,,9270-130,SEIXAL PMZ,-17.103846795419845,32.82276164213346
pt.ine.add.MAD.33293,CAM DELFINA FERNANDES CORREIA,3,9270-130,SEIXAL PMZ,-17.10376780977634,32.82258260793129
pt.ine.add.MAD.33294,CAM DELFINA FERNANDES CORREIA,3,9270-130,SEIXAL PMZ,-17.10376780977634,32.82258260793129
pt.ine.add.MAD.33295,CAM DELFINA FERNANDES CORREIA,3,9270-130,SEIXAL PMZ,-17.10376780977634,32.82258260793129
pt.ine.add.MAD.33296,CAM SERRA DE AGUA,,9270-130,SEIXAL PMZ,-17.10340869151619,32.8223000655251
pt.ine.add.MAD.33297,R JOÃO FERNANDES CORREIA,,9270-130,SEIXAL PMZ,-17.1034958505678,32.821919839811926
pt.ine.add.MAD.33298,R JOÃO FERNANDES CORREIA,,9270-130,SEIXAL PMZ,-17.10373353781393,32.82158217403143
pt.ine.add.MAD.33299,R JOÃO FERNANDES CORREIA,35,9270-130,SEIXAL PMZ,-17.103839661552705,32.82155333553155
pt.ine.add.MAD.33300,R JOÃO FERNANDES CORREIA,17,9270-130,SEIXAL PMZ,-17.10487380407657,32.82328545714102
pt.ine.add.MAD.33301,R JOÃO FERNANDES CORREIA,17,9270-130,SEIXAL PMZ,-17.10487380407657,32.82328545714102
pt.ine.add.MAD.33302,R JOÃO FERNANDES CORREIA,17,9270-130,SEIXAL PMZ,-17.10487380407657,32.82328545714102
pt.ine.add.MAD.33303,R JOÃO FERNANDES CORREIA,17,9270-130,SEIXAL PMZ,-17.10487380407657,32.82328545714102
pt.ine.add.MAD.34064,CAM TERRA COIMEIRA,,9270-093,PORTO MONIZ,-17.19185220683258,32.85704298413095
pt.ine.add.MAD.34065,ER 101,263,9270-093,PORTO MONIZ,-17.19245971926705,32.85567965778925
pt.ine.add.MAD.34066,CAM POMBAIS,,9270-042,PORTO MONIZ,-17.1966357687635,32.8599529757456
pt.ine.add.MAD.34067,CAM POMBAIS,,9270-042,PORTO MONIZ,-17.196904114329122,32.85956951282141
pt.ine.add.MAD.34068,CAM POMBAIS,,9270-042,PORTO MONIZ,-17.197966330995087,32.85974924010799
pt.ine.add.MAD.34069,CAM POÇO DA EIRA VELHA,,9270-042,PORTO MONIZ,-17.198328788176852,32.85928295965391
pt.ine.add.MAD.34070,CAM POÇO DA EIRA VELHA,,9270-042,PORTO MONIZ,-17.198359713397064,32.859670182737155
pt.ine.add.MAD.34071,CAM POÇO DA EIRA VELHA,,9270-042,PORTO MONIZ,-17.198847657737716,32.85995919248041
pt.ine.add.MAD.34072,CAM POÇO DA EIRA VELHA,,9270-042,PORTO MONIZ,-17.19900274256492,32.860614766946476
pt.ine.add.MAD.34073,CAM POÇO DA EIRA VELHA,,9270-042,PORTO MONIZ,-17.19919454020419,32.86059335846315
pt.ine.add.MAD.34074,CAM POMBAIS,,9270-042,PORTO MONIZ,-17.19801150196684,32.85941478641263
pt.ine.add.MAD.34075,PC LYRA,,9270-053,PORTO MONIZ,-17.171114310434888,32.86539457990637
pt.ine.add.MAD.34076,CAM PEDRA MOLE,,9270-095,PORTO MONIZ,-17.176615293667684,32.864000372721634
pt.ine.add.MAD.34077,CAM PEDRA MOLE,,9270-039,PORTO MONIZ,-17.17639386200858,32.86412145926796
pt.ine.add.MAD.34078,R POÇO,,9270-040,PORTO MONIZ,-17.17598072775305,32.8655805276318
pt.ine.add.MAD.34079,CAM PEDRA MOLE DE BAIXO,30,9270-095,PORTO MONIZ,-17.173202834064814,32.864718030221944
pt.ine.add.MAD.34080,CAM PEDRA MOLE,,9270-095,PORTO MONIZ,-17.17318499154339,32.86486262649542
pt.ine.add.MAD.34081,PC LYRA,,9270-053,PORTO MONIZ,-17.171450693665673,32.86560516830988
pt.ine.add.MAD.34082,CAM PEDRA MOLE DE BAIXO,,9270-095,PORTO MONIZ,-17.172357162018507,32.86509343999522
pt.ine.add.MAD.34083,CAM PEDRA MOLE DE BAIXO,,9270-095,PORTO MONIZ,-17.172509992528255,32.865226053168605
pt.ine.add.MAD.34084,CAM PEDRA MOLE,,9270-095,PORTO MONIZ,-17.172628361930016,32.865260068138575
pt.ine.add.MAD.34085,CAM PEDRA MOLE,,9270-095,PORTO MONIZ,-17.172628361930016,32.865260068138575
pt.ine.add.MAD.34086,CAM PEDRA MOLE,,9270-095,PORTO MONIZ,-17.172628361930016,32.865260068138575
pt.ine.add.MAD.34087,CAM PEDRA MOLE,,9270-095,PORTO MONIZ,-17.172628361930016,32.865260068138575
pt.ine.add.MAD.34088,CAM PEDRA MOLE,,9270-095,PORTO MONIZ,-17.172628361930016,32.865260068138575
pt.ine.add.MAD.34089,CAM PEDRA MOLE DE BAIXO,,9270-038,PORTO MONIZ,-17.172744532361154,32.86520394233095
pt.ine.add.MAD.34090,CAM PEDRA MOLE DE BAIXO,,9270-038,PORTO MONIZ,-17.17301837251085,32.86547873835791
pt.ine.add.MAD.34091,ESTR PICO ALTO,,9270-036,PORTO MONIZ,-17.180387287545226,32.855710357373816
pt.ine.add.MAD.34092,ESTR PICO ALTO,,9270-036,PORTO MONIZ,-17.18037991681395,32.85584575407604
pt.ine.add.MAD.34093,SIT LEVADA GRANDE,,9270-036,PORTO MONIZ,-17.177798198008595,32.857315563553165
pt.ine.add.MAD.34094,CAM EIRA,,9270-036,PORTO MONIZ,-17.177668600572872,32.8568218366104
pt.ine.add.MAD.34095,CAM EIRA,,9270-036,PORTO MONIZ,-17.178079384946166,32.856580218038125
pt.ine.add.MAD.34096,CAM LEVADA GRANDE,21,9270-036,PORTO MONIZ,-17.17811639139813,32.857219843305174
pt.ine.add.MAD.34097,CAM EIRA,1,9270-036,PORTO MONIZ,-17.177174577719306,32.857155081858174
pt.ine.add.MAD.34098,SIT LEVADA GRANDE,,9270-036,PORTO MONIZ,-17.176379420828763,32.856970528610674
pt.ine.add.MAD.34099,SIT LEVADA GRANDE,,9270-036,PORTO MONIZ,-17.17599142256905,32.85683299391967
pt.ine.add.MAD.34100,CAM EIRA,,9270-036,PORTO MONIZ,-17.1781067965413,32.85639036505548
pt.ine.add.MAD.34101,CAM EIRA,,9270-036,PORTO MONIZ,-17.177484839969722,32.856734857400085
pt.ine.add.MAD.34102,CAM EIRA,,9270-036,PORTO MONIZ,-17.177298771080952,32.8569905977761
pt.ine.add.MAD.34103,SIT LEVADA GRANDE,59,9270-036,PORTO MONIZ,-17.178221290325048,32.8558292620955
pt.ine.add.MAD.34104,CAM FONTE DO REI,,9270-036,PORTO MONIZ,-17.179115715553284,32.85483073142922
pt.ine.add.MAD.34105,CAM FONTE DO REI,42,9270-036,PORTO MONIZ,-17.179432643488866,32.853373329545846
pt.ine.add.MAD.34106,CAM FONTE DO REI,,9270-036,PORTO MONIZ,-17.179701834161136,32.853458817194905
pt.ine.add.MAD.34107,CAM MOINHOS,,9270-036,PORTO MONIZ,-17.178817261189813,32.85136404474054
pt.ine.add.MAD.34108,CAM COVA DO PALHEIRO,47,9270-104,RIBEIRA DA JANELA,-17.153253483241304,32.84660340474765
pt.ine.add.MAD.34109,CAM COVA DO PALHEIRO,3,9270-104,RIBEIRA DA JANELA,-17.153148219624377,32.84666834248547
pt.ine.add.MAD.34110,CAM PEDREGAL,5,9270-104,RIBEIRA DA JANELA,-17.153102673472535,32.846551893037706
pt.ine.add.MAD.34111,CAM PEDREGAL,8,9270-104,RIBEIRA DA JANELA,-17.152952081616323,32.84650939534938
pt.ine.add.MAD.34112,CAM PEDREGAL,9,9270-104,RIBEIRA DA JANELA,-17.152902607032672,32.84667257016887
pt.ine.add.MAD.34113,CAM PEDREGAL,2,9270-104,RIBEIRA DA JANELA,-17.15310464179605,32.8461911408012
pt.ine.add.MAD.34114,CAM RIBEIRO ESCURO,15,9270-104,RIBEIRA DA JANELA,-17.152243824219138,32.84549353639495
pt.ine.add.MAD.34115,CAM RIBEIRO ESCURO,19,9270-104,RIBEIRA DA JANELA,-17.152135296238935,32.84542326000733
pt.ine.add.MAD.34116,SIT EIRA DA ACHADA,,9270-104,RIBEIRA DA JANELA,-17.15184436073346,32.845320049758556
pt.ine.add.MAD.34117,ER 209,340,9270-104,RIBEIRA DA JANELA,-17.153861499398285,32.8487752817073
pt.ine.add.MAD.34118,ER 209,342,9270-104,RIBEIRA DA JANELA,-17.153720711090426,32.84869654442271
pt.ine.add.MAD.34119,ER 209,348,9270-104,RIBEIRA DA JANELA,-17.153492312532272,32.84852913584341
pt.ine.add.MAD.34120,ER 209,356,9270-104,RIBEIRA DA JANELA,-17.153186330544244,32.84824582897854
pt.ine.add.MAD.34121,ER 209,358,9270-104,RIBEIRA DA JANELA,-17.15348512457545,32.84823166706877
pt.ine.add.MAD.34122,VR EIRA DO PICO,10,9270-104,RIBEIRA DA JANELA,-17.153703066129168,32.84796639389559
pt.ine.add.MAD.34123,R JOÃO FERNANDES CORREIA,17,9270-130,SEIXAL PMZ,-17.10487380407657,32.82328545714102
pt.ine.add.MAD.34124,CAM SERRA DE AGUA,,9270-130,SEIXAL PMZ,-17.104516337542446,32.823525940432575
pt.ine.add.MAD.34125,CAM SERRA DE AGUA,,9270-130,SEIXAL PMZ,-17.104400385972493,32.82359101725258
pt.ine.add.MAD.34126,CAM SERRA DE AGUA,,9270-130,SEIXAL PMZ,-17.104418123628605,32.82343741115342
pt.ine.add.MAD.34127,R JOÃO FERNANDES CORREIA,19,9270-130,SEIXAL PMZ,-17.10472114502387,32.82315275340018
pt.ine.add.MAD.34128,CAM LOMBO DO MOINHO,,9270-130,SEIXAL PMZ,-17.104327440940768,32.82276257823352
pt.ine.add.MAD.34129,CAM LOMBO DO MOINHO,,9270-130,SEIXAL PMZ,-17.104327440940768,32.82276257823352
pt.ine.add.MAD.34130,CAM LOMBO DO MOINHO,,9270-130,SEIXAL PMZ,-17.104104302008945,32.82281142105817
pt.ine.add.MAD.34131,R JOÃO DE AZEVEDO,25,9270-130,SEIXAL PMZ,-17.10457729188166,32.8224878330993
pt.ine.add.MAD.34132,R JOÃO FERNANDES CORREIA,23,9270-130,SEIXAL PMZ,-17.104759851527433,32.82252985307048
pt.ine.add.MAD.34133,R JOÃO FERNANDES CORREIA,27,9270-130,SEIXAL PMZ,-17.104379590700688,32.82225668724869
pt.ine.add.MAD.34134,CAM LOMBO DO MOINHO,,9270-130,SEIXAL PMZ,-17.104253177015696,32.822330957956304
pt.ine.add.MAD.34135,CAM LOMBO DO MOINHO,,9270-130,SEIXAL PMZ,-17.10413339967226,32.82223377290431
pt.ine.add.MAD.34136,CAM LOMBO DO MOINHO,,9270-130,SEIXAL PMZ,-17.10395658099613,32.82243514438541
pt.ine.add.MAD.34137,CAM DELFINA FERNANDES CORREIA,,9270-130,SEIXAL PMZ,-17.10382978855527,32.82204047940826
pt.ine.add.MAD.34138,R JOÃO FERNANDES CORREIA,,9270-130,SEIXAL PMZ,-17.104214131775535,32.822034016988674
pt.ine.add.MAD.34139,R JOÃO FERNANDES CORREIA,29,9270-130,SEIXAL PMZ,-17.104419743880843,32.8221477946969
pt.ine.add.MAD.34929,SIT JOGO DA BOLA,,9270-095,PORTO MONIZ,-17.172924883332342,32.86558857760648
pt.ine.add.MAD.34930,ER 101,,9270-095,PORTO MONIZ,-17.17175617518288,32.86498664663785
pt.ine.add.MAD.34931,CAM LADEIRA,,9270-034,PORTO MONIZ,-17.170397095167736,32.86271068017331
pt.ine.add.MAD.34932,CAM LADEIRA,,9270-095,PORTO MONIZ,-17.17049731155895,32.86243840387852
pt.ine.add.MAD.34933,CAM LADEIRA,,9270-034,PORTO MONIZ,-17.17112543950739,32.86322107462534
pt.ine.add.MAD.34934,CAM LADEIRA,,9270-095,PORTO MONIZ,-17.170520458768813,32.86382675798419
pt.ine.add.MAD.34935,ER 101,1,9270-095,PORTO MONIZ,-17.16703550628303,32.86551943962305
pt.ine.add.MAD.34936,CAM LADEIRA,,9270-034,PORTO MONIZ,-17.170864743963673,32.864361855183155
pt.ine.add.MAD.34937,R PERIM,4,9270-034,PORTO MONIZ,-17.170867600173324,32.86447903820496
pt.ine.add.MAD.34938,CAM LADEIRA,8,9270-034,PORTO MONIZ,-17.170535835802074,32.86445774365578
pt.ine.add.MAD.34939,CAM LADEIRA,,9270-034,PORTO MONIZ,-17.170429686632687,32.86448663980484
pt.ine.add.MAD.34940,CAM LADEIRA,10,9270-034,PORTO MONIZ,-17.170420543461272,32.864549923758496
pt.ine.add.MAD.34941,CAM LADEIRA,,9270-034,PORTO MONIZ,-17.17019866212307,32.86465297156375
pt.ine.add.MAD.34942,CAM LADEIRA,,9270-034,PORTO MONIZ,-17.170574908013542,32.86474563802959
pt.ine.add.MAD.34943,CAM LADEIRA,,9270-034,PORTO MONIZ,-17.170455661301112,32.86467556472821
pt.ine.add.MAD.34944,ER 101,5,9270-095,PORTO MONIZ,-17.16746318366814,32.86553006302659
pt.ine.add.MAD.34945,CAM PICO ALTO,,9270-036,PORTO MONIZ,-17.180391090472625,32.854556002339805
pt.ine.add.MAD.34946,CAM PICO ALTO,,9270-041,PORTO MONIZ,-17.179984198635708,32.855392740549526
pt.ine.add.MAD.34947,CAM PICO ALTO,,9270-041,PORTO MONIZ,-17.178875619308933,32.85593509646248
pt.ine.add.MAD.34948,CAM CRUZ,,9270-091,PORTO MONIZ,-17.18601683233341,32.85697378144427
pt.ine.add.MAD.34949,CAM CRUZ,40,9270-091,PORTO MONIZ,-17.18600953351069,32.856676319490475
pt.ine.add.MAD.34950,CAM CRUZ,52,9270-091,PORTO MONIZ,-17.18604988291481,32.85614356015604
pt.ine.add.MAD.34951,CAM CRUZ,62,9270-091,PORTO MONIZ,-17.185826115787034,32.85573264948755
pt.ine.add.MAD.34952,CAM FERREIRO,,9270-091,PORTO MONIZ,-17.185706624153113,32.854345986263226
pt.ine.add.MAD.34953,CAM FERREIRO,4,9270-091,PORTO MONIZ,-17.18667027273064,32.85399548034627
pt.ine.add.MAD.34954,CAM FERREIRO,,9270-091,PORTO MONIZ,-17.188156258991164,32.85229216775897
pt.ine.add.MAD.34955,CAM FERREIRO,,9270-091,PORTO MONIZ,-17.189808751765952,32.85128029877509
pt.ine.add.MAD.34956,CAM PE JOSE GONÇALVES COSTA,,9270-093,PORTO MONIZ,-17.188596403049328,32.85542268239219
pt.ine.add.MAD.34957,CAM PE JOSE GONÇALVES COSTA,,9270-093,PORTO MONIZ,-17.188605311241894,32.85535038361976
pt.ine.add.MAD.34958,CAM PE JOSE GONÇALVES COSTA,,9270-093,PORTO MONIZ,-17.188566408392596,32.85507151074094
pt.ine.add.MAD.34959,CAM PE JOSE GONÇALVES COSTA,,9270-093,PORTO MONIZ,-17.18853907102652,32.854828506890264
pt.ine.add.MAD.34960,CAM PE JOSE GONÇALVES COSTA,,9270-093,PORTO MONIZ,-17.18852684159778,32.85476559586905
pt.ine.add.MAD.34961,VR SR LUCIO,10,9270-104,RIBEIRA DA JANELA,-17.154094919423606,32.84782437680419
pt.ine.add.MAD.34962,ER 209,176,9270-104,RIBEIRA DA JANELA,-17.154762461995148,32.84803832763849
pt.ine.add.MAD.34963,VR CAMINHO FUNDO,2,9270-104,RIBEIRA DA JANELA,-17.153874591632256,32.847106734575014
pt.ine.add.MAD.34964,VR CAMINHO FUNDO,4,9270-104,RIBEIRA DA JANELA,-17.153958279637987,32.84703314981523
pt.ine.add.MAD.34965,CAM FUNDO,2,9270-104,RIBEIRA DA JANELA,-17.154927002842463,32.8468902129342
pt.ine.add.MAD.34966,VR CERCA DOS ESTOIRINHOS,9,9270-104,RIBEIRA DA JANELA,-17.15494116812123,32.84659237641372
pt.ine.add.MAD.34967,CAM FUNDO,24,9270-104,RIBEIRA DA JANELA,-17.153518499371657,32.846075800756786
pt.ine.add.MAD.34968,ER 209,422,9270-104,RIBEIRA DA JANELA,-17.155708061280826,32.84473048149171
pt.ine.add.MAD.34969,ER 209,393,9270-104,RIBEIRA DA JANELA,-17.15335701165059,32.84602447316972
pt.ine.add.MAD.34970,CAM CASCALHO,2,9270-104,RIBEIRA DA JANELA,-17.153258072032095,32.845908942937974
pt.ine.add.MAD.34971,CAM TERRA DA FERRA,11,9270-104,RIBEIRA DA JANELA,-17.15392865711882,32.84536533786543
pt.ine.add.MAD.34972,CAM TERRA DA FERRA,16,9270-104,RIBEIRA DA JANELA,-17.154234416203845,32.84519774918126
pt.ine.add.MAD.34973,CAM TERRA DA FERRA,26,9270-104,RIBEIRA DA JANELA,-17.15474437578582,32.84463887021556
pt.ine.add.MAD.34974,CAM TERRA DA FERRA,17,9270-104,RIBEIRA DA JANELA,-17.154584633273704,32.84465965775594
pt.ine.add.MAD.34975,CAM TERRA DA FERRA,1,9270-104,RIBEIRA DA JANELA,-17.154519254593158,32.84460667612475
pt.ine.add.MAD.34976,CAM TERRA DA FERRA,,9270-104,RIBEIRA DA JANELA,-17.154445594147525,32.844653034634725
pt.ine.add.MAD.34977,CAM LOMBO DO MOINHO,,9270-130,SEIXAL PMZ,-17.104151562883246,32.822098195869614
pt.ine.add.MAD.34978,CAM MUNICIPAL HENRIQUE RODRIGUES,,9270-126,SEIXAL PMZ,-17.105664103585745,32.822830273705094
pt.ine.add.MAD.34979,CAM MUNICIPAL HENRIQUE RODRIGUES,,9270-126,SEIXAL PMZ,-17.10536087362292,32.82310591906587
pt.ine.add.MAD.34980,CAM MUNICIPAL HENRIQUE RODRIGUES,,9270-126,SEIXAL PMZ,-17.10536087362292,32.82310591906587
pt.ine.add.MAD.34981,R JOÃO FERNANDES CORREIA,16,9270-126,SEIXAL PMZ,-17.10511935996401,32.823281326322814
pt.ine.add.MAD.34982,R JOÃO FERNANDES CORREIA,20,9270-126,SEIXAL PMZ,-17.104993624560027,32.82293173546502
pt.ine.add.MAD.34983,R JOÃO FERNANDES CORREIA,,9270-126,SEIXAL PMZ,-17.105121314724542,32.82291155116172
pt.ine.add.MAD.34984,CAM ÁLVARO GOUVEIA DA SILVA,6,9270-126,SEIXAL PMZ,-17.10527248476161,32.82298115273745
pt.ine.add.MAD.34985,VR CÂNDIDO DOS RAMOS,,9270-127,SEIXAL PMZ,-17.10529876976779,32.822737221692044
pt.ine.add.MAD.34986,R JOÃO FERNANDES CORREIA,22,9270-127,SEIXAL PMZ,-17.10505215185047,32.82269628016887
pt.ine.add.MAD.34987,R JOÃO FERNANDES CORREIA,,9270-127,SEIXAL PMZ,-17.105101917049243,32.82254213519505
pt.ine.add.MAD.34988,R JOÃO FERNANDES CORREIA,,9270-127,SEIXAL PMZ,-17.104829480834024,32.8223122473309
pt.ine.add.MAD.34989,CAM COR MACHADO,,9270-127,SEIXAL PMZ,-17.105027224238754,32.822092486452966
pt.ine.add.MAD.34990,CAM COR MACHADO,,9270-127,SEIXAL PMZ,-17.105337046741177,32.82209629226441
pt.ine.add.MAD.34991,CAM COR MACHADO,,9270-127,SEIXAL PMZ,-17.105439128344916,32.82189617642033
pt.ine.add.MAD.34992,VR PORTADA,,9270-127,SEIXAL PMZ,-17.106257080191575,32.82261287761922
pt.ine.add.MAD.34993,VR PORTADA,,9270-127,SEIXAL PMZ,-17.106189830295598,32.82247873803011
pt.ine.add.MAD.35805,CAM PE JOSE GONÇALVES COSTA,,9270-093,PORTO MONIZ,-17.18852684159778,32.85476559586905
pt.ine.add.MAD.35806,CAM PE JOSE GONÇALVES COSTA,,9270-093,PORTO MONIZ,-17.188514390777485,32.85469367085874
pt.ine.add.MAD.35807,CAM PE JOSE GONÇALVES COSTA,,9270-093,PORTO MONIZ,-17.188795379808894,32.85482402141741
pt.ine.add.MAD.35808,CAM PE JOSE GONÇALVES COSTA,,9270-093,PORTO MONIZ,-17.188863443063568,32.85498515168276
pt.ine.add.MAD.35809,CAM PE JOSE GONÇALVES COSTA,,9270-093,PORTO MONIZ,-17.1889014609631,32.85522796850127
pt.ine.add.MAD.35810,CAM PE JOSE GONÇALVES COSTA,6,9270-093,PORTO MONIZ,-17.188925256155812,32.855326748482135
pt.ine.add.MAD.35811,CAM JUNQUEIRA,,9270-041,PORTO MONIZ,-17.18583349082722,32.85254921303322
pt.ine.add.MAD.35812,CAM JUNQUEIRA,704,9270-041,PORTO MONIZ,-17.18575099691506,32.85223502927179
pt.ine.add.MAD.35813,CAM JUNQUEIRA,118,9270-041,PORTO MONIZ,-17.185767933155155,32.852054375868114
pt.ine.add.MAD.35814,CAM FERREIRO,,9270-041,PORTO MONIZ,-17.187324711244855,32.85323555356561
pt.ine.add.MAD.35815,CAM FERREIRO,27,9270-041,PORTO MONIZ,-17.186039143467802,32.853528566430924
pt.ine.add.MAD.35816,CAM FERREIRO,,9270-041,PORTO MONIZ,-17.18544965292042,32.85432342333474
pt.ine.add.MAD.35817,CAM CRUZ,,9270-041,PORTO MONIZ,-17.18448275194162,32.854105850926935
pt.ine.add.MAD.35818,CAM CRUZ,118,9270-041,PORTO MONIZ,-17.183751762207304,32.85348736550035
pt.ine.add.MAD.35819,CAM CRUZ,134,9270-041,PORTO MONIZ,-17.183176698207,32.85312767220027
pt.ine.add.MAD.35820,CAM CRUZ,138,9270-041,PORTO MONIZ,-17.18320409823962,32.85293781850311
pt.ine.add.MAD.35821,ER 209,427,9270-104,RIBEIRA DA JANELA,-17.15454518928331,32.844353726602364
pt.ine.add.MAD.35822,ER 209,413,9270-104,RIBEIRA DA JANELA,-17.154608821676543,32.845218354445976
pt.ine.add.MAD.35823,CAM RIBEIRO ESCURO,10,9270-104,RIBEIRA DA JANELA,-17.152996121440367,32.84567898504765
pt.ine.add.MAD.35824,CAM RIBEIRO ESCURO,20,9270-104,RIBEIRA DA JANELA,-17.15233449038445,32.84526652728845
pt.ine.add.MAD.35825,CAM RIBEIRO ESCURO,24,9270-104,RIBEIRA DA JANELA,-17.152286987088146,32.84506894949197
pt.ine.add.MAD.35826,CAM RIBEIRO ESCURO,26,9270-104,RIBEIRA DA JANELA,-17.152327960200463,32.84499610078308
pt.ine.add.MAD.35827,VR RIBEIRO ESCURO,5,9270-106,RIBEIRA DA JANELA,-17.152691892970378,32.84546779009148
pt.ine.add.MAD.35828,CAM CASCALHO,13,9270-104,RIBEIRA DA JANELA,-17.1533225874613,32.845483988241206
pt.ine.add.MAD.35829,CAM VOLTINHA,2,9270-101,RIBEIRA DA JANELA,-17.15819100686029,32.84668063270095
pt.ine.add.MAD.35830,CAM VOLTINHA,4,9270-101,RIBEIRA DA JANELA,-17.15802842437635,32.84658424040702
pt.ine.add.MAD.35831,VR PICO,18,9270-101,RIBEIRA DA JANELA,-17.158326521818676,32.84565926649946
pt.ine.add.MAD.35832,VR PICO ENTRADA 1,2,9270-103,RIBEIRA DA JANELA,-17.158644698121545,32.84556359651306
pt.ine.add.MAD.35833,VR ESCOLA,13,9270-103,RIBEIRA DA JANELA,-17.160781268226522,32.845120899083035
pt.ine.add.MAD.35834,VR PORTADA,,9270-127,SEIXAL PMZ,-17.105711101675087,32.82255893973332
pt.ine.add.MAD.35835,SIT PORTADA SEIXAL,,9270-130,SEIXAL PMZ,-17.105566140334023,32.82229985401797
pt.ine.add.MAD.35836,ER 101,6,9270-127,SEIXAL PMZ,-17.106093177037017,32.82155150018672
pt.ine.add.MAD.35837,ER 101,6,9270-127,SEIXAL PMZ,-17.106093177037017,32.82155150018672
pt.ine.add.MAD.35838,ESTR REGIONAL,8,9270-127,SEIXAL PMZ,-17.105990884484164,32.82174260197682
pt.ine.add.MAD.35839,SIT PORTADA,,9270-127,SEIXAL PMZ,-17.10597506490086,32.82197733891532
pt.ine.add.MAD.35840,ER ENG JORGE MANUEL JARDIM FERNANDES,,9270-127,SEIXAL PMZ,-17.10620522367869,32.8222259720602
pt.ine.add.MAD.35841,SIT PORTADA,,9270-127,SEIXAL PMZ,-17.10579505928898,32.82204349497158
pt.ine.add.MAD.35842,VR CÂNDIDO RAMOS,,9270-127,SEIXAL PMZ,-17.105905651434288,32.822203959701824
pt.ine.add.MAD.35843,VR CÂNDIDO RAMOS,,9270-127,SEIXAL PMZ,-17.10589795432303,32.822330342686904
pt.ine.add.MAD.35844,VR CÂNDIDO RAMOS,,9270-127,SEIXAL PMZ,-17.10589795432303,32.822330342686904
pt.ine.add.MAD.35845,ER 221,,9270-127,SEIXAL PMZ,-17.113152015048616,32.8147500907697
pt.ine.add.MAD.35846,ER 221,,9270-127,SEIXAL PMZ,-17.11316696163903,32.81447929552654
pt.ine.add.MAD.35847,ER 221,,9270-127,SEIXAL PMZ,-17.14100583485555,32.809479077605545
pt.ine.add.MAD.35848,VIA EXPRESSO,,9270-127,SEIXAL PMZ,-17.141550841247323,32.8419706712035
pt.ine.add.MAD.35849,VIA EXPRESSO,,9270-127,SEIXAL PMZ,-17.141415920788067,32.842135304803215
pt.ine.add.MAD.35850,VIA EXPRESSO,,9270-127,SEIXAL PMZ,-17.14120625126577,32.842301217772075
pt.ine.add.MAD.36667,VR ESCOLA,11,9270-103,RIBEIRA DA JANELA,-17.160664459516617,32.84514997066114
pt.ine.add.MAD.36668,ER 209,268,9270-103,RIBEIRA DA JANELA,-17.161666714581948,32.845069528584354
pt.ine.add.MAD.36669,,270,9270-103,RIBEIRA DA JANELA,-17.161652756813726,32.84493450070166
pt.ine.add.MAD.36670,VR BORDA - ENTRADA 1,1,9270-103,RIBEIRA DA JANELA,-17.16158234601299,32.84467419721822
pt.ine.add.MAD.36671,CAM TERRA FERRA,10,9270-103,RIBEIRA DA JANELA,-17.161556365528583,32.844043390335735
pt.ine.add.MAD.36672,VR VOLTAS DO LOMBO,11,9270-103,RIBEIRA DA JANELA,-17.160382611149757,32.84409973951069
pt.ine.add.MAD.36673,VR VOLTAS LOMBO,2,9270-103,RIBEIRA DA JANELA,-17.16079516626546,32.84437216981568
pt.ine.add.MAD.36674,CAM TERRA DA FERRA,9,9270-103,RIBEIRA DA JANELA,-17.16109872264344,32.844114423330595
pt.ine.add.MAD.36675,CAM RIBEIRO DO CANDEEIRO,3,9270-103,RIBEIRA DA JANELA,-17.160250126807203,32.84436354795163
pt.ine.add.MAD.36676,VR VOLTAS LOMBO,1,9270-103,RIBEIRA DA JANELA,-17.16047765224447,32.844494887527226
pt.ine.add.MAD.36677,CAM REAL,,9270-128,SEIXAL PMZ,-17.114782756099387,32.82632881901176
pt.ine.add.MAD.36678,CAM REAL,,9270-128,SEIXAL PMZ,-17.113702698237873,32.825373116179186
pt.ine.add.MAD.36679,VIA EXPRESSO,2,9270-128,SEIXAL PMZ,-17.114674048639845,32.82534768578532
pt.ine.add.MAD.36680,ER 101,86,9270-128,SEIXAL PMZ,-17.114116513395132,32.82480700414979
pt.ine.add.MAD.36681,ER 101,86,9270-128,SEIXAL PMZ,-17.114116513395132,32.82480700414979
pt.ine.add.MAD.36682,ER 101,,9270-128,SEIXAL PMZ,-17.112601947359966,32.825346615360765
pt.ine.add.MAD.36683,ESTR ANTÓNIO GEREMIAS DE SOUSA,,9270-129,SEIXAL PMZ,-17.133129560801027,32.83067069025645
pt.ine.add.MAD.36684,ESTR ANTÓNIO GEREMIAS DE SOUSA,,9270-129,SEIXAL PMZ,-17.13298062635367,32.83024938209452
pt.ine.add.MAD.36685,ESTR ANTÓNIO GEREMIAS DE SOUSA,,9270-129,SEIXAL PMZ,-17.13319373475939,32.83022771278116
pt.ine.add.MAD.36686,ESTR ANTÓNIO GEREMIAS DE SOUSA,,9270-129,SEIXAL PMZ,-17.132836436101098,32.830026389456954
pt.ine.add.MAD.36687,VIA EXPRESSO,,9270-129,SEIXAL PMZ,-17.101594200724225,32.818723306399065
pt.ine.add.MAD.36688,VIA EXPRESSO,,9270-129,SEIXAL PMZ,-17.101318479403087,32.8192600055239
pt.ine.add.MAD.36689,VIA EXPRESSO,,9270-129,SEIXAL PMZ,-17.0965661776652,32.8160931877666
pt.ine.add.MAD.36690,CAM AGRICOLA DA FONTE,,9270-129,SEIXAL PMZ,-17.109333630562325,32.81586060705704
pt.ine.add.MAD.36691,CAM AGRICOLA DA FONTE,,9270-129,SEIXAL PMZ,-17.109631090003987,32.81489065598361
pt.ine.add.MAD.36692,CAM AGRICOLA DA FONTE,,9270-129,SEIXAL PMZ,-17.109792517418544,32.81449113811562
pt.ine.add.MAD.36693,CAM AGRICOLA DA FONTE,,9270-129,SEIXAL PMZ,-17.110145102384298,32.81223968563769
pt.ine.add.MAD.36694,CAM AGRICOLA DA FONTE,,9270-129,SEIXAL PMZ,-17.111023070040915,32.81775297494016
pt.ine.add.MAD.36695,ER 221,,9270-129,SEIXAL PMZ,-17.110628157383744,32.81505420630601
pt.ine.add.MAD.36696,ER 221,,9270-129,SEIXAL PMZ,-17.11139822067735,32.81735886780895
pt.ine.add.MAD.37540,ER 221,,9270-129,SEIXAL PMZ,-17.112654133076276,32.8135681078159
pt.ine.add.MAD.37541,ER 221,,9270-129,SEIXAL PMZ,-17.11239280267738,32.813806989620375
pt.ine.add.MAD.54012,CAM AGRICOLA DA FONTE,,9270-129,SEIXAL PMZ,-17.108974770595676,32.81920335286526
pt.ine.add.MAD.54013,CAM AGRICOLA DA FONTE,,9270-129,SEIXAL PMZ,-17.10961293601216,32.815026233561596
pt.ine.add.MAD.54014,CAM AGRICOLA DA FONTE,,9270-129,SEIXAL PMZ,-17.113441349427816,32.806223100460926
pt.ine.add.MAD.56277,CAM CABEÇOS,,9270-013,ACHADAS DA CRUZ,-17.212506548963113,32.8403209774621
pt.ine.add.MAD.56278,CAM LAMEIROS,39,9270-011,ACHADAS DA CRUZ,-17.210346170520992,32.84280299944671
pt.ine.add.MAD.56455,CAM TELEFERICO,,9270-013,ACHADAS DA CRUZ,-17.210068843013634,32.841527368846585
pt.ine.add.MAD.56456,CAM FIGUEIRAS,,9270-013,ACHADAS DA CRUZ,-17.211010947119554,32.8416099163395
pt.ine.add.MAD.56457,,,9270-013,ACHADAS DA CRUZ,-17.21209528743907,32.85646111245195
pt.ine.add.MAD.56458,,,9270-013,ACHADAS DA CRUZ,-17.213737485369045,32.85504331340254
pt.ine.add.MAD.56459,CAM LOMBO DOS FORNEIROS,29,9270-037,PORTO MONIZ,-17.1945041690491,32.86060361316208
pt.ine.add.MAD.56460,CAM LOMBO DOS FORNEIROS,17,9270-037,PORTO MONIZ,-17.194352891836935,32.86010126875565
pt.ine.add.MAD.56461,CAM LOMBO DOS FORNEIROS,5,9270-037,PORTO MONIZ,-17.194082581658485,32.8595378876821
pt.ine.add.MAD.56462,CAM COXA,,9270-092,PORTO MONIZ,-17.19543291679382,32.8601364196726
pt.ine.add.MAD.56463,CAM COXA,78,9270-092,PORTO MONIZ,-17.19496723035177,32.859883077025806
pt.ine.add.MAD.56464,CAM CABEÇO CARRACHOTE,,9270-092,PORTO MONIZ,-17.194020102818037,32.85873639592576
pt.ine.add.MAD.56465,CAM IRMA MARY JANE WILSON,,9270-093,PORTO MONIZ,-17.19285311990399,32.86167864552126
pt.ine.add.MAD.56466,CAM VOLTA DO CARRO,,9270-093,PORTO MONIZ,-17.189797300980576,32.860812373271614
pt.ine.add.MAD.56467,CAM POMBAIS,,9270-042,PORTO MONIZ,-17.196596404623406,32.85922322256347
pt.ine.add.MAD.56660,CAM CAPELA,,9270-035,PORTO MONIZ,-17.172201289312873,32.85431976285144
pt.ine.add.MAD.56644,R CAPITÃES,,9270-051,PORTO MONIZ,-17.17174774152217,32.866393583806975
pt.ine.add.MAD.56645,CAM LADEIRA,,9270-034,PORTO MONIZ,-17.170754860189938,32.86423751225285
pt.ine.add.MAD.56646,ER 101,19,9270-095,PORTO MONIZ,-17.168245016290253,32.86516481068708
pt.ine.add.MAD.56647,CAM PEDRA MOLE DE BAIXO,97,9270-095,PORTO MONIZ,-17.173741297022964,32.86401429380749
pt.ine.add.MAD.56648,CAM PORTELA,,9270-091,PORTO MONIZ,-17.186611443921556,32.85943428047842
pt.ine.add.MAD.56649,ER 101,,9270-091,PORTO MONIZ,-17.18374983691319,32.858203745914146
pt.ine.add.MAD.56650,CAM LEVADA GRANDE,80,9270-036,PORTO MONIZ,-17.17831029211891,32.85772146753548
pt.ine.add.MAD.56651,SIT LEVADA GRANDE,,9270-036,PORTO MONIZ,-17.179122629750335,32.85773436910695
pt.ine.add.MAD.56652,CAM PICO ALTO,,9270-036,PORTO MONIZ,-17.17953281634684,32.85615810983969
pt.ine.add.MAD.56653,CAM BATALHAO,15,9270-036,PORTO MONIZ,-17.180745275901867,32.8568042967783
pt.ine.add.MAD.56654,CAM BATALHAO,,9270-036,PORTO MONIZ,-17.1805488881721,32.857511115587286
pt.ine.add.MAD.56655,CAM PE JOSE GONÇALVES COSTA,,9270-093,PORTO MONIZ,-17.18889991078045,32.85516487061652
pt.ine.add.MAD.56656,CAM ANEL,,9270-041,PORTO MONIZ,-17.184017429888026,32.84950584310302
pt.ine.add.MAD.56657,CAM LOMBINHO,,9270-035,PORTO MONIZ,-17.16994345242584,32.85636995045861
pt.ine.add.MAD.56658,CAM CAPELA,,9270-035,PORTO MONIZ,-17.170940795211166,32.85389075392433
pt.ine.add.MAD.56659,CAM CAPELA,,9270-035,PORTO MONIZ,-17.17069305060079,32.85424675240046
pt.ine.add.MAD.56840,SIT PONTE,,9270-035,PORTO MONIZ,-17.155367954836322,32.8545208173144
pt.ine.add.MAD.56841,CAM CASTANHEIRO,49,9270-035,PORTO MONIZ,-17.173249583973714,32.856123166773656
pt.ine.add.MAD.56842,SIT PONTE,,9270-106,RIBEIRA DA JANELA,-17.15391856322625,32.85423015911453
pt.ine.add.MAD.56843,CAM PADRE JOÃO DE SOUSA,4,9270-102,RIBEIRA DA JANELA,-17.157961174167706,32.84910140733573
pt.ine.add.MAD.56844,CAM CASAIS DE BAIXO,54,9270-102,RIBEIRA DA JANELA,-17.157859590197496,32.84843583204622
pt.ine.add.MAD.56845,CAM VOLTINHA,11,9270-101,RIBEIRA DA JANELA,-17.157608024630775,32.84642916972571
pt.ine.add.MAD.56846,CAM FUNDO,6,9270-104,RIBEIRA DA JANELA,-17.15427276207862,32.84678424911984
pt.ine.add.MAD.56847,CAM FUNDO,8,9270-104,RIBEIRA DA JANELA,-17.154196921008655,32.84674046551574
pt.ine.add.MAD.56848,ER 209,431,9270-104,RIBEIRA DA JANELA,-17.154146380529014,32.8442072898861
pt.ine.add.MAD.56849,VR VOLTAS DO LOMBO,5,9270-103,RIBEIRA DA JANELA,-17.160601205620747,32.84430337666874
pt.ine.add.MAD.56850,VR DESNATADEIRA,,9270-124,SEIXAL PMZ,-17.110223209706874,32.82547693551442
pt.ine.add.MAD.56851,R JOÃO FERNANDES CORREIA,14,9270-126,SEIXAL PMZ,-17.104840841244336,32.82415174961661
pt.ine.add.MAD.56852,SIT LOMBINHO,,9270-125,SEIXAL PMZ,-17.106528390353457,32.82369950077326
pt.ine.add.MAD.56853,ESTR REGIONAL ENG JORGE MANUEL JARDIM FERNANDES,,9270-125,SEIXAL PMZ,-17.106528390353457,32.82369950077326
pt.ine.add.MAD.56854,CAM SERRA DE AGUA,,9270-130,SEIXAL PMZ,-17.103947300436314,32.82340023790999
pt.ine.add.MAD.58532,CAM LAMEIROS,,9270-014,ACHADAS DA CRUZ,-17.20873447098165,32.84285852200394
pt.ine.add.MAD.58533,CAM ACHADA DA ARRUDA,,9270-011,ACHADAS DA CRUZ,-17.211566756778044,32.84420624027431
pt.ine.add.MAD.58534,BC LOMBO DA RELVA,18,9270-014,ACHADAS DA CRUZ,-17.20525431819418,32.842523139941825
pt.ine.add.MAD.58535,CAM LAMEIROS,2,9270-014,ACHADAS DA CRUZ,-17.205211331965003,32.841649167787615
pt.ine.add.MAD.58536,CAM LAMEIROS,,9270-011,ACHADAS DA CRUZ,-17.209882549744002,32.84263083453269
pt.ine.add.MAD.58537,,,9270-013,ACHADAS DA CRUZ,-17.21415988340805,32.854413607847924
pt.ine.add.MAD.58538,CAM VALGAO,,9270-092,PORTO MONIZ,-17.198345012512654,32.86297096635015
pt.ine.add.MAD.58668,ER 101,,9270-092,PORTO MONIZ,-17.1929870595341,32.85843889098207
pt.ine.add.MAD.58669,CAM IRMA MARY JANE WILSON,,9270-093,PORTO MONIZ,-17.192353585029768,32.86178660046398
pt.ine.add.MAD.58670,ER 101,,9270-093,PORTO MONIZ,-17.19031650432537,32.859766227733026
pt.ine.add.MAD.58671,ER 101,,9270-093,PORTO MONIZ,-17.192874670870005,32.85560925769969
pt.ine.add.MAD.58672,R POÇO DO VELOSA,2,9270-035,PORTO MONIZ,-17.168511088888625,32.86599886124554
pt.ine.add.MAD.58673,CAM PEDRA MOLE,7,9270-039,PORTO MONIZ,-17.176847846030814,32.863897127962474
pt.ine.add.MAD.58674,CAM CASTANHEIRO,40,9270-035,PORTO MONIZ,-17.174740015756388,32.85634074144183
pt.ine.add.MAD.58675,CAM TRANCAS,,9270-035,PORTO MONIZ,-17.168197070571214,32.857049528880175
pt.ine.add.MAD.58676,CAM CRUZ,,9270-091,PORTO MONIZ,-17.185808829349504,32.85677000619166
pt.ine.add.MAD.58677,ESTR ANTIGA EN 101,,9270-036,PORTO MONIZ,-17.180661644616354,32.85775263219036
pt.ine.add.MAD.58678,CAM LEVADA GRANDE,,9270-036,PORTO MONIZ,-17.17816362008463,32.8569665199917
pt.ine.add.MAD.58679,CAM CRUZ,,9270-091,PORTO MONIZ,-17.185625700163307,32.85540249106102
pt.ine.add.MAD.58680,CAM SALAO,,9270-035,PORTO MONIZ,-17.171925903551493,32.85704795164697
pt.ine.add.MAD.58681,CAM GORGULHO,,9270-035,PORTO MONIZ,-17.17195820672122,32.856181672258664
pt.ine.add.MAD.58806,CAM CERCA NOVA,,9270-035,PORTO MONIZ,-17.17410887716397,32.85368241750764
pt.ine.add.MAD.58807,CAM CAPELA,,9270-035,PORTO MONIZ,-17.170117952681597,32.853445120926416
pt.ine.add.MAD.58808,CAM PADRE JOÃO DE SOUSA,5,9270-102,RIBEIRA DA JANELA,-17.157948094095087,32.84900243562481
pt.ine.add.MAD.58809,ER 209,150,9270-102,RIBEIRA DA JANELA,-17.16018626864458,32.84789968394233
pt.ine.add.MAD.58810,CAM VOLTINHA,36,9270-101,RIBEIRA DA JANELA,-17.15572703743065,32.846398475846236
pt.ine.add.MAD.58811,ER 101,81,9270-128,SEIXAL PMZ,-17.112286564248105,32.82510845151715
pt.ine.add.MAD.58812,ER 101,,9270-123,SEIXAL PMZ,-17.112940180233398,32.8247457108021
pt.ine.add.MAD.58813,R JOÃO FERNANDES CORREIA,,9270-126,SEIXAL PMZ,-17.106488386028353,32.82471921948247
pt.ine.add.MAD.58814,CAM MUNICIPAL HENRIQUE RODRIGUES,,9270-126,SEIXAL PMZ,-17.105716948021062,32.824164063600506
pt.ine.add.MAD.58815,ER ENG JORGE MANUEL JARDIM FERNANDES,,9270-121,SEIXAL PMZ,-17.106721715640667,32.825553974352204
pt.ine.add.MAD.58816,VR CORREIOS,,9270-121,SEIXAL PMZ,-17.109210019905866,32.82508820442744
pt.ine.add.MAD.58817,CAM FARROBO,7,9270-123,SEIXAL PMZ,-17.110949013056644,32.82500477048419
pt.ine.add.MAD.58818,CAM COR MACHADO,,9270-127,SEIXAL PMZ,-17.105598419906116,32.8218574237421
pt.ine.add.MAD.58819,CAM COR MACHADO,,9270-129,SEIXAL PMZ,-17.105500883930503,32.82134503291926
pt.ine.add.MAD.59934,,,9270-013,ACHADAS DA CRUZ,-17.218983811128744,32.850342248924186
pt.ine.add.MAD.59935,,,9270-013,ACHADAS DA CRUZ,-17.21424568851837,32.85528681496029
pt.ine.add.MAD.59936,CAM COXA,,9270-092,PORTO MONIZ,-17.197707981492325,32.86183689947657
pt.ine.add.MAD.59937,CAM COXA,4,9270-092,PORTO MONIZ,-17.197075191610192,32.86087409307511
pt.ine.add.MAD.59938,ER 101,,9270-092,PORTO MONIZ,-17.192834212247348,32.85830630350704
pt.ine.add.MAD.59939,CAM RIBEIRO CHARCO,,9270-093,PORTO MONIZ,-17.19271955713291,32.859291259045875
pt.ine.add.MAD.59940,CAM VOLTA DO CARRO,79,9270-093,PORTO MONIZ,-17.190167922776403,32.86154534639571
pt.ine.add.MAD.59941,CAM IRMA MARY JANE WILSON,,9270-093,PORTO MONIZ,-17.192145334433654,32.86157382303217
pt.ine.add.MAD.59942,CAM POÇO DA EIRA VELHA,,9270-042,PORTO MONIZ,-17.198635168622594,32.86000801767715
pt.ine.add.MAD.59943,CAM LOMBO BRASIL,,9270-042,PORTO MONIZ,-17.19766731367917,32.858023071346224
pt.ine.add.MAD.59944,R DR JOÃO FRANCA COSME,104,9270-052,PORTO MONIZ,-17.171968048498513,32.867102170413695
pt.ine.add.MAD.59945,R DR JOÃO FRANCA COSME,,9270-052,PORTO MONIZ,-17.17212914476319,32.86713544362131
pt.ine.add.MAD.59946,R ALFARROBEIRAS,6,9270-095,PORTO MONIZ,-17.1686457755897,32.86714179818634
pt.ine.add.MAD.60075,R ENG AMÉRICO,,9270-095,PORTO MONIZ,-17.168908709206146,32.86740777457975
pt.ine.add.MAD.60076,BC PASSAL,2,9270-095,PORTO MONIZ,-17.166618857708983,32.866401395898414
pt.ine.add.MAD.60077,R ESCOLA VELHA,,9270-151,PORTO MONIZ,-17.172132130845245,32.86681976572047
pt.ine.add.MAD.60078,R CAPITÃES,9,9270-051,PORTO MONIZ,-17.171695126018662,32.86598869263518
pt.ine.add.MAD.60079,R ESCOLA VELHA,10,9270-040,PORTO MONIZ,-17.17337191830033,32.86639241821474
pt.ine.add.MAD.60080,CAM PEDRA MOLE,,9270-095,PORTO MONIZ,-17.175038394125686,32.86462299102766
pt.ine.add.MAD.60081,ESTR ANTIGA ER 101,,9270-091,PORTO MONIZ,-17.185636366193933,32.858450343192864
pt.ine.add.MAD.60082,CAM CRUZ,,9270-091,PORTO MONIZ,-17.185803521650346,32.8565536701897
pt.ine.add.MAD.60083,CAM CRUZ,,9270-091,PORTO MONIZ,-17.185787405404756,32.85720323815739
pt.ine.add.MAD.60084,CAM BATALHAO,,9270-091,PORTO MONIZ,-17.180541436200656,32.85589704528398
pt.ine.add.MAD.60085,SIT PICO ALTO,,9270-041,PORTO MONIZ,-17.18728277424927,32.852397625418334
pt.ine.add.MAD.60086,CAM LOMBINHO,,9270-035,PORTO MONIZ,-17.17047065974417,32.85739786072149
pt.ine.add.MAD.60087,CAM GORGULHO,,9270-035,PORTO MONIZ,-17.170326829061093,32.85631820844682
pt.ine.add.MAD.60088,CAM CAPELA,,9270-035,PORTO MONIZ,-17.169934283081194,32.853800006152966
pt.ine.add.MAD.60251,CAM PIQUINHO ENTRADA 1,3,9270-106,RIBEIRA DA JANELA,-17.15511925755677,32.85307321393431
pt.ine.add.MAD.60252,CAM TERRA DA FERRA,14,9270-104,RIBEIRA DA JANELA,-17.154215019732906,32.84527924484553
pt.ine.add.MAD.60253,ER 101,,9270-128,SEIXAL PMZ,-17.11428435213277,32.8251288191659
pt.ine.add.MAD.60254,CAM FAJA DA PARREIRA,,9270-122,SEIXAL PMZ,-17.1202716077735,32.826281019618115
pt.ine.add.MAD.60255,CAM FARROBO,17,9270-124,SEIXAL PMZ,-17.1105008129211,32.82502134907786
pt.ine.add.MAD.60256,VR DESNATADEIRA,,9270-124,SEIXAL PMZ,-17.110706854807532,32.82560404936616
pt.ine.add.MAD.60257,VR DESNATADEIRA,,9270-124,SEIXAL PMZ,-17.110706854807532,32.82560404936616
pt.ine.add.MAD.60258,VR MANUEL ÁLVARO DA SILVA,,9270-126,SEIXAL PMZ,-17.10604738569212,32.82277873291325
pt.ine.add.MAD.60259,R JOAO AZEVEDO,2,9270-121,SEIXAL PMZ,-17.10742086199225,32.82485682576588
pt.ine.add.MAD.60260,R JOÃO DE AZEVEDO,12,9270-121,SEIXAL PMZ,-17.108720221248554,32.824248758952166
pt.ine.add.MAD.60261,CAM MOINHOS,,9270-124,SEIXAL PMZ,-17.110093840570357,32.824523199684805
pt.ine.add.MAD.60262,R JOÃO FERNANDES CORREIA,31,9270-130,SEIXAL PMZ,-17.10432110639095,32.82204123619469
pt.ine.add.MAD.60263,CAM AGRICOLA DA FONTE,,9270-129,SEIXAL PMZ,-17.10896288282075,32.81779672948836
pt.ine.add.MAD.60264,CAM AGRICOLA DA FONTE,,9270-129,SEIXAL PMZ,-17.11285321135748,32.8052861287235
pt.ine.add.MAD.62769,CAM ACHADA DA ARRUDA,,9270-011,ACHADAS DA CRUZ,-17.213478491504155,32.84504715267438
pt.ine.add.MAD.62770,ESTR ANTIGA ER 101,,9270-014,ACHADAS DA CRUZ,-17.20595186529022,32.841356557852514
pt.ine.add.MAD.62771,CAM PADRE ANTÓNIO CAMARA,,9270-013,ACHADAS DA CRUZ,-17.20935642211563,32.84036763643453
pt.ine.add.MAD.62772,,,9270-013,ACHADAS DA CRUZ,-17.21870750944987,32.850401257417445
pt.ine.add.MAD.64927,CAM FIGUEIRAS,24,9270-013,ACHADAS DA CRUZ,-17.21044251454127,32.84108791081604
pt.ine.add.MAD.64928,,,9270-013,ACHADAS DA CRUZ,-17.213536368720177,32.85511901558764
pt.ine.add.MAD.64929,CAM ACHADA,,9270-014,ACHADAS DA CRUZ,-17.21065680809138,32.84714409803
pt.ine.add.MAD.64930,CAM COXA CCI,CCI 201,9270-092,PORTO MONIZ,-17.195099131328554,32.860899777471595
pt.ine.add.MAD.64931,CAM COXA,,9270-092,PORTO MONIZ,-17.194942538589245,32.85974824283427
pt.ine.add.MAD.64932,CAM VOLTA DO CARRO,,9270-093,PORTO MONIZ,-17.192132339617824,32.86278244176921
pt.ine.add.MAD.64933,,,9270-093,PORTO MONIZ,-17.19271505972141,32.85997669408595
pt.ine.add.MAD.64934,CAM VALGAO,188,9270-093,PORTO MONIZ,-17.189877123357814,32.86362454418126
pt.ine.add.MAD.64935,CAM VOLTA DO CARRO,81,9270-093,PORTO MONIZ,-17.190175721821667,32.86142797777076
pt.ine.add.MAD.64936,CAM IRMA MARY JANE WILSON,,9270-093,PORTO MONIZ,-17.19227685751105,32.86127392853676
pt.ine.add.MAD.64937,CAM IRMA DO PERPETUO SOCORRO,25,9270-093,PORTO MONIZ,-17.189086471122486,32.8601484796219
pt.ine.add.MAD.64938,CAM TERRA COIMEIRA,,9270-093,PORTO MONIZ,-17.19143769106104,32.857131409057764
pt.ine.add.MAD.64939,ER 101,,9270-093,PORTO MONIZ,-17.187895322497816,32.859069146604234
pt.ine.add.MAD.64940,CAM LOMBO BRASIL,,9270-042,PORTO MONIZ,-17.197661309854777,32.857779695326506
pt.ine.add.MAD.65111,CAM LOMBO BRASIL,42,9270-042,PORTO MONIZ,-17.196458971348985,32.85668260639564
pt.ine.add.MAD.65112,CAM LOMBO BRASIL,60,9270-042,PORTO MONIZ,-17.194572925460403,32.856021343082354
pt.ine.add.MAD.65113,R CABO CALHAU,,9270-040,PORTO MONIZ,-17.174569617318298,32.86686757872819
pt.ine.add.MAD.65114,CAM PEDRA MOLE,,9270-095,PORTO MONIZ,-17.175187485073618,32.864602361908695
pt.ine.add.MAD.65115,CAM PEDRA MOLE DE BAIXO,,9270-095,PORTO MONIZ,-17.173650328798164,32.86466516289823
pt.ine.add.MAD.65116,CAM PEDRA MOLE,48,9270-095,PORTO MONIZ,-17.17219936716245,32.86519537796484
pt.ine.add.MAD.65117,ER 101,,9270-095,PORTO MONIZ,-17.167737378342956,32.86538102359447
pt.ine.add.MAD.65118,ER 101,25,9270-095,PORTO MONIZ,-17.16849916351696,32.86507022463383
pt.ine.add.MAD.65119,CAM FAZENDINHA,,9270-035,PORTO MONIZ,-17.17153548635924,32.85900259756703
pt.ine.add.MAD.65120,CAM ASSOMADA,,9270-035,PORTO MONIZ,-17.169069975173155,32.8582337737043
pt.ine.add.MAD.65121,CAM CABEÇO,,9270-034,PORTO MONIZ,-17.180271820310764,32.85885059207637
pt.ine.add.MAD.65122,CAM CABEÇO,,9270-034,PORTO MONIZ,-17.180586837924064,32.85906152862033
pt.ine.add.MAD.65300,SIT LEVADA GRANDE,,9270-036,PORTO MONIZ,-17.179957359864847,32.85604249580902
pt.ine.add.MAD.65301,CAM PE JOSE GONÇALVES COSTA,,9270-093,PORTO MONIZ,-17.188565079875552,32.85501742682628
pt.ine.add.MAD.65302,CAM CAPELA,54,9270-035,PORTO MONIZ,-17.172779214489402,32.85392195417579
pt.ine.add.MAD.65303,CAM CASTANHEIRO,,9270-033,PORTO MONIZ,-17.175752396232358,32.856232953934345
pt.ine.add.MAD.65304,CAM CASTANHEIRO,,9270-035,PORTO MONIZ,-17.172569502781563,32.85583739217947
pt.ine.add.MAD.65305,CAM POÇO DA ACHADA,,9270-033,PORTO MONIZ,-17.17488535224947,32.856166874103295
pt.ine.add.MAD.65306,CAM JUNQUEIRA,16,9270-033,PORTO MONIZ,-17.175399984147624,32.85448961324662
pt.ine.add.MAD.65307,VR MURTEIRA,8,9270-103,RIBEIRA DA JANELA,-17.160399270534658,32.84566857383229
pt.ine.add.MAD.65308,CAM PEDREGAL,3,9270-104,RIBEIRA DA JANELA,-17.15319616935013,32.84644206811902
pt.ine.add.MAD.65309,VR PICO,9,9270-101,RIBEIRA DA JANELA,-17.158452500545117,32.846008792588115
pt.ine.add.MAD.65310,CAM TERRA DA FERRA,35A,9270-103,RIBEIRA DA JANELA,-17.159085735079568,32.8443656156853
pt.ine.add.MAD.65311,ER 101,82,9270-128,SEIXAL PMZ,-17.113823762992087,32.824622570313025
pt.ine.add.MAD.65312,CAM FAJA DA PARREIRA,,9270-122,SEIXAL PMZ,-17.120200477305694,32.82598462880766
pt.ine.add.MAD.65313,VR CALHAU MIUDO,,9270-122,SEIXAL PMZ,-17.119383093897785,32.82619687386631
pt.ine.add.MAD.65314,CAM MUNICIPAL HENRIQUE RODRIGUES,,9270-126,SEIXAL PMZ,-17.10549132979297,32.82320292318573
pt.ine.add.MAD.65465,CAM MUNICIPAL HENRIQUE RODRIGUES,8,9270-126,SEIXAL PMZ,-17.105627493643926,32.82399422499943
pt.ine.add.MAD.65466,ER ENG JORGE MANUEL JARDIM FERNANDES,,9270-121,SEIXAL PMZ,-17.10888778530683,32.825463377550705
pt.ine.add.MAD.65467,VR CORONAL ABEL PEREIRA DO VALE,,9270-125,SEIXAL PMZ,-17.10679380961553,32.82363190554736
pt.ine.add.MAD.65468,CAM ÁLVARO GOUVEIA DA SILVA,8,9270-126,SEIXAL PMZ,-17.105227226775227,32.822873696918705
pt.ine.add.MAD.65469,VR PORTADA,,9270-127,SEIXAL PMZ,-17.10594895839052,32.822681190333405
pt.ine.add.MAD.65470,CAM AGRICOLA DA FONTE,,9270-129,SEIXAL PMZ,-17.11309062427715,32.80358671650377
pt.ine.add.MAD.67783,VR BORDA,8,9270-103,RIBEIRA DA JANELA,-17.161413862094623,32.84433442688353
pt.ine.add.MAD.67266,CAM VALE,3,9270-011,ACHADAS DA CRUZ,-17.213280082682534,32.84523101980393
pt.ine.add.MAD.67267,CAM EIRINHA,,9270-011,ACHADAS DA CRUZ,-17.21245222403683,32.8415754150012
pt.ine.add.MAD.67268,,,9270-013,ACHADAS DA CRUZ,-17.21252688141398,32.85620097920043
pt.ine.add.MAD.67269,,,9270-013,ACHADAS DA CRUZ,-17.2126985831234,32.855801158249655
pt.ine.add.MAD.67270,,,9270-013,ACHADAS DA CRUZ,-17.21372718308922,32.85462867706674
pt.ine.add.MAD.67271,CAM RIBEIRO CHARCO,,9270-092,PORTO MONIZ,-17.193711690416627,32.85922876990237
pt.ine.add.MAD.67437,CAM RIBEIRO CHARCO,,9270-092,PORTO MONIZ,-17.19395311295662,32.85905319567203
pt.ine.add.MAD.67438,CAM IRMA MARY JANE WILSON,,9270-093,PORTO MONIZ,-17.19311965677095,32.86208879201303
pt.ine.add.MAD.67439,CAM PICO,15,9270-093,PORTO MONIZ,-17.18460898591111,32.86186802924077
pt.ine.add.MAD.67440,CAM PICO,,9270-093,PORTO MONIZ,-17.186312378856957,32.86117995620414
pt.ine.add.MAD.67441,ER 101,,9270-093,PORTO MONIZ,-17.186944576679412,32.85907675866786
pt.ine.add.MAD.67442,ER 101,,9270-093,PORTO MONIZ,-17.186944576679412,32.85907675866786
pt.ine.add.MAD.67443,CAM LOMBO BRASIL,,9270-042,PORTO MONIZ,-17.197838853014886,32.85847996624071
pt.ine.add.MAD.67444,CAM POMBAIS,,9270-042,PORTO MONIZ,-17.197658839026452,32.859411966599765
pt.ine.add.MAD.67445,CAM POMBAIS,,9270-042,PORTO MONIZ,-17.19959280112251,32.85811546918331
pt.ine.add.MAD.67446,CAM VALINHO,28,9270-042,PORTO MONIZ,-17.19475266086174,32.85681175919891
pt.ine.add.MAD.67447,CAM VALINHO,,9270-042,PORTO MONIZ,-17.196932636551452,32.85769330202922
pt.ine.add.MAD.67448,R ALFARROBEIRAS,2,9270-095,PORTO MONIZ,-17.16937377203188,32.866759436528845
pt.ine.add.MAD.67449,R FIGUEIRAL,,9270-150,PORTO MONIZ,-17.16714310773814,32.866428382748566
pt.ine.add.MAD.67450,BC FIGUEIRAL,,9270-150,PORTO MONIZ,-17.16652608135266,32.866980149040394
pt.ine.add.MAD.67611,R LUGAR BICA,18,9270-151,PORTO MONIZ,-17.172920800205084,32.86585918514392
pt.ine.add.MAD.67612,CAM PEDRA MOLE DE BAIXO,,9270-095,PORTO MONIZ,-17.172959374221612,32.86481243999122
pt.ine.add.MAD.67613,PC LYRA,,9270-053,PORTO MONIZ,-17.17154572324895,32.865558428598256
pt.ine.add.MAD.67614,SIT LAMACEIROS,,9270-035,PORTO MONIZ,-17.169476200755184,32.86043611345215
pt.ine.add.MAD.67615,CAM TRANCAS,,9270-035,PORTO MONIZ,-17.169246557950633,32.857148562249165
pt.ine.add.MAD.67616,CAM ASSOMADA,,9270-035,PORTO MONIZ,-17.16918723656418,32.85822272192257
pt.ine.add.MAD.67617,CAM BATALHAO,,9270-036,PORTO MONIZ,-17.180599419484857,32.8573930021063
pt.ine.add.MAD.67618,CAM CRUZ,,9270-091,PORTO MONIZ,-17.18602381544422,32.85638749816839
pt.ine.add.MAD.67619,CAM PE JOSE GONÇALVES COSTA,1,9270-093,PORTO MONIZ,-17.188619090827828,32.85547639251631
pt.ine.add.MAD.67620,SIT PICO ALTO,,9270-041,PORTO MONIZ,-17.184918318068636,32.85313333008223
pt.ine.add.MAD.67621,VR LOMBINHO,,9270-035,PORTO MONIZ,-17.170206935486664,32.85622109205884
pt.ine.add.MAD.67622,CAM JUNQUEIRA,,9270-035,PORTO MONIZ,-17.17348274443732,32.85385562247111
pt.ine.add.MAD.67623,SIT PONTE,,9270-035,PORTO MONIZ,-17.154792557156465,32.85458483987469
pt.ine.add.MAD.67624,ESTR ANTIGA ER 101,,9270-035,PORTO MONIZ,-17.154909380297322,32.8545557732311
pt.ine.add.MAD.67625,CAM CASTANHEIRO,,9270-033,PORTO MONIZ,-17.1751094077794,32.856153959610495
pt.ine.add.MAD.67626,CAM JUNQUEIRA,,9270-033,PORTO MONIZ,-17.176162969828837,32.85423285646305
pt.ine.add.MAD.67627,CAM PADRE JOÃO DE SOUSA,3,9270-102,RIBEIRA DA JANELA,-17.157874213784044,32.849039782023326
pt.ine.add.MAD.67780,CAM COVA DO PALHEIRO,37,9270-104,RIBEIRA DA JANELA,-17.153466617048622,32.847023579548384
pt.ine.add.MAD.67781,CAM RIBEIRO ESCURO,13,9270-104,RIBEIRA DA JANELA,-17.152427973874808,32.84559858327479
pt.ine.add.MAD.67782,VR ESCOLA,5,9270-103,RIBEIRA DA JANELA,-17.160514085492625,32.845116496292256
pt.ine.add.MAD.67784,VIA EXPRESSO,,9270-122,SEIXAL PMZ,-17.11810527465197,32.82546099340775
pt.ine.add.MAD.67785,VIA EXPRESSO,,9270-122,SEIXAL PMZ,-17.11810527465197,32.82546099340775
pt.ine.add.MAD.67786,VIA EXPRESSO,4,9270-122,SEIXAL PMZ,-17.115050291805588,32.82544954353827
pt.ine.add.MAD.67787,VR MANUEL ÁLVARO DA SILVA,,9270-126,SEIXAL PMZ,-17.106200862483714,32.823398398732095
pt.ine.add.MAD.67788,CAM MUNICIPAL HENRIQUE RODRIGUES,,9270-126,SEIXAL PMZ,-17.105866454475894,32.823710642498185
pt.ine.add.MAD.67789,CAM MUNICIPAL HENRIQUE RODRIGUES,2,9270-126,SEIXAL PMZ,-17.10516074900701,32.82367742657911
pt.ine.add.MAD.67790,ESTR REGIONAL ENG JORGE MANUEL JARDIM FERNANDES,,9270-125,SEIXAL PMZ,-17.10659262893366,32.82415834240619
pt.ine.add.MAD.67791,CAM DELFINA FERNANDES CORREIA,7,9270-130,SEIXAL PMZ,-17.10351136677371,32.82257790095636
pt.ine.add.MAD.67792,CAM DELFINA FERNANDES CORREIA,7,9270-130,SEIXAL PMZ,-17.10351136677371,32.82257790095636
pt.ine.add.MAD.67793,CAM DELFINA FERNANDES CORREIA,7,9270-130,SEIXAL PMZ,-17.10351136677371,32.82257790095636
pt.ine.add.MAD.67794,CAM DELFINA FERNANDES CORREIA,6,9270-130,SEIXAL PMZ,-17.103561724016522,32.822901706333504
pt.ine.add.MAD.67958,CAM DELFINA FERNANDES CORREIA,6,9270-130,SEIXAL PMZ,-17.103561724016522,32.822901706333504
pt.ine.add.MAD.70667,BC LOMBO DA RELVA,,9270-014,ACHADAS DA CRUZ,-17.205167359426255,32.84289440416387
pt.ine.add.MAD.70668,CAM LAMEIROS,,9270-014,ACHADAS DA CRUZ,-17.206665557679983,32.84213753910716
pt.ine.add.MAD.70669,,,9270-013,ACHADAS DA CRUZ,-17.213113447241437,32.85529783850627
pt.ine.add.MAD.70874,,,9270-013,ACHADAS DA CRUZ,-17.21406062725036,32.855578660833174
pt.ine.add.MAD.70873,,,9270-013,ACHADAS DA CRUZ,-17.21418086696529,32.854828055004695
pt.ine.add.MAD.70875,CAM LOMBO DOS FORNEIROS,,9270-037,PORTO MONIZ,-17.194720862138244,32.86115891627395
pt.ine.add.MAD.70876,CAM COXA,,9270-092,PORTO MONIZ,-17.194443705120733,32.859450390719864
pt.ine.add.MAD.70877,CAM VALGAO,,9270-092,PORTO MONIZ,-17.19539985783609,32.8635637773777
pt.ine.add.MAD.70878,CAM COXA,4,9270-092,PORTO MONIZ,-17.19811182521873,32.8626143524722
pt.ine.add.MAD.70879,CAM RIBEIRO CHARCO,,9270-092,PORTO MONIZ,-17.193529020210185,32.85918688492773
pt.ine.add.MAD.70880,CAM RIBEIRO CHARCO,,9270-092,PORTO MONIZ,-17.193529020210185,32.85918688492773
pt.ine.add.MAD.70881,CAM VALGAO,,9270-093,PORTO MONIZ,-17.193638606512984,32.86493834411428
pt.ine.add.MAD.70882,CAM VOLTA DO CARRO,72,9270-093,PORTO MONIZ,-17.190438699215452,32.86169390710254
pt.ine.add.MAD.70883,ER 101,,9270-093,PORTO MONIZ,-17.19085723855319,32.85916157764112
pt.ine.add.MAD.70884,CAM CRUZ,22,9270-093,PORTO MONIZ,-17.186151563339646,32.85767481969103
pt.ine.add.MAD.70885,CAM POMBAIS,,9270-042,PORTO MONIZ,-17.194525148417252,32.859286640419064
pt.ine.add.MAD.70886,CAM POÇO DA EIRA VELHA,,9270-042,PORTO MONIZ,-17.199336495401177,32.86028425582488
pt.ine.add.MAD.71076,CAM CABEÇO CARRACHOTE,,9270-042,PORTO MONIZ,-17.193970081321133,32.85800682822449
pt.ine.add.MAD.71077,CAM CABEÇO CARRACHOTE,,9270-042,PORTO MONIZ,-17.19363614570212,32.85746259768904
pt.ine.add.MAD.71078,CAM LOMBO BRASIL,,9270-042,PORTO MONIZ,-17.19793521508826,32.85675586638492
pt.ine.add.MAD.71079,BC PASSAL,9,9270-095,PORTO MONIZ,-17.166873514655194,32.86676671711345
pt.ine.add.MAD.71080,R CAPITÃES,,9270-051,PORTO MONIZ,-17.17153183409998,32.86586527804443
pt.ine.add.MAD.71081,R FRANCISCO MONIZ O VELHO,16,9270-035,PORTO MONIZ,-17.169717304552453,32.86550900677098
pt.ine.add.MAD.71082,ER 101,49,9270-034,PORTO MONIZ,-17.169660965932657,32.86495087484036
pt.ine.add.MAD.71083,R SERENO,29,9270-095,PORTO MONIZ,-17.168648257180312,32.865049603222666
pt.ine.add.MAD.71084,CAM PEDRA MOLE,,9270-039,PORTO MONIZ,-17.17633363033397,32.86384295328437
pt.ine.add.MAD.71085,CAM FAZENDINHA,30,9270-035,PORTO MONIZ,-17.17237412448184,32.85965535665985
pt.ine.add.MAD.71086,CAM ASSOMADA,1,9270-035,PORTO MONIZ,-17.170648347730125,32.85767433171984
pt.ine.add.MAD.71087,ER 101,104,9270-091,PORTO MONIZ,-17.183910551645738,32.857786117487734
pt.ine.add.MAD.71088,CAM FONTE DO REI,7,9270-036,PORTO MONIZ,-17.178665871142485,32.855659196152104
pt.ine.add.MAD.71089,CAM PE JOSE GONÇALVES COSTA,,9270-093,PORTO MONIZ,-17.188937707424287,32.85539867342708
pt.ine.add.MAD.71090,SIT LEVADA GRANDE,,9270-041,PORTO MONIZ,-17.17970630909848,32.85233150355657
pt.ine.add.MAD.71091,CAM PICO ALTO,147,9270-041,PORTO MONIZ,-17.187930999290426,32.85138530411378
pt.ine.add.MAD.71259,R MORGADA,,9270-035,PORTO MONIZ,-17.169183861998224,32.853695790919396
pt.ine.add.MAD.71260,CAM CASTANHEIRO,,9270-035,PORTO MONIZ,-17.17051618920878,32.854881075337886
pt.ine.add.MAD.71261,CAM CAPELA,,9270-035,PORTO MONIZ,-17.169840142832033,32.853882800632455
pt.ine.add.MAD.71262,CAM PICO ALTO,,9270-041,PORTO MONIZ,-17.195123663035357,32.84975329191001
pt.ine.add.MAD.71263,ER 209,313,9270-101,RIBEIRA DA JANELA,-17.155168260218367,32.84758945661157
pt.ine.add.MAD.71264,TV ESCOLA,1,9270-103,RIBEIRA DA JANELA,-17.15991261539343,32.84542447576477
pt.ine.add.MAD.71265,ER 209,282,9270-103,RIBEIRA DA JANELA,-17.160462194487184,32.84473863897078
pt.ine.add.MAD.71266,SIT CASAIS DE CIMA,,9270-103,RIBEIRA DA JANELA,-17.160412243206967,32.84400003035037
pt.ine.add.MAD.71267,CAM MANUEL IDELFONSO DE CASTRO,,9270-123,SEIXAL PMZ,-17.11183603438904,32.823673162308
pt.ine.add.MAD.71268,VR CALHAU MIUDO,,9270-122,SEIXAL PMZ,-17.119324142246633,32.82596340266046
pt.ine.add.MAD.71269,CAM FARROBO,,9270-124,SEIXAL PMZ,-17.110882170319503,32.82533956737883
pt.ine.add.MAD.71270,ER ENG JORGE MANUEL JARDIM FERNANDES,,9270-121,SEIXAL PMZ,-17.109056052876703,32.82535232434994
pt.ine.add.MAD.71271,R JOÃO DE AZEVEDO,,9270-121,SEIXAL PMZ,-17.10904115356918,32.82427040435557
pt.ine.add.MAD.71272,R JOÃO DE AZEVEDO,11,9270-121,SEIXAL PMZ,-17.109002730612453,32.824000509156164
pt.ine.add.MAD.71427,CAM DELFINA FERNANDES CORREIA,,9270-130,SEIXAL PMZ,-17.103831276631706,32.82210358115035
pt.ine.add.MAD.71428,ESTR ANTÓNIO GEREMIAS DE SOUSA,,9270-129,SEIXAL PMZ,-17.13260693189728,32.83025575228751
pt.ine.add.MAD.74876,CAM CRUZ,,9270-093,PORTO MONIZ,-17.186416950963014,32.8580399125492
pt.ine.add.MAD.74877,CAM POMBAIS,,9270-042,PORTO MONIZ,-17.195512819954455,32.85947671475275
pt.ine.add.MAD.73180,BC LOMBO DA RELVA,,9270-014,ACHADAS DA CRUZ,-17.20541654845355,32.84346715226221
pt.ine.add.MAD.73181,CAM LAMEIROS,,9270-014,ACHADAS DA CRUZ,-17.205255827252554,32.84172052605181
pt.ine.add.MAD.73182,CAM EIRINHA,,9270-012,ACHADAS DA CRUZ,-17.211305288216117,32.840125790738796
pt.ine.add.MAD.73348,CAM RIBEIRO CHARCO,17,9270-092,PORTO MONIZ,-17.192957875335598,32.858989491295354
pt.ine.add.MAD.73349,CAM VOLTA DO CARRO,43,9270-093,PORTO MONIZ,-17.1913299741623,32.86274239774445
pt.ine.add.MAD.73350,CAM IRMA MARY JANE WILSON,9,9270-093,PORTO MONIZ,-17.19231276451264,32.860128032835064
pt.ine.add.MAD.73351,CAM TERRA COIMEIRA,,9270-093,PORTO MONIZ,-17.191445931840253,32.85703206829464
pt.ine.add.MAD.73352,ER 101,,9270-093,PORTO MONIZ,-17.19090376634421,32.85888120916943
pt.ine.add.MAD.73353,ER 101,,9270-093,PORTO MONIZ,-17.19152960136204,32.859564617717346
pt.ine.add.MAD.73354,ER 101,,9270-093,PORTO MONIZ,-17.19152960136204,32.859564617717346
pt.ine.add.MAD.73355,ER 101,,9270-093,PORTO MONIZ,-17.19152960136204,32.859564617717346
pt.ine.add.MAD.73356,ER 101,,9270-093,PORTO MONIZ,-17.19152960136204,32.859564617717346
pt.ine.add.MAD.73357,ER 101,,9270-093,PORTO MONIZ,-17.19152960136204,32.859564617717346
pt.ine.add.MAD.73358,CAM POÇO DA EIRA VELHA,,9270-042,PORTO MONIZ,-17.19918986685393,32.860404066276445
pt.ine.add.MAD.73359,CAM POMBAIS,54,9270-042,PORTO MONIZ,-17.199409465566788,32.85847940684563
pt.ine.add.MAD.73360,CAM POMBAIS,54,9270-042,PORTO MONIZ,-17.199409465566788,32.85847940684563
pt.ine.add.MAD.74878,CAM POMBAIS,,9270-042,PORTO MONIZ,-17.197411864487854,32.85936219956368
pt.ine.add.MAD.74879,CAM POMBAIS,,9270-042,PORTO MONIZ,-17.200219121405144,32.85751829268411
pt.ine.add.MAD.73512,CAM POMBAIS,77,9270-042,PORTO MONIZ,-17.20027875378699,32.857769742715085
pt.ine.add.MAD.73513,"R FRANCISCO MONIZ ""O VELHO",21,9270-095,PORTO MONIZ,-17.168966792481953,32.866721407117836
pt.ine.add.MAD.73514,R ESCOLA VELHA,18,9270-040,PORTO MONIZ,-17.172942573595158,32.86675157743195
pt.ine.add.MAD.73515,R LUGAR,,9270-095,PORTO MONIZ,-17.169850248562916,32.866579829228016
pt.ine.add.MAD.73516,R LUGAR,,9270-095,PORTO MONIZ,-17.169850248562916,32.866579829228016
pt.ine.add.MAD.73517,R LUGAR,,9270-095,PORTO MONIZ,-17.169850248562916,32.866579829228016
pt.ine.add.MAD.73518,CAM PEDRA ROLE DE BAIXO,,9270-038,PORTO MONIZ,-17.17543942080923,32.864417621593745
pt.ine.add.MAD.73519,CAM PEDRA MOLE DE BAIXO,39,9270-095,PORTO MONIZ,-17.17439006348924,32.86432765825752
pt.ine.add.MAD.73520,ER 101,15,9270-095,PORTO MONIZ,-17.16811772302821,32.86520308943395
pt.ine.add.MAD.73521,CAM CASTANHEIRO,,9270-035,PORTO MONIZ,-17.170892230519396,32.85759795524136
pt.ine.add.MAD.73522,SITIO LAMACEIROS,,9270-035,PORTO MONIZ,-17.169777559169994,32.857454977309885
pt.ine.add.MAD.73523,ER 101,130,9270-091,PORTO MONIZ,-17.18562031384343,32.858667052463
pt.ine.add.MAD.73524,,,9270-091,PORTO MONIZ,-17.18382172460331,32.85677766725353
pt.ine.add.MAD.73525,SIT LEVADA GRANDE,,9270-036,PORTO MONIZ,-17.17669310146342,32.85712739136345
pt.ine.add.MAD.73526,CAM FONTE DO REI,40,9270-036,PORTO MONIZ,-17.17943550976125,32.853490512105815
pt.ine.add.MAD.73527,CAM PE JOSE GONÇALVES COSTA,,9270-093,PORTO MONIZ,-17.188551743308786,32.85490944588112
pt.ine.add.MAD.75041,CAM CRUZ,9,9270-091,PORTO MONIZ,-17.186066725021117,32.85813621373692
pt.ine.add.MAD.73664,CAM LOMBINHO,,9270-035,PORTO MONIZ,-17.169999847200096,32.85605334527064
pt.ine.add.MAD.73665,CAM CASTANHEIRO,,9270-035,PORTO MONIZ,-17.17081412177025,32.85483081483616
pt.ine.add.MAD.73666,CAM CAPELA,,9270-035,PORTO MONIZ,-17.17131295766711,32.85337929063891
pt.ine.add.MAD.73667,CAM POÇO DA ACHADA,,9270-033,PORTO MONIZ,-17.175133304571464,32.85581988196239
pt.ine.add.MAD.73668,CAM CASTANHEIRO,,9270-035,PORTO MONIZ,-17.172020659166396,32.85567558521086
pt.ine.add.MAD.73669,CAM PADRE JOÃO DE SOUSA,6,9270-102,RIBEIRA DA JANELA,-17.15807929873516,32.84912642311053
pt.ine.add.MAD.73670,SIT SITIO DOS CASAIS DE BAIXO,,9270-103,RIBEIRA DA JANELA,-17.158470076576123,32.84938120037277
pt.ine.add.MAD.73671,VR FONTE VELHA,2,9270-102,RIBEIRA DA JANELA,-17.15806794793216,32.84865768589039
pt.ine.add.MAD.73672,CAM RIBEIRINHO,7,9270-102,RIBEIRA DA JANELA,-17.157584540996048,32.84810691290101
pt.ine.add.MAD.73673,VR SR LUCIO,14,9270-104,RIBEIRA DA JANELA,-17.154149839272247,32.84788655666127
pt.ine.add.MAD.73674,CAM VOLTINHA,14,9270-101,RIBEIRA DA JANELA,-17.157601478163244,32.84615874421035
pt.ine.add.MAD.73675,SIT CASAIS DE CIMA,,9270-103,RIBEIRA DA JANELA,-17.161851023377224,32.8442998184554
pt.ine.add.MAD.73676,VR TIL,3,9270-103,RIBEIRA DA JANELA,-17.160243380726083,32.84452598744335
pt.ine.add.MAD.73677,ER ENG JORGE MANUEL JARDIM FERNANDES,,9270-124,SEIXAL PMZ,-17.110775596356017,32.82625219204827
pt.ine.add.MAD.73678,ER ENG JORGE MANUEL JARDIM FERNANDES,,9270-124,SEIXAL PMZ,-17.110460001234575,32.826005009072524
pt.ine.add.MAD.73679,VR DESNATADEIRA,,9270-124,SEIXAL PMZ,-17.110087612934347,32.82561449357928
pt.ine.add.MAD.73680,CAM FARROBO,,9270-124,SEIXAL PMZ,-17.11039319471003,32.824987091849685
pt.ine.add.MAD.73681,CAM MUNICIPAL HENRIQUE RODRIGUES,,9270-126,SEIXAL PMZ,-17.105655267278948,32.82381339559432
pt.ine.add.MAD.73810,CAM MUNICIPAL HENRIQUE RODRIGUES,,9270-126,SEIXAL PMZ,-17.105750679698787,32.82423564076003
pt.ine.add.MAD.73811,R JOÃO DE AZEVEDO,36,9270-123,SEIXAL PMZ,-17.110968029719444,32.8244543462852
pt.ine.add.MAD.73812,ESTR REGIONAL ENG JORGE MANUEL JARDIM FERNANDES,,9270-125,SEIXAL PMZ,-17.10645727431891,32.82385400567227
pt.ine.add.MAD.73813,ESTR REGIONAL ENG JORGE MANUEL JARDIM FERNANDES,,9270-125,SEIXAL PMZ,-17.10645727431891,32.82385400567227
pt.ine.add.MAD.73814,ESTR REGIONAL ENG JORGE MANUEL JARDIM FERNANDES,,9270-125,SEIXAL PMZ,-17.10645727431891,32.82385400567227
pt.ine.add.MAD.73815,ESTR REGIONAL ENG JORGE MANUEL JARDIM FERNANDES,,9270-125,SEIXAL PMZ,-17.10645727431891,32.82385400567227
pt.ine.add.MAD.73816,CAM SERRA DE AGUA,,9270-130,SEIXAL PMZ,-17.103806594380085,32.823321440691714
pt.ine.add.MAD.73817,R JOÃO FERNANDES CORREIA,,9270-127,SEIXAL PMZ,-17.105343216087455,32.822357713506904
pt.ine.add.MAD.74718,CAM EIRINHA,,9270-012,ACHADAS DA CRUZ,-17.211722162174606,32.840136456441236
pt.ine.add.MAD.74869,ESTR ANTIGA ESTRADA 101,,9270-012,ACHADAS DA CRUZ,-17.210136909749433,32.839533227050765
pt.ine.add.MAD.74870,CAM TELEFERICO,,9270-013,ACHADAS DA CRUZ,-17.209462397020374,32.841195404643614
pt.ine.add.MAD.74871,,,9270-013,ACHADAS DA CRUZ,-17.21364256128871,32.85552293687883
pt.ine.add.MAD.74872,,,9270-013,ACHADAS DA CRUZ,-17.21386727739825,32.85553699471349
pt.ine.add.MAD.74873,,,9270-014,ACHADAS DA CRUZ,-17.21281791516046,32.85630404358287
pt.ine.add.MAD.74874,CAM VOLTA DO CARRO,,9270-093,PORTO MONIZ,-17.19216596569002,32.86241212076201
pt.ine.add.MAD.74880,CAM CABEÇO CARRACHOTE,18,9270-042,PORTO MONIZ,-17.19380231094103,32.85813602121803
pt.ine.add.MAD.74881,CAM BEIRA DA ROCHA,,9270-093,PORTO MONIZ,-17.192348975357103,32.86724247412225
pt.ine.add.MAD.74882,R ESCOLA NOVA,,9270-040,PORTO MONIZ,-17.173268285082763,32.86696234611861
pt.ine.add.MAD.74883,R CABO CALHAU,12,9270-040,PORTO MONIZ,-17.175614380424506,32.86676824428428
pt.ine.add.MAD.74884,R CAPITÃES,,9270-051,PORTO MONIZ,-17.171655918884326,32.86613365977902
pt.ine.add.MAD.74885,R SERRADO,8,9270-156,PORTO MONIZ,-17.168346411587702,32.86537948204161
pt.ine.add.MAD.75033,ER 101,23,9270-095,PORTO MONIZ,-17.16837208997416,32.8651175177224
pt.ine.add.MAD.75034,CAM PEDRA MOLE,,9270-152,PORTO MONIZ,-17.176246091141554,32.86332143971412
pt.ine.add.MAD.75035,CAM CASTANHEIRO,42,9270-035,PORTO MONIZ,-17.17512404882878,32.85631602703429
pt.ine.add.MAD.75036,ER 101,,9270-034,PORTO MONIZ,-17.180124155454653,32.85849245132318
pt.ine.add.MAD.75037,ESTR ANTIGA ER101,,9270-091,PORTO MONIZ,-17.18649203193309,32.85892235029642
pt.ine.add.MAD.75038,ER 101,140,9270-091,PORTO MONIZ,-17.186014084417653,32.85903892015185
pt.ine.add.MAD.75039,ER 101,108,9270-091,PORTO MONIZ,-17.18411744801023,32.85794482590956
pt.ine.add.MAD.75040,ER 101,,9270-091,PORTO MONIZ,-17.183998200822657,32.85787476552316
pt.ine.add.MAD.75042,SIT LEVADA GRANDE,,9270-036,PORTO MONIZ,-17.176394284608847,32.85714160981968
pt.ine.add.MAD.75043,CAM CRUZ,74,9270-091,PORTO MONIZ,-17.18526192964684,32.855381794210956
pt.ine.add.MAD.75044,CAM CRUZ,86,9270-041,PORTO MONIZ,-17.185177291723136,32.854544611253765
pt.ine.add.MAD.75045,CAM FERREIRO,CCI 201,9270-041,PORTO MONIZ,-17.187419170421695,32.85229604344248
pt.ine.add.MAD.75046,CAM JUNQUEIRA,133,9270-041,PORTO MONIZ,-17.186560248051517,32.851688829711755
pt.ine.add.MAD.75047,CAM CASTANHEIRO,,9270-035,PORTO MONIZ,-17.172717572398113,32.85621357161269
pt.ine.add.MAD.75048,CAM CAPELA,,9270-035,PORTO MONIZ,-17.170224387141673,32.85386711575361
pt.ine.add.MAD.75215,CAM PADRE JOÃO DE SOUSA,1,9270-102,RIBEIRA DA JANELA,-17.15782234631783,32.8491038024509
pt.ine.add.MAD.75216,VR LOMBINHO,4,9270-101,RIBEIRA DA JANELA,-17.15642139075042,32.847279284250725
pt.ine.add.MAD.75217,CAM DR FRANCISCO RODRIGUES JARDIM,43,9270-101,RIBEIRA DA JANELA,-17.15589268674931,32.84794670845603
pt.ine.add.MAD.75218,VR CABEFO DO FOLE,20,9270-104,RIBEIRA DA JANELA,-17.15367236959435,32.845369750794035
pt.ine.add.MAD.75219,CAM VOLTINHA,6,9270-101,RIBEIRA DA JANELA,-17.15797284801155,32.84649501977681
pt.ine.add.MAD.75220,CAM BURACO DO CANDEEIRO,16,9270-103,RIBEIRA DA JANELA,-17.16006575278983,32.844249498679204
pt.ine.add.MAD.75221,ER ENG JORGE MANUEL JARDIM FERNANDES,,9270-124,SEIXAL PMZ,-17.110870619640302,32.82620549860073
pt.ine.add.MAD.75222,ER ENG JORGE MANUEL JARDIM FERNANDES,,9270-124,SEIXAL PMZ,-17.110870619640302,32.82620549860073
pt.ine.add.MAD.75223,VR DESNATADEIRA,18,9270-124,SEIXAL PMZ,-17.110291547833185,32.82520524032216
pt.ine.add.MAD.75224,VR MANUEL ÁLVARO DA SILVA,,9270-126,SEIXAL PMZ,-17.10622331401438,32.8229922062584
pt.ine.add.MAD.75225,ER ENG JORGE MANUEL JARDIM FERNANDES,38,9270-126,SEIXAL PMZ,-17.106203381869147,32.82395747858514
pt.ine.add.MAD.75226,CAM JOÃO DE AZEVEDO,,9270-121,SEIXAL PMZ,-17.10852335782513,32.82405367832408
pt.ine.add.MAD.75227,CAM JOÃO DE AZEVEDO,,9270-121,SEIXAL PMZ,-17.10852335782513,32.82405367832408
pt.ine.add.MAD.75228,ESTR LOMBINHO,,9270-125,SEIXAL PMZ,-17.107316738795618,32.82361408191145
pt.ine.add.MAD.75229,ESTR REGIONAL,14,9270-127,SEIXAL PMZ,-17.106095907847315,32.82211959474685
pt.ine.add.MAD.75381,CAM AGRICOLA DA FONTE,,9270-129,SEIXAL PMZ,-17.113118338759126,32.807013129373196
pt.ine.add.MAD.79484,CAM ACHADA ARRUDA,,9270-011,ACHADAS DA CRUZ,-17.213291590373135,32.84483403250083
pt.ine.add.MAD.79485,BC LOMBO DA RELVA,,9270-014,ACHADAS DA CRUZ,-17.205861428250913,32.84288216647021
pt.ine.add.MAD.79486,CAM LAMEIROS,7,9270-014,ACHADAS DA CRUZ,-17.206141418710427,32.841677856949396
pt.ine.add.MAD.79487,,,9270-013,ACHADAS DA CRUZ,-17.212765727803443,32.85549336507708
pt.ine.add.MAD.79488,CAM VOLTA DO CARRO,,9270-093,PORTO MONIZ,-17.191364827638562,32.86372473191116
pt.ine.add.MAD.79489,CAM VOLTA DO CARRO,,9270-093,PORTO MONIZ,-17.19109060623183,32.862133378672304
pt.ine.add.MAD.79490,CAM IRMA DO PERPETUO SOCORRO,,9270-093,PORTO MONIZ,-17.188110759259626,32.86044510924081
pt.ine.add.MAD.79491,CAM IRMA DO PERPETUO SOCORRO,11,9270-093,PORTO MONIZ,-17.187973244956318,32.86050162243335
pt.ine.add.MAD.79492,ER 101,6,9270-093,PORTO MONIZ,-17.190603759005484,32.85971610693968
pt.ine.add.MAD.79664,CAM POMBAIS,,9270-042,PORTO MONIZ,-17.196235716173785,32.859761609832226
pt.ine.add.MAD.79665,CAM POÇO DA EIRA VELHA,,9270-042,PORTO MONIZ,-17.1987858022385,32.86005045836937
pt.ine.add.MAD.79666,CAM POMBAIS,,9270-042,PORTO MONIZ,-17.19754714683075,32.85921553704994
pt.ine.add.MAD.79667,ER 101,242,9270-042,PORTO MONIZ,-17.193328402392822,32.85451014139189
pt.ine.add.MAD.79668,VR POCAS,,9270-095,PORTO MONIZ,-17.171115930107224,32.86809090069645
pt.ine.add.MAD.79669,R CABO CALHAU,31,9270-040,PORTO MONIZ,-17.175544789061377,32.86654400812593
pt.ine.add.MAD.79670,BC PASSAL,4,9270-095,PORTO MONIZ,-17.166621927853992,32.866527593312874
pt.ine.add.MAD.79671,CAM PEDRA MOLE DE BAIXO,,9270-095,PORTO MONIZ,-17.173416890545926,32.864732345683365
pt.ine.add.MAD.79672,ER 101,3,9270-095,PORTO MONIZ,-17.167359006361178,32.86564008353705
pt.ine.add.MAD.79673,ER 101,13,9270-095,PORTO MONIZ,-17.1680440537178,32.865249456229876
pt.ine.add.MAD.79674,PC LYRA,9,9270-053,PORTO MONIZ,-17.171139541159963,32.86511458720682
pt.ine.add.MAD.79675,CAM CRUZ,,9270-091,PORTO MONIZ,-17.18507219651329,32.85505144815298
pt.ine.add.MAD.79843,CAM BATALHAO,4,9270-036,PORTO MONIZ,-17.180391868554345,32.857207245435674
pt.ine.add.MAD.79844,CAM PE JOSE GONÇALVES COSTA,,9270-093,PORTO MONIZ,-17.18887589421841,32.85505707664162
pt.ine.add.MAD.79845,CAM CRUZ,142,9270-041,PORTO MONIZ,-17.183263757009726,32.8527564195554
pt.ine.add.MAD.79846,CAM PADRE JOÃO DE SOUSA,8,9270-102,RIBEIRA DA JANELA,-17.158098037403466,32.84901788447445
pt.ine.add.MAD.79847,CAM PEDREGAL,7,9270-104,RIBEIRA DA JANELA,-17.153007653092047,32.84659861841955
pt.ine.add.MAD.79848,VR CERCA DOS ESTOIRINHOS,7,9270-104,RIBEIRA DA JANELA,-17.154847020503606,32.846675159953314
pt.ine.add.MAD.79849,CAM RIBEIRO DO CANDEEIRO,4,9270-103,RIBEIRA DA JANELA,-17.160348417904665,32.84445202986061
pt.ine.add.MAD.79850,VR DESNATADEIRA,4,9270-124,SEIXAL PMZ,-17.110094024654245,32.82543402366819
pt.ine.add.MAD.79851,VR MANUEL ÁLVARO DA SILVA,,9270-126,SEIXAL PMZ,-17.105823183889047,32.82278250616
pt.ine.add.MAD.79852,ER ENG JORGE MANUEL JARDIM FERNANDES,26,9270-126,SEIXAL PMZ,-17.106781249014396,32.823100049129344
pt.ine.add.MAD.79853,ESTR ANTÓNIO GEREMIAS DE SOUSA,,9270-129,SEIXAL PMZ,-17.13321702927748,32.83030847786086
pt.ine.add.MAD.79854,ESTR ANTÓNIO GEREMIAS DE SOUSA,,9270-129,SEIXAL PMZ,-17.133103359998703,32.83002183897149
pt.ine.add.MAD.81105,,,9270-013,ACHADAS DA CRUZ,-17.213221448076688,32.85448432536482
pt.ine.add.MAD.81106,CAM COXA,,9270-092,PORTO MONIZ,-17.195964895015027,32.86091163086715
pt.ine.add.MAD.81107,CAM COXA,,9270-092,PORTO MONIZ,-17.19698774038223,32.86122732494682
pt.ine.add.MAD.81108,CAM COXA,,9270-092,PORTO MONIZ,-17.19794405289215,32.86274355104997
pt.ine.add.MAD.81109,CAM COXA,,9270-092,PORTO MONIZ,-17.196540737082284,32.86086544621878
pt.ine.add.MAD.81110,CAM COXA,,9270-092,PORTO MONIZ,-17.19634738218997,32.86082375316791
pt.ine.add.MAD.81111,SIT SANTA,,9270-093,PORTO MONIZ,-17.192094216157916,32.86079918452636
pt.ine.add.MAD.81112,ER 101,,9270-093,PORTO MONIZ,-17.190579073861546,32.85958127160231
pt.ine.add.MAD.81113,ER 101,,9270-093,PORTO MONIZ,-17.188465350812326,32.85922149391782
pt.ine.add.MAD.81114,CAM POÇO DA EIRA VELHA,30,9270-042,PORTO MONIZ,-17.199131347967946,32.86019768534114
pt.ine.add.MAD.81194,CAM CABEÇO CARRACHOTE,1,9270-042,PORTO MONIZ,-17.194195223611374,32.858471806030735
pt.ine.add.MAD.81195,CAM CABEÇO CARRACHOTE,1,9270-042,PORTO MONIZ,-17.194195223611374,32.858471806030735
pt.ine.add.MAD.81196,CAM CABEÇO CARRACHOTE,1,9270-042,PORTO MONIZ,-17.194195223611374,32.858471806030735
pt.ine.add.MAD.81197,CAM CABEÇO CARRACHOTE,1,9270-042,PORTO MONIZ,-17.194195223611374,32.858471806030735
pt.ine.add.MAD.81198,CAM CABEÇO CARRACHOTE,1,9270-042,PORTO MONIZ,-17.194195223611374,32.858471806030735
pt.ine.add.MAD.81199,CAM CABEÇO CARRACHOTE,1,9270-042,PORTO MONIZ,-17.194195223611374,32.858471806030735
pt.ine.add.MAD.81200,CAM CABEÇO CARRACHOTE,1,9270-042,PORTO MONIZ,-17.194195223611374,32.858471806030735
pt.ine.add.MAD.81201,R ESCOLA VELHA,17,9270-040,PORTO MONIZ,-17.173054003275794,32.86693901656856
pt.ine.add.MAD.81202,R ESCOLA VELHA,,9270-040,PORTO MONIZ,-17.173054003275794,32.86693901656856
pt.ine.add.MAD.81203,R CABO CALHAU,14,9270-040,PORTO MONIZ,-17.175128775873468,32.86701115725821
pt.ine.add.MAD.81204,BC FIGUEIRAL,4,9270-150,PORTO MONIZ,-17.166622869570443,32.86700552571636
pt.ine.add.MAD.81205,BC FIGUEIRAL,1,9270-150,PORTO MONIZ,-17.16688880162643,32.866955828095335
pt.ine.add.MAD.81206,R FRANCISCO MONIZ,,9270-095,PORTO MONIZ,-17.170359176917337,32.865101080382644
pt.ine.add.MAD.81207,CAM PEDRA MOLE,1,9270-039,PORTO MONIZ,-17.176832098267717,32.86368999088719
pt.ine.add.MAD.81208,CAM PEDRA MOLE,,9270-039,PORTO MONIZ,-17.175167117943076,32.864205929376595
pt.ine.add.MAD.81277,CAM PEDRA MOLE DE BAIXO,37,9270-095,PORTO MONIZ,-17.173646808936507,32.86452093791116
pt.ine.add.MAD.81278,PC LYRA,,9270-053,PORTO MONIZ,-17.17154418474416,32.86549533008766
pt.ine.add.MAD.81279,CAM PERIM,,9270-034,PORTO MONIZ,-17.170393772874814,32.864766817857934
pt.ine.add.MAD.81280,CAM LADEIRA,,9270-034,PORTO MONIZ,-17.170695692773158,32.86487880976168
pt.ine.add.MAD.81281,CAM LADEIRA,4,9270-034,PORTO MONIZ,-17.171360455921587,32.86453360628661
pt.ine.add.MAD.81282,CAM ASSOMADA,,9270-035,PORTO MONIZ,-17.169826582200816,32.85859038257694
pt.ine.add.MAD.81283,CAM FAJA BARRO,,9270-035,PORTO MONIZ,-17.16749967191272,32.85605161174563
pt.ine.add.MAD.81284,CAM TRANCAS,,9270-035,PORTO MONIZ,-17.16885878806196,32.857020019093895
pt.ine.add.MAD.81285,ER 101,,9270-091,PORTO MONIZ,-17.184964122093792,32.858922001311
pt.ine.add.MAD.81286,CAM JUNQUEIRA,,9270-041,PORTO MONIZ,-17.187251960173498,32.85157753836
pt.ine.add.MAD.81287,CAM ANEL,,9270-041,PORTO MONIZ,-17.18383559125671,32.84993285847016
pt.ine.add.MAD.81288,CAM CASTANHEIRO,,9270-035,PORTO MONIZ,-17.171515854567367,32.85556711854106
pt.ine.add.MAD.81289,CAM CAPELA,,9270-035,PORTO MONIZ,-17.17249218565294,32.85398104776923
pt.ine.add.MAD.81290,CAM RIBEIRINHO,24,9270-102,RIBEIRA DA JANELA,-17.158279309681845,32.84768010099321
pt.ine.add.MAD.81291,CAM COVA DO PALHEIRO,39,9270-104,RIBEIRA DA JANELA,-17.153349585303133,32.84704363027829
pt.ine.add.MAD.81292,CAM MANUEL IDELFONSO DE CASTRO,7,9270-123,SEIXAL PMZ,-17.111527700655238,32.823732474243684
pt.ine.add.MAD.81293,ER ENG JORGE MANUEL JARDIM FERNANDES,,9270-124,SEIXAL PMZ,-17.109870440922528,32.82591575265882
pt.ine.add.MAD.81362,ER ENG JORGE MANUEL JARDIM FERNANDES,,9270-121,SEIXAL PMZ,-17.10907418932573,32.82566765186466
pt.ine.add.MAD.81363,SIT FARROBO LOMBO,,9270-124,SEIXAL PMZ,-17.109607678677243,32.82338609935225
pt.ine.add.MAD.81364,VR MOINHO,,9270-124,SEIXAL PMZ,-17.109701420541864,32.823285319879275
pt.ine.add.MAD.81365,R JOÃO DE AZEVEDO,42,9270-123,SEIXAL PMZ,-17.11154391730222,32.824417575250514
pt.ine.add.MAD.81366,CAM DELFINA FERNANDES CORREIA,12,9270-130,SEIXAL PMZ,-17.103275213656946,32.82252776186948
pt.ine.add.MAD.81367,CAM DELFINA FERNANDES CORREIA,12,9270-130,SEIXAL PMZ,-17.103275213656946,32.82252776186948
pt.ine.add.MAD.81368,CAM DELFINA FERNANDES CORREIA,12,9270-130,SEIXAL PMZ,-17.103275213656946,32.82252776186948
pt.ine.add.MAD.81369,CAM DELFINA FERNANDES CORREIA,12,9270-130,SEIXAL PMZ,-17.103275213656946,32.82252776186948
pt.ine.add.MAD.81370,R JOÃO FERNANDES CORREIA,18,9270-126,SEIXAL PMZ,-17.105148623564418,32.82316359865642
pt.ine.add.MAD.81371,VR PORTADA,,9270-127,SEIXAL PMZ,-17.105883836829857,32.82263719578254
pt.ine.add.MAD.81372,VIA EXPRESSO,,9270-129,SEIXAL PMZ,-17.07155084358447,32.81365100077047
pt.ine.add.MAD.81373,CAM AGRICOLA DA FONTE,,9270-129,SEIXAL PMZ,-17.110396192066535,32.817889801582645
pt.ine.add.MAD.129669,,,9270-013,ACHADAS DA CRUZ,-17.21396683198501,32.85481380860475
pt.ine.add.MAD.84843,ER 101,,9270-014,ACHADAS DA CRUZ,-17.20372514329104,32.84245991100421
pt.ine.add.MAD.84844,,,9270-013,ACHADAS DA CRUZ,-17.21225480934865,32.85643123729044
pt.ine.add.MAD.84845,,,9270-013,ACHADAS DA CRUZ,-17.21290276943343,32.855418797886024
pt.ine.add.MAD.84846,CAM COXA,,9270-092,PORTO MONIZ,-17.195207745705467,32.86010430119544
pt.ine.add.MAD.84847,CAM VOLTA DO CARRO,,9270-093,PORTO MONIZ,-17.190009755024963,32.86119642034947
pt.ine.add.MAD.85049,R DR JOÃO FRANCA COSME,1,9270-052,PORTO MONIZ,-17.171340631206064,32.86678842305911
pt.ine.add.MAD.85038,CAM VOLTA DO CARRO,,9270-093,PORTO MONIZ,-17.190009755024963,32.86119642034947
pt.ine.add.MAD.85039,CAM ALICE ANDRADE CANHA,,9270-093,PORTO MONIZ,-17.187003951952413,32.85931920252057
pt.ine.add.MAD.85040,CAM TERRA COIMEIRA,,9270-093,PORTO MONIZ,-17.191584732817667,32.85746249280529
pt.ine.add.MAD.85041,R ESCOLA VELHA,35,9270-040,PORTO MONIZ,-17.171964970713926,32.86697597345839
pt.ine.add.MAD.85042,R ESCOLA VELHA,19,9270-040,PORTO MONIZ,-17.17293000896305,32.8671125111601
pt.ine.add.MAD.85043,BC FIGUEIRAL,10,9270-150,PORTO MONIZ,-17.16634801021863,32.86712752064836
pt.ine.add.MAD.85044,BC PASSAL,6,9270-095,PORTO MONIZ,-17.166647018132842,32.86668046288014
pt.ine.add.MAD.85045,R DR JOÃO FRANCA COSME,1,9270-052,PORTO MONIZ,-17.171340631206064,32.86678842305911
pt.ine.add.MAD.85046,R DR JOÃO FRANCA COSME,1,9270-052,PORTO MONIZ,-17.171340631206064,32.86678842305911
pt.ine.add.MAD.85047,R DR JOÃO FRANCA COSME,1,9270-052,PORTO MONIZ,-17.171340631206064,32.86678842305911
pt.ine.add.MAD.85048,R DR JOÃO FRANCA COSME,1,9270-052,PORTO MONIZ,-17.171340631206064,32.86678842305911
pt.ine.add.MAD.85050,CAM PEDRA MOLE,93,9270-095,PORTO MONIZ,-17.17345113275864,32.864821929378046
pt.ine.add.MAD.85051,LUGAR DA BICA,23,9270-095,PORTO MONIZ,-17.173064615235006,32.86562222092311
pt.ine.add.MAD.85052,CAM LADEIRA,,9270-034,PORTO MONIZ,-17.170875001717302,32.86215229301487
pt.ine.add.MAD.85228,CAM ASSOMADA,5,9270-035,PORTO MONIZ,-17.170845420057095,32.85786930483843
pt.ine.add.MAD.85229,CAM CASTANHEIRO,,9270-035,PORTO MONIZ,-17.17078608953164,32.85762685137637
pt.ine.add.MAD.85230,CAM BATALHAO,,9270-036,PORTO MONIZ,-17.18066014733423,32.85638194089269
pt.ine.add.MAD.85231,CAM FERREIRO,17,9270-041,PORTO MONIZ,-17.185686878680286,32.85397659872286
pt.ine.add.MAD.85232,CAM CRUZ,,9270-041,PORTO MONIZ,-17.18317154030153,32.85335320913976
pt.ine.add.MAD.85233,CAM ANEL,46,9270-041,PORTO MONIZ,-17.183841410481808,32.849734363533535
pt.ine.add.MAD.85234,CAM JUNQUEIRA,,9270-041,PORTO MONIZ,-17.188452283938087,32.851295023179475
pt.ine.add.MAD.85235,CAM JUNQUEIRA,,9270-041,PORTO MONIZ,-17.186178893905666,32.85182174635935
pt.ine.add.MAD.85236,R MORGADA,,9270-035,PORTO MONIZ,-17.170236322154434,32.85479575305809
pt.ine.add.MAD.85237,CAM FRANCISCO RODRIGUES JARDIM,36,9270-101,RIBEIRA DA JANELA,-17.156173814295027,32.847202390709
pt.ine.add.MAD.85238,ER 209,361,9270-104,RIBEIRA DA JANELA,-17.153530901842704,32.8474733706138
pt.ine.add.MAD.85239,VR CABEFO DO FOLE,19,9270-104,RIBEIRA DA JANELA,-17.15373317423926,32.84523343448698
pt.ine.add.MAD.85240,TV ESCOLA,6,9270-103,RIBEIRA DA JANELA,-17.160149047908483,32.845041639316435
pt.ine.add.MAD.85241,CAM MANUEL IDELFONSO DE CASTRO,,9270-123,SEIXAL PMZ,-17.110093017338922,32.82358533208958
pt.ine.add.MAD.85242,R JOÃO DG AZEVEDO,,9270-124,SEIXAL PMZ,-17.111245377684476,32.82579336197658
pt.ine.add.MAD.85243,VR DESNATADEIRA,,9270-124,SEIXAL PMZ,-17.11019437879737,32.82561269307122
pt.ine.add.MAD.85444,VR DESNATADEIRA,,9270-124,SEIXAL PMZ,-17.110997895826873,32.82571637470224
pt.ine.add.MAD.85445,CAM MUNICIPAL HENRIQUE RODRIGUES,11,9270-126,SEIXAL PMZ,-17.105743231970468,32.8239201325399
pt.ine.add.MAD.85446,SIT COVA,58,9270-121,SEIXAL PMZ,-17.107922632537345,32.82529927863324
pt.ine.add.MAD.85447,CAM FARROBO,1,9270-121,SEIXAL PMZ,-17.109342170141183,32.82570822506519
pt.ine.add.MAD.85448,CAM MOINHOS,,9270-124,SEIXAL PMZ,-17.11007056856658,32.82444242931222
pt.ine.add.MAD.85449,SIT LOMBINHO,13,9270-125,SEIXAL PMZ,-17.107028689782457,32.82362795070072
pt.ine.add.MAD.85450,CAM SERRA DE AGUA,,9270-130,SEIXAL PMZ,-17.103933481315146,32.8228142933004
pt.ine.add.MAD.85451,CAM DELFINA FERNANDES CORREIA,,9270-130,SEIXAL PMZ,-17.10407555378922,32.82204536530937
pt.ine.add.MAD.85452,CAM MUNICIPAL HENRIQUE RODRIGUES,,9270-126,SEIXAL PMZ,-17.10542131476969,32.82295159435605
pt.ine.add.MAD.85453,VR CÂNDIDO DOS RAMOS,,9270-127,SEIXAL PMZ,-17.105533222286994,32.82271524069803
pt.ine.add.MAD.85454,CAM COR MACHADO,11,9270-127,SEIXAL PMZ,-17.10542288181369,32.82211288429318
pt.ine.add.MAD.85455,VR CÂNDIDO RAMOS,,9270-127,SEIXAL PMZ,-17.10580122996433,32.822304916139196
pt.ine.add.MAD.85456,CAM AGRICOLA DA FONTE,,9270-129,SEIXAL PMZ,-17.112997539921295,32.80416544689801
pt.ine.add.MAD.86757,ESTR ANTIGA ER101,138,9270-091,PORTO MONIZ,-17.186146952526553,32.85879311525437
pt.ine.add.MAD.86758,ER 101,,9270-091,PORTO MONIZ,-17.18220499354411,32.858384015998375
pt.ine.add.MAD.86759,,,9270-091,PORTO MONIZ,-17.183961151671994,32.85723514384436
pt.ine.add.MAD.86760,CAM CRUZ,,9270-091,PORTO MONIZ,-17.184315637008975,32.85426207356834
pt.ine.add.MAD.86761,CAM PICO ALTO,,9270-091,PORTO MONIZ,-17.180859048050845,32.85534141653394
pt.ine.add.MAD.86762,SIT LEVADA GRANDE,,9270-036,PORTO MONIZ,-17.179340418398603,32.85790191374209
pt.ine.add.MAD.86763,SIT LEVADA GRANDE,,9270-036,PORTO MONIZ,-17.179390289990433,32.857756758568776
pt.ine.add.MAD.86764,CAM PE JOSE GONÇALVES COSTA,,9270-093,PORTO MONIZ,-17.188807609436264,32.85488693240349
pt.ine.add.MAD.86765,CAM JUNQUEIRA,,9270-041,PORTO MONIZ,-17.18595162630417,32.85257420193788
pt.ine.add.MAD.86766,CAM ANEL,12,9270-041,PORTO MONIZ,-17.183268408195183,32.851638121588906
pt.ine.add.MAD.86767,CAM FAJA DO BARRO,1,9270-035,PORTO MONIZ,-17.169900719841483,32.85505407762444
pt.ine.add.MAD.86768,CAM JUNQUEIRA,,9270-035,PORTO MONIZ,-17.174699549568196,32.85380741664289
pt.ine.add.MAD.86769,R MORGADA,34,9270-035,PORTO MONIZ,-17.170009104558943,32.852923970837615
pt.ine.add.MAD.86770,CAM CASAIS DE BAIXO,38,9270-103,RIBEIRA DA JANELA,-17.158076696321466,32.84946013190515
pt.ine.add.MAD.86771,VR CASA VELHA,11,9270-103,RIBEIRA DA JANELA,-17.158638957199443,32.84885524523711
pt.ine.add.MAD.86772,VR ROCADA DE BAIXO,4,9270-102,RIBEIRA DA JANELA,-17.15759939534233,32.849161756236754
pt.ine.add.MAD.87485,VR PORTADA,,9270-127,SEIXAL PMZ,-17.10633653072564,32.82235903340566
pt.ine.add.MAD.87486,VR PORTADA,,9270-127,SEIXAL PMZ,-17.10633653072564,32.82235903340566
pt.ine.add.MAD.87487,VR CÂNDIDO RAMOS,,9270-127,SEIXAL PMZ,-17.105860143602367,32.82253839538477
pt.ine.add.MAD.89050,CAM ACHADA ARRUDA,,9270-011,ACHADAS DA CRUZ,-17.212861778477333,32.84473342336096
pt.ine.add.MAD.89051,CAM ACHADA ARRUDA,,9270-011,ACHADAS DA CRUZ,-17.21256122393943,32.84467561545556
pt.ine.add.MAD.89052,BC LOMBO DA RELVA,,9270-014,ACHADAS DA CRUZ,-17.204915721188513,32.84222250242727
pt.ine.add.MAD.89053,ESTR ANTIGA ER 101,,9270-014,ACHADAS DA CRUZ,-17.20518950488413,32.84119866079153
pt.ine.add.MAD.89054,CAM TELEFERICO,,9270-013,ACHADAS DA CRUZ,-17.20953584728068,32.841572855916745
pt.ine.add.MAD.89055,,,9270-013,ACHADAS DA CRUZ,-17.21427055808912,32.854997805167216
pt.ine.add.MAD.89056,,,9270-013,ACHADAS DA CRUZ,-17.21364419971144,32.85601888670207
pt.ine.add.MAD.89057,CAM LOMBO DOS FORNEIROS,23,9270-037,PORTO MONIZ,-17.194478811527684,32.86044173704554
pt.ine.add.MAD.89058,CAM COXA,,9270-092,PORTO MONIZ,-17.195936868177743,32.86064158797325
pt.ine.add.MAD.89059,CAM RIBEIRO CHARCO,21,9270-092,PORTO MONIZ,-17.19346138889784,32.85904378569569
pt.ine.add.MAD.89060,CAM IRMA MARY JANE WILSON,,9270-093,PORTO MONIZ,-17.192878368091225,32.860100080327726
pt.ine.add.MAD.89061,CAM IRMA DO PERPETUO SOCORRO,,9270-093,PORTO MONIZ,-17.188673832534718,32.86118373749041
pt.ine.add.MAD.89062,ER 209,232,9270-101,RIBEIRA DA JANELA,-17.159313806250275,32.846724380311294
pt.ine.add.MAD.89063,VR BURACO DO CANDEEIRO,7,9270-103,RIBEIRA DA JANELA,-17.160256542472755,32.84595059508764
pt.ine.add.MAD.89064,ER 209,363,9270-104,RIBEIRA DA JANELA,-17.153666460143704,32.847335767279816
pt.ine.add.MAD.89065,ER 209,369,9270-104,RIBEIRA DA JANELA,-17.153688912395364,32.84693859060655
pt.ine.add.MAD.89066,CAM PEDREGAL,11,9270-104,RIBEIRA DA JANELA,-17.152808239616324,32.846746338042614
pt.ine.add.MAD.89067,VR EIRA DO PICO,1,9270-104,RIBEIRA DA JANELA,-17.153787413276802,32.847477971930275
pt.ine.add.MAD.89068,CAM CASCALHO,19,9270-104,RIBEIRA DA JANELA,-17.152989163050897,32.84494865001953
pt.ine.add.MAD.89069,ESTR REGIONAL,474,9270-104,RIBEIRA DA JANELA,-17.153971400748304,32.84271332169238
pt.ine.add.MAD.89070,R JOÃO DE AZEVEDO,,9270-123,SEIXAL PMZ,-17.11063002147936,32.824162451204856
pt.ine.add.MAD.89071,CAM MUNICIPAL HENRIQUE RODRIGUES,,9270-126,SEIXAL PMZ,-17.105842937310673,32.824071762337674
pt.ine.add.MAD.89072,R JOÃO FERNANDES CORREIA,,9270-126,SEIXAL PMZ,-17.105101198093934,32.82341690342423
pt.ine.add.MAD.89073,CAM MUNICIPAL HENRIQUE RODRIGUES,,9270-126,SEIXAL PMZ,-17.105293372525892,32.82341367029041
pt.ine.add.MAD.89074,CAM MUNICIPAL HENRIQUE RODRIGUES,,9270-126,SEIXAL PMZ,-17.105293372525892,32.82341367029041
pt.ine.add.MAD.89075,R JOÃO DE AZEVEDO,20,9270-121,SEIXAL PMZ,-17.10947460595211,32.82453364056202
pt.ine.add.MAD.89076,CAM MOINHOS,,9270-124,SEIXAL PMZ,-17.11002637018809,32.82438004799489
pt.ine.add.MAD.89077,CAM SERRA DE AGUA,,9270-130,SEIXAL PMZ,-17.10465555576773,32.823541635118026
pt.ine.add.MAD.89078,CAM DELFINA FERNANDES CORREIA,,9270-130,SEIXAL PMZ,-17.103953817229733,32.82231795545092
pt.ine.add.MAD.89207,CAM TERRA COIMEIRA,6,9270-093,PORTO MONIZ,-17.191974597838747,32.85680637490888
pt.ine.add.MAD.89208,CAM POMBAIS,,9270-042,PORTO MONIZ,-17.197567610949466,32.85961196207878
pt.ine.add.MAD.89209,CAM LOMBO BRASIL,57,9270-093,PORTO MONIZ,-17.1941900125673,32.856091186716604
pt.ine.add.MAD.89210,R ESCOLA NOVA,,9270-040,PORTO MONIZ,-17.173501949209,32.86690417744353
pt.ine.add.MAD.89211,R BICA,26,9270-095,PORTO MONIZ,-17.17358864103676,32.86564016678721
pt.ine.add.MAD.89212,R DR JOÃO FRANCA COSME,12,9270-052,PORTO MONIZ,-17.170340040201925,32.86650820374446
pt.ine.add.MAD.89213,CAM PEDRA MOLE,,9270-039,PORTO MONIZ,-17.17505403227277,32.864388254077376
pt.ine.add.MAD.89214,SIT PENEIDA,,9270-040,PORTO MONIZ,-17.174812325560342,32.865429514553725
pt.ine.add.MAD.89215,SIT PENEIDA,,9270-040,PORTO MONIZ,-17.174812325560342,32.865429514553725
pt.ine.add.MAD.89216,SIT PENEIDA,1,9270-040,PORTO MONIZ,-17.174812325560342,32.865429514553725
pt.ine.add.MAD.89357,SIT PENEIDA,,9270-040,PORTO MONIZ,-17.174812325560342,32.865429514553725
pt.ine.add.MAD.89358,SIT PENEIDA,,9270-040,PORTO MONIZ,-17.174812325560342,32.865429514553725
pt.ine.add.MAD.89359,SIT PENEIDA,3,9270-040,PORTO MONIZ,-17.174812325560342,32.865429514553725
pt.ine.add.MAD.89360,SIT PENEIDA K,K,9270-040,PORTO MONIZ,-17.174812325560342,32.865429514553725
pt.ine.add.MAD.89361,SIT PENEIDA,7,9270-040,PORTO MONIZ,-17.174812325560342,32.865429514553725
pt.ine.add.MAD.89362,SIT PENEIDA,,9270-040,PORTO MONIZ,-17.174812325560342,32.865429514553725
pt.ine.add.MAD.89363,R POCO PENEIDA,,9270-040,PORTO MONIZ,-17.175241102678918,32.86548518157862
pt.ine.add.MAD.89364,CAM PEDRA MOLE DE BAIXO,55,9270-095,PORTO MONIZ,-17.17332384252785,32.86486021331547
pt.ine.add.MAD.89365,CAM PERIM,,9270-034,PORTO MONIZ,-17.170666422162288,32.864554673725245
pt.ine.add.MAD.89366,CAM PEDRA MOLE,,9270-152,PORTO MONIZ,-17.17634045486788,32.86324765440518
pt.ine.add.MAD.89367,CAM ASSOMADA,,9270-035,PORTO MONIZ,-17.169947497939795,32.858290693787986
pt.ine.add.MAD.89368,CAM LADEIRA,,9270-052,PORTO MONIZ,-17.169077516158904,32.860298742838374
pt.ine.add.MAD.89369,CAM TRANCAS,5,9270-035,PORTO MONIZ,-17.169499508173345,32.856567028498674
pt.ine.add.MAD.89370,CAM TRANCAS,,9270-035,PORTO MONIZ,-17.169283646019338,32.857355330762616
pt.ine.add.MAD.89371,CAM CABEÇO,,9270-034,PORTO MONIZ,-17.18129423772111,32.85871553053113
pt.ine.add.MAD.91170,CAM EIRINHA,,9270-012,ACHADAS DA CRUZ,-17.21187170626462,32.84056666767277
pt.ine.add.MAD.91171,SIT LAMEIROS,,9270-011,ACHADAS DA CRUZ,-17.210119028402374,32.842689781263964
pt.ine.add.MAD.91172,,,9270-013,ACHADAS DA CRUZ,-17.21307319248943,32.85539774663679
pt.ine.add.MAD.91173,CAM COXA,,9270-092,PORTO MONIZ,-17.19653137958351,32.8613525735734
pt.ine.add.MAD.91174,CAM LOMBO DOS FORNEIROS,,9270-092,PORTO MONIZ,-17.19398310728005,32.8598372216734
pt.ine.add.MAD.91175,CAM VOLTA DO CARRO,,9270-093,PORTO MONIZ,-17.189562778775684,32.86083451546102
pt.ine.add.MAD.91360,CAM POMBAIS,,9270-042,PORTO MONIZ,-17.194820413593792,32.8591281553686
pt.ine.add.MAD.91361,CAM LOMBO BRASIL,61,9270-093,PORTO MONIZ,-17.19373658448926,32.855900748586684
pt.ine.add.MAD.91362,R FIGUEIRAL,,9270-150,PORTO MONIZ,-17.167246476298374,32.866724181880386
pt.ine.add.MAD.91363,R LUGAR DA BICA,12,9270-151,PORTO MONIZ,-17.17232266590336,32.865869577635706
pt.ine.add.MAD.91364,CAM PEDRA MOLE,,9270-095,PORTO MONIZ,-17.17649978824056,32.86408354410559
pt.ine.add.MAD.91365,PC LYRA,,9270-053,PORTO MONIZ,-17.17190083211168,32.865660475885605
pt.ine.add.MAD.91366,CAM LADEIRA,,9270-034,PORTO MONIZ,-17.170534601069587,32.86484553450238
pt.ine.add.MAD.91367,ER 101,,9270-095,PORTO MONIZ,-17.170395749850787,32.864847944585684
pt.ine.add.MAD.91368,ER 101,,9270-095,PORTO MONIZ,-17.170395749850787,32.864847944585684
pt.ine.add.MAD.91369,CAM LADEIRA,,9270-034,PORTO MONIZ,-17.170396463350503,32.864000250167464
pt.ine.add.MAD.91370,CAM CRUZ,,9270-091,PORTO MONIZ,-17.185873222609406,32.85765263143967
pt.ine.add.MAD.91371,CAM BATALHAO,,9270-091,PORTO MONIZ,-17.181051547585863,32.85622181166712
pt.ine.add.MAD.91372,CAM CASTANHEIRO,72,9270-036,PORTO MONIZ,-17.177019004979908,32.85734716573073
pt.ine.add.MAD.91373,CAM SITIO DA LEVADA GRANDE,22,9270-036,PORTO MONIZ,-17.178345177757144,32.85696335770879
pt.ine.add.MAD.91374,CAM BATALHAO,,9270-036,PORTO MONIZ,-17.180398266320196,32.85746865235404
pt.ine.add.MAD.91375,SIT LEVADA GRANDE,,9270-036,PORTO MONIZ,-17.178118900452823,32.8560114030793
pt.ine.add.MAD.91758,ER 101,,9270-127,SEIXAL PMZ,-17.107050742241615,32.822752823710616
pt.ine.add.MAD.91540,CAM PE JOSE GONÇALVES COSTA,,9270-093,PORTO MONIZ,-17.18855307181225,32.8549635297972
pt.ine.add.MAD.91541,CAM JUNQUEIRA,,9270-041,PORTO MONIZ,-17.18345046275628,32.852527713290094
pt.ine.add.MAD.91542,CAM PICO ALTO,,9270-041,PORTO MONIZ,-17.180428697108844,32.85347320086014
pt.ine.add.MAD.91543,,,9270-035,PORTO MONIZ,-17.170254406063016,32.85597678487278
pt.ine.add.MAD.91544,VR CASA VELHA,9,9270-103,RIBEIRA DA JANELA,-17.158535223529658,32.84898328665673
pt.ine.add.MAD.91545,CAM CASAIS DE BAIXO,47,9270-102,RIBEIRA DA JANELA,-17.157726671222676,32.84912348887551
pt.ine.add.MAD.91546,ER 209,359,9270-104,RIBEIRA DA JANELA,-17.153447866492485,32.84757399773459
pt.ine.add.MAD.91547,CAM RIBEIRO ESCURO,21,9270-104,RIBEIRA DA JANELA,-17.15204921397401,32.845397687165494
pt.ine.add.MAD.91548,CAM CASAIS DE CIMA,6,9270-103,RIBEIRA DA JANELA,-17.159311097015664,32.844848694654914
pt.ine.add.MAD.91549,VR VOLTAS DO LOMBO,13,9270-103,RIBEIRA DA JANELA,-17.160463887506587,32.84392699483037
pt.ine.add.MAD.91550,CAM RIBEIRO DO CANDEEIRO,3,9270-103,RIBEIRA DA JANELA,-17.159775492386217,32.844615228498654
pt.ine.add.MAD.91551,CAM MANUEL IDELFONSO DE CASTRO,16,9270-123,SEIXAL PMZ,-17.11042888897555,32.82378708386971
pt.ine.add.MAD.91552,CAM MUNICIPAL HENRIQUE RODRIGUES,,9270-126,SEIXAL PMZ,-17.105661012395753,32.82405678766932
pt.ine.add.MAD.91553,ER ENG JORGE MANUEL JARDIM FERNANDES,,9270-121,SEIXAL PMZ,-17.108098382058706,32.82505282923665
pt.ine.add.MAD.91554,CAM JOÃO DE AZEVEDO,,9270-121,SEIXAL PMZ,-17.107656198273084,32.82441999336144
pt.ine.add.MAD.91555,R JOÃO DE AZEVEDO,,9270-123,SEIXAL PMZ,-17.11166327860093,32.82449672375499
pt.ine.add.MAD.91759,CAM SERRA DE AGUA,,9270-130,SEIXAL PMZ,-17.10400396326421,32.822632746070525
pt.ine.add.MAD.91760,CAM ÁLVARO GOUVEIA DA SILVA,10,9270-126,SEIXAL PMZ,-17.10537669485866,32.822871182170815
pt.ine.add.MAD.91761,VR CÂNDIDO RAMOS,,9270-127,SEIXAL PMZ,-17.10579395827139,32.822449328167636
pt.ine.add.MAD.94904,CAM ACHADA ARRUDA,,9270-011,ACHADAS DA CRUZ,-17.213474686015658,32.84489391723849
pt.ine.add.MAD.94905,ESTR ANTIGA ER 101,,9270-014,ACHADAS DA CRUZ,-17.20647526865395,32.84092348845195
pt.ine.add.MAD.94906,,,9270-013,ACHADAS DA CRUZ,-17.212578712039846,32.85613693762903
pt.ine.add.MAD.95046,CAM CABEÇO CARRACHOTE,,9270-092,PORTO MONIZ,-17.193235388832445,32.85810989365756
pt.ine.add.MAD.95047,CAM IRMA MARY JANE WILSON,,9270-093,PORTO MONIZ,-17.19290851875816,32.86175883462709
pt.ine.add.MAD.95048,CAM PORTELA,23,9270-093,PORTO MONIZ,-17.186909967750676,32.86332477455794
pt.ine.add.MAD.95049,CAM POMBAIS,,9270-042,PORTO MONIZ,-17.200082960993953,32.858061757846194
pt.ine.add.MAD.95050,R ENG AMÉRICO,,9270-095,PORTO MONIZ,-17.168544671000536,32.86737801691037
pt.ine.add.MAD.95051,R ENG AMÉRICO,,9270-095,PORTO MONIZ,-17.168319268820813,32.86733683629422
pt.ine.add.MAD.95052,R ESCOLA VELHA,,9270-040,PORTO MONIZ,-17.172713967506244,32.86701706853205
pt.ine.add.MAD.95053,"R FRANCISCO MONIZ ""O VELHO",12,9270-095,PORTO MONIZ,-17.169975404289495,32.86557667123588
pt.ine.add.MAD.95054,PC LYRA,,9270-053,PORTO MONIZ,-17.17094297618881,32.86537951882303
pt.ine.add.MAD.95055,CAM PEDRA MOLE,13,9270-039,PORTO MONIZ,-17.176275713169794,32.864096461902136
pt.ine.add.MAD.95056,R SERENO,43,9270-095,PORTO MONIZ,-17.169350342099715,32.86492019247322
pt.ine.add.MAD.95057,CAM LADEIRA,,9270-052,PORTO MONIZ,-17.166374513234942,32.860309525473795
pt.ine.add.MAD.95058,SITIO LAMACEIROS,,9270-035,PORTO MONIZ,-17.168813433768342,32.85822920507831
pt.ine.add.MAD.95059,CAM CABEÇO,,9270-034,PORTO MONIZ,-17.18122146373284,32.85879796072485
pt.ine.add.MAD.95060,ESTR REGIONAL,98,9270-091,PORTO MONIZ,-17.183392171423954,32.85756070426722
pt.ine.add.MAD.95061,CAM FARROBO,,9270-123,SEIXAL PMZ,-17.11065008261895,32.8245589087538
pt.ine.add.MAD.95062,VR LOMBO DO MOINHO,,9270-130,SEIXAL PMZ,-17.10430247357183,32.822609690287955
pt.ine.add.MAD.95063,R JOÃO FERNANDES CORREIA,,9270-130,SEIXAL PMZ,-17.104290991453134,32.8221229055893
pt.ine.add.MAD.95064,ESTR ANTÓNIO GEREMIAS DE SOUSA,,9270-129,SEIXAL PMZ,-17.13278499146754,32.83010842867182
pt.ine.add.MAD.95206,,,9270-091,PORTO MONIZ,-17.18366933517679,32.85666309586991
pt.ine.add.MAD.95207,CAM CRUZ ENTRADA,1,9270-041,PORTO MONIZ,-17.182953756467082,32.853185670902405
pt.ine.add.MAD.95208,CAM CRUZ,,9270-091,PORTO MONIZ,-17.1848781262866,32.855415553489685
pt.ine.add.MAD.95209,CAM MOINHOS,17,9270-036,PORTO MONIZ,-17.17957872317142,32.8527936392239
pt.ine.add.MAD.95210,CAM ANEL,,9270-041,PORTO MONIZ,-17.183105128611285,32.851514721424245
pt.ine.add.MAD.95211,CAM JUNQUEIRA,,9270-041,PORTO MONIZ,-17.186378259776944,32.85167397545782
pt.ine.add.MAD.95212,CAM CASTANHEIRO,,9270-035,PORTO MONIZ,-17.172325056721146,32.85632860495964
pt.ine.add.MAD.95213,CAM CERCA NOVA,,9270-035,PORTO MONIZ,-17.174882438154413,32.85298360782187
pt.ine.add.MAD.95214,ER 209,147,9270-103,RIBEIRA DA JANELA,-17.159184438860223,32.848440022597096
pt.ine.add.MAD.95215,ER 209,368,9270-104,RIBEIRA DA JANELA,-17.153613060121398,32.84777856656813
pt.ine.add.MAD.95216,CAM FUNDO,22,9270-104,RIBEIRA DA JANELA,-17.153628989512256,32.846227203727345
pt.ine.add.MAD.95217,VR PICO,16,9270-101,RIBEIRA DA JANELA,-17.15824698606655,32.8459041234288
pt.ine.add.MAD.95218,ER ENG JORGE MANUEL JARDIM FERNANDES,,9270-124,SEIXAL PMZ,-17.110159562756447,32.82594694950804
pt.ine.add.MAD.95219,CAM FARROBO,13,9270-124,SEIXAL PMZ,-17.110834557860997,32.82513295456786
pt.ine.add.MAD.95220,VR MARIA AMANDA JARDIM,,9270-126,SEIXAL PMZ,-17.106071221231833,32.823788359142775
pt.ine.add.MAD.95221,R JOÃO DE AZEVEDO,,9270-121,SEIXAL PMZ,-17.10864337757149,32.8237089682426
pt.ine.add.MAD.96381,CAM TERRA COIMEIRA,,9270-093,PORTO MONIZ,-17.19234461802144,32.856646585479005
pt.ine.add.MAD.96391,CAM MUNICIPAL HENRIQUE RODRIGUES,,9270-126,SEIXAL PMZ,-17.105443905288922,32.823456228043334
pt.ine.add.MAD.96549,CAM COXA,,9270-092,PORTO MONIZ,-17.198158331163295,32.86233398233189
pt.ine.add.MAD.96550,ER 101,,9270-093,PORTO MONIZ,-17.191561792493847,32.860438784733084
pt.ine.add.MAD.96551,CAM SERRA,,9270-000,,-17.190217979935053,32.846196075631774
pt.ine.add.MAD.96567,R TEN CORONEL,,9270-095,PORTO MONIZ,-17.171146700558573,32.867161523931664
pt.ine.add.MAD.96568,R TEN CORONEL,34,9270-095,PORTO MONIZ,-17.168857861894722,32.867074994454825
pt.ine.add.MAD.96569,R FORTE DE S JOÃO BAPTISTA,7,9270-150,PORTO MONIZ,-17.16612715160905,32.866833756077334
pt.ine.add.MAD.96570,BC ILHEU MOLE ALOJAMENTOS RODRIGUES,2,9270-150,PORTO MONIZ,-17.16680576500595,32.867056463926225
pt.ine.add.MAD.96571,,,9270-106,RIBEIRA DA JANELA,-17.155447499552373,32.85383408273883
pt.ine.add.MAD.96572,ER ENG JORGE MANUEL JARDIM FERNANDES,,9270-126,SEIXAL PMZ,-17.106504842948535,32.82451152615686
pt.ine.add.MAD.96573,R JOÃO FERNANDES CORREIA,36,9270-130,SEIXAL PMZ,-17.103609675161636,32.82176461851327
pt.ine.add.MAD.97213,CAM BATALHAO,,9270-091,PORTO MONIZ,-17.18057590216621,32.85599564101889
pt.ine.add.MAD.97214,CAM MANUEL DIAS DE CASTRO,,9270-125,SEIXAL PMZ,-17.107171528312612,32.823796889282974
pt.ine.add.MAD.97328,CAM FIGUEIRAS,,9270-013,ACHADAS DA CRUZ,-17.20990326489976,32.84088101081618
pt.ine.add.MAD.97329,ER 101,,9270-034,PORTO MONIZ,-17.17097493329915,32.86493708731211
pt.ine.add.MAD.97330,R JOÃO DE AZEVEDO,,9270-128,SEIXAL PMZ,-17.111912886301965,32.8251147590572
pt.ine.add.MAD.97476,R DR COSME,8,9270-095,PORTO MONIZ,-17.16998492942984,32.866406152101526
pt.ine.add.MAD.97477,CAM LEVADA GRANDE,1S,9270-036,PORTO MONIZ,-17.17806289012759,32.85765363351274
pt.ine.add.MAD.97478,ER 209,311,9270-101,RIBEIRA DA JANELA,-17.155219692868492,32.84750740883571
pt.ine.add.MAD.97479,CAM SERRA DE AGUA,,9270-130,SEIXAL PMZ,-17.103543444039754,32.82212645627545
pt.ine.add.MAD.97585,,,9270-013,ACHADAS DA CRUZ,-17.214227095337055,32.854538667053646
pt.ine.add.MAD.97868,R JOÃO FERNANDES CORREIA,9,9270-126,SEIXAL PMZ,-17.106027806469534,32.82466384561832
pt.ine.add.MAD.97870,CAM PEDRA MOLE DE BAIXO,39,9270-095,PORTO MONIZ,-17.173520399137228,32.864595278278045
pt.ine.add.MAD.97871,CAM LOMBO DO MOINHO,,9270-130,SEIXAL PMZ,-17.104563807828082,32.82282172981188
pt.ine.add.MAD.98171,R PERIM,9,9270-034,PORTO MONIZ,-17.17070694853588,32.86446379129678
pt.ine.add.MAD.98172,CAM PE JOSE GONÇALVES COSTA,,9270-093,PORTO MONIZ,-17.18853907102652,32.854828506890264
pt.ine.add.MAD.98304,VR POCAS,,9270-095,PORTO MONIZ,-17.170970567892777,32.868264764464264
pt.ine.add.MAD.98305,ER 101,,9270-034,PORTO MONIZ,-17.179605118055175,32.858239980087866
pt.ine.add.MAD.98306,ER ENG JORGE MANUEL JARDIM FERNANDES,,9270-126,SEIXAL PMZ,-17.10669893559308,32.82458942140242
pt.ine.add.MAD.98308,CAM COR MACHADO,,9270-127,SEIXAL PMZ,-17.105496802934244,32.82162466285249
pt.ine.add.MAD.98557,CAM ACHADA DA ARRUDA,,9270-011,ACHADAS DA CRUZ,-17.21195189841972,32.844659338704815
pt.ine.add.MAD.98558,"R FRANCISCO MONIZ ""O VELHO",19,9270-095,PORTO MONIZ,-17.169112375951887,32.86655655966877
pt.ine.add.MAD.98565,ER 209,249,9270-103,RIBEIRA DA JANELA,-17.159959698773307,32.84560402160146
pt.ine.add.MAD.98817,CAM REAL,,9270-128,SEIXAL PMZ,-17.1145557685401,32.82621542020449
pt.ine.add.MAD.98818,VIA EXPRESSO,,9270-129,SEIXAL PMZ,-17.14095155586231,32.84192682140662
pt.ine.add.MAD.98938,ESTR REGIONAL ENG JORGE MANUEL JARDIM FERNANDES,,9270-125,SEIXAL PMZ,-17.10651384934736,32.82398832476566
pt.ine.add.MAD.99073,ER 221,,9270-129,SEIXAL PMZ,-17.111502630072184,32.81725790711757
pt.ine.add.MAD.99199,CAM CABEÇOS,,9270-013,ACHADAS DA CRUZ,-17.21396369774534,32.840926443318445
pt.ine.add.MAD.99200,R LUGAR DA BICA,,9270-151,PORTO MONIZ,-17.173427425124974,32.86603975595165
pt.ine.add.MAD.99552,R DR JOÃO FRANCA COSME,1,9270-052,PORTO MONIZ,-17.171340631206064,32.86678842305911
pt.ine.add.MAD.99582,CAM FERREIRO,38,9270-091,PORTO MONIZ,-17.186947997978912,32.85355776669993
pt.ine.add.MAD.99609,CAM CABEÇO CARRACHOTE,1,9270-042,PORTO MONIZ,-17.194195223611374,32.858471806030735
pt.ine.add.MAD.99713,CAM POÇO DA EIRA VELHA,,9270-042,PORTO MONIZ,-17.198973148466155,32.85984877195087
pt.ine.add.MAD.99762,CAM DR FRANCISCO RODRIGUES JARDIM,53,9270-101,RIBEIRA DA JANELA,-17.15610148170578,32.848628473605906
pt.ine.add.MAD.99769,R JOÃO FERNANDES CORREIA,12,9270-126,SEIXAL PMZ,-17.10508916496764,32.824264807581606
pt.ine.add.MAD.99896,CAM PADRE JOÃO DE SOUSA,15,9270-102,RIBEIRA DA JANELA,-17.15849358001358,32.84858721583724
pt.ine.add.MAD.99897,R JOAO AZEVEDO,14,9270-121,SEIXAL PMZ,-17.108848551542305,32.8242556143127
pt.ine.add.MAD.99928,ESTR REGIONAL,14,9270-127,SEIXAL PMZ,-17.106095907847315,32.82211959474685
pt.ine.add.MAD.99997,R CABO CALHAU,29,9270-040,PORTO MONIZ,-17.175482024037812,32.86659920739562
pt.ine.add.MAD.100065,R ALFARROBEIRAS,4,9270-095,PORTO MONIZ,-17.170611629620403,32.86756760058396
pt.ine.add.MAD.100085,R LUGAR DA BICA,,9270-151,PORTO MONIZ,-17.173427425124974,32.86603975595165
pt.ine.add.MAD.100086,R LUGAR DA BICA,,9270-151,PORTO MONIZ,-17.173427425124974,32.86603975595165
pt.ine.add.MAD.100087,R LUGAR DA BICA,,9270-151,PORTO MONIZ,-17.173427425124974,32.86603975595165
pt.ine.add.MAD.100088,R LUGAR DA BICA,,9270-151,PORTO MONIZ,-17.173427425124974,32.86603975595165
pt.ine.add.MAD.100357,CAM JUNQUEIRA,155,9270-041,PORTO MONIZ,-17.18855818949675,32.85125709858266
pt.ine.add.MAD.100473,ESTR LOMBINHO,,9270-127,SEIXAL PMZ,-17.107477977352996,32.82320555197512
pt.ine.add.MAD.100563,PC LYRA,,9270-053,PORTO MONIZ,-17.17094297618881,32.86537951882303
pt.ine.add.MAD.100564,VR LOMBO DO MOINHO,,9270-130,SEIXAL PMZ,-17.10430247357183,32.822609690287955
pt.ine.add.MAD.100697,ESTR LOMBINHO,,9270-125,SEIXAL PMZ,-17.107218309188067,32.823516540436565
pt.ine.add.MAD.100709,SIT CASAIS DE BAIXO,,9270-102,RIBEIRA DA JANELA,-17.160185640331488,32.84831452000288
pt.ine.add.MAD.100756,SIT PENEIDA,,9270-040,PORTO MONIZ,-17.174812325560342,32.865429514553725
pt.ine.add.MAD.100864,CAM POMBAIS,,9270-042,PORTO MONIZ,-17.19651295342787,32.859738704958346
pt.ine.add.MAD.100931,CAM REAL,,9270-128,SEIXAL PMZ,-17.11334354033343,32.825541508208936
pt.ine.add.MAD.100954,SIT RIBEIRO LAJE,,9270-128,SEIXAL PMZ,-17.11224364114101,32.825551062233124
pt.ine.add.MAD.101150,SIT SERRA AGUA SEIXAL,,9270-130,SEIXAL PMZ,-17.10451987018475,32.82231745482203
pt.ine.add.MAD.101162,"R FRANCISCO MONIZ ""O VELHO",21,9270-095,PORTO MONIZ,-17.168966792481953,32.866721407117836
pt.ine.add.MAD.101331,CAM IRMA MARY JANE WILSON,,9270-093,PORTO MONIZ,-17.192977152202385,32.860206562186285
pt.ine.add.MAD.101464,CAM ANTIGA ER 101,,9270-013,ACHADAS DA CRUZ,-17.20864875177064,32.839830045663476
pt.ine.add.MAD.101474,CAM TELEFERICO,,9270-013,ACHADAS DA CRUZ,-17.209426565794896,32.84104273449121
pt.ine.add.MAD.101501,CAM LOMBO DO MOINHO,,9270-130,SEIXAL PMZ,-17.104209789171257,32.8227555386004
pt.ine.add.MAD.101777,R JOÃO DE AZEVEDO,,9270-128,SEIXAL PMZ,-17.111645773657795,32.824208440381874
pt.ine.add.MAD.101840,R JOÃO DE AZEVEDO,,9270-121,SEIXAL PMZ,-17.10772515592991,32.82462624804099
pt.ine.add.MAD.102052,BC FIGUEIRAL,14,9270-150,PORTO MONIZ,-17.166770651121986,32.866930821799826
pt.ine.add.MAD.102098,CAM RIBEIRO DO CANDEEIRO,14,9270-103,RIBEIRA DA JANELA,-17.16012132966443,32.84433871837991
pt.ine.add.MAD.102161,CAM MUNICIPAL HENRIQUE RODRIGUES,,9270-126,SEIXAL PMZ,-17.10544429234206,32.82392516287458
pt.ine.add.MAD.102206,CAM JUNQUEIRA,127,9270-041,PORTO MONIZ,-17.185965531206495,32.851834493528365
pt.ine.add.MAD.102278,CAM LOMBO DOS FORNEIROS,3,9270-037,PORTO MONIZ,-17.194078363381298,32.85936662270595
pt.ine.add.MAD.102622,ER ENG JORGE MANUEL JARDIM FERNANDES,44,9270-126,SEIXAL PMZ,-17.106351327955934,32.82434276654826
pt.ine.add.MAD.102623,CAM DELFINA FERNANDES CORREIA,6,9270-130,SEIXAL PMZ,-17.103561724016522,32.822901706333504
pt.ine.add.MAD.103064,CAM LOMBO BRASIL,45,9270-042,PORTO MONIZ,-17.19645340297811,32.85689011448334
pt.ine.add.MAD.103096,ER 101,,9270-093,PORTO MONIZ,-17.19152960136204,32.859564617717346
pt.ine.add.MAD.103121,R ALFARROBEIRAS,1,9270-095,PORTO MONIZ,-17.169685719979533,32.86684420305461
pt.ine.add.MAD.103230,CAM RIBEIRO CHARCO,,9270-092,PORTO MONIZ,-17.192863974204116,32.85908131633593
pt.ine.add.MAD.103298,VR POCAS,6,9270-095,PORTO MONIZ,-17.17110054682937,32.8674599156346
pt.ine.add.MAD.103299,ER 101,,9270-034,PORTO MONIZ,-17.178126886485916,32.85896011187626
pt.ine.add.MAD.103300,CAM POÇO DA ACHADA,,9270-033,PORTO MONIZ,-17.175685683528876,32.85525116434831
pt.ine.add.MAD.103301,ER ENG JORGE MANUEL JARDIM FERNANDES,34,9270-126,SEIXAL PMZ,-17.106280705109775,32.82361348922103
pt.ine.add.MAD.103397,CAM LADEIRA,,9270-034,PORTO MONIZ,-17.170389599284913,32.86459555031775
pt.ine.add.MAD.103398,VR SR LUCIO,16,9270-104,RIBEIRA DA JANELA,-17.154056125328367,32.8479873680812
pt.ine.add.MAD.103457,VR DESNATADEIRA,,9270-124,SEIXAL PMZ,-17.11077219416796,32.8256570556905
pt.ine.add.MAD.103590,CAM IRMA DO PERPETUO SOCORRO,14,9270-093,PORTO MONIZ,-17.188179047622924,32.860615253596
pt.ine.add.MAD.103591,ER 101,110,9270-091,PORTO MONIZ,-17.184365517790106,32.85803968973804
pt.ine.add.MAD.103592,ER 209,114,9270-102,RIBEIRA DA JANELA,-17.158370090994328,32.85054624024839
pt.ine.add.MAD.103692,CAM COR MACHADO,,9270-127,SEIXAL PMZ,-17.105678510084196,32.82163062344315
pt.ine.add.MAD.103809,CAM PORTELA,9,9270-093,PORTO MONIZ,-17.187959319645476,32.86341463275276
pt.ine.add.MAD.103810,R FRANCISCO MONIZ,32,9270-095,PORTO MONIZ,-17.168242891660142,32.86683315853626
pt.ine.add.MAD.103892,SIT RIBEIRINHO,,9270-091,PORTO MONIZ,-17.18342075221394,32.85698306156173
pt.ine.add.MAD.103893,ER 209,185,9270-102,RIBEIRA DA JANELA,-17.158072296770477,32.848396090480506
pt.ine.add.MAD.103911,CAM RIBEIRO CANDEEIRO CCI,CCI 106,9270-103,RIBEIRA DA JANELA,-17.160250126807203,32.84436354795163
pt.ine.add.MAD.103977,CAM POMBAIS,,9270-042,PORTO MONIZ,-17.200009988106423,32.85856803996533
pt.ine.add.MAD.103978,CAM ANEL,55,9270-041,PORTO MONIZ,-17.18391712238737,32.84933625489097
pt.ine.add.MAD.103979,ER 101,,9270-128,SEIXAL PMZ,-17.112005555161574,32.82541980983705
pt.ine.add.MAD.104084,CAM EIRINHA,,9270-012,ACHADAS DA CRUZ,-17.211858287302373,32.84002583572858
pt.ine.add.MAD.104159,SIT CASAIS DE BAIXO,,9270-102,RIBEIRA DA JANELA,-17.16038157623363,32.84846444088205
pt.ine.add.MAD.104160,SIT DD LOMBINHO,,9270-125,SEIXAL PMZ,-17.106989573291216,32.824232821980246
pt.ine.add.MAD.104234,CAM LOMBO DOS FORNEIROS,,9270-037,PORTO MONIZ,-17.194851024073206,32.86123779233963
pt.ine.add.MAD.104235,ER 101,,9270-034,PORTO MONIZ,-17.17097493329915,32.86493708731211
pt.ine.add.MAD.104236,CAM GORGULHO,13,9270-035,PORTO MONIZ,-17.17089717074365,32.856046790316356
pt.ine.add.MAD.104237,CAM FAJA DA PARREIRA,2,9270-122,SEIXAL PMZ,-17.120727272154483,32.826129008416004
pt.ine.add.MAD.104339,CAM TERRA COIMEIRA,17,9270-093,PORTO MONIZ,-17.191546964440512,32.85679583372776
pt.ine.add.MAD.104340,CAM CASTANHEIRO,119,9270-036,PORTO MONIZ,-17.179668189196814,32.857760933239945
pt.ine.add.MAD.104341,CAM COVA DO PALHEIRO,41,9270-104,RIBEIRA DA JANELA,-17.15337857273578,32.84691687983734
pt.ine.add.MAD.104342,CAM SERRA DE AGUA,,9270-130,SEIXAL PMZ,-17.10392960819611,32.82310293785584
pt.ine.add.MAD.104499,CAM COXA,,9270-092,PORTO MONIZ,-17.19664663951893,32.86126037065248
pt.ine.add.MAD.104500,CAM ASSOMADA,,9270-035,PORTO MONIZ,-17.171842134155433,32.85887102190943
pt.ine.add.MAD.104501,CAM CAPELA,,9270-035,PORTO MONIZ,-17.171045092031772,32.85334786913761
pt.ine.add.MAD.104585,PC LYRA,,9270-053,PORTO MONIZ,-17.171114310434888,32.86539457990637
pt.ine.add.MAD.104586,CAM LOMBO DO MOINHO,,9270-130,SEIXAL PMZ,-17.104150241779944,32.822495014819225
pt.ine.add.MAD.104645,CAM JOÃO DE AZEVEDO,,9270-121,SEIXAL PMZ,-17.108539170738247,32.8238189413935
pt.ine.add.MAD.104659,CAM POMBAIS,,9270-042,PORTO MONIZ,-17.19818816539182,32.8596461448
pt.ine.add.MAD.104759,CAM TELEFERICO,8,9270-013,ACHADAS DA CRUZ,-17.21012670163816,32.84170670305449
pt.ine.add.MAD.104803,CAM CASAIS DE BAIXO,46,9270-102,RIBEIRA DA JANELA,-17.157809266398115,32.84900483071908
pt.ine.add.MAD.104868,SIT LEVADA GRANDE,91,9270-036,PORTO MONIZ,-17.17650956129795,32.85704942476489
pt.ine.add.MAD.104949,CAM FAJA DAS GALINHAS,11,9270-042,PORTO MONIZ,-17.20159708550437,32.85923448192737
pt.ine.add.MAD.104966,ESTR LOMBINHO,S N,9270-125,SEIXAL PMZ,-17.107411761308256,32.823567391114224
pt.ine.add.MAD.104994,CAM BATALHAO,,9270-091,PORTO MONIZ,-17.18089523477525,32.85681971754959
pt.ine.add.MAD.105003,CAM PEDRA MOLE,,9270-095,PORTO MONIZ,-17.174812556461713,32.8645637938311
pt.ine.add.MAD.105106,CAM COXA,,9270-092,PORTO MONIZ,-17.195336795705888,32.86013810712584
pt.ine.add.MAD.105167,ER 101,55,9270-095,PORTO MONIZ,-17.170056378099744,32.86495303135285
pt.ine.add.MAD.105206,VIA EXPRESSO,,9270-122,SEIXAL PMZ,-17.119828511447935,32.82606307560632
pt.ine.add.MAD.105231,CAM LADEIRA,,9270-034,PORTO MONIZ,-17.170670072945015,32.864266037765525
pt.ine.add.MAD.105327,CAM LOMBO BRASIL,48,9270-042,PORTO MONIZ,-17.195892058454234,32.856656490521665
pt.ine.add.MAD.105432,R ALFARROBEIRAS,6,9270-095,PORTO MONIZ,-17.1686457755897,32.86714179818634
pt.ine.add.MAD.105482,CAM ACHADA,21,9270-014,ACHADAS DA CRUZ,-17.207663848712944,32.84362590167464
pt.ine.add.MAD.105499,ESTR REGIONAL,11,9270-127,SEIXAL PMZ,-17.10697324061715,32.822636893401516
pt.ine.add.MAD.105597,CAM VOLTA DO CARRO,9,9270-093,PORTO MONIZ,-17.1907182399583,32.86089543968682
pt.ine.add.MAD.105637,R ESCOLA NOVA,,9270-040,PORTO MONIZ,-17.173585857880695,32.866839593718574
pt.ine.add.MAD.105678,CAM COVA DO PALHEIRO,5,9270-104,RIBEIRA DA JANELA,-17.153003289150245,32.846860214336154
pt.ine.add.MAD.105823,CAM PEDRA MOLE DE BAIXO,95,9270-095,PORTO MONIZ,-17.173371430325986,32.864183044732805
pt.ine.add.MAD.105843,PC LYRA,,9270-053,PORTO MONIZ,-17.171114310434888,32.86539457990637
pt.ine.add.MAD.106811,,,9270-127,SEIXAL PMZ,-17.106809903513902,32.822504372044314
pt.ine.add.MAD.106821,CAM CRUZ,,9270-091,PORTO MONIZ,-17.186049567504426,32.85525981480481
pt.ine.add.MAD.106855,CAM TELEFERICO,,9270-013,ACHADAS DA CRUZ,-17.21035182960163,32.84173879649066
pt.ine.add.MAD.106856,CAM LADEIRA,,9270-034,PORTO MONIZ,-17.170968561350772,32.86467567906719
pt.ine.add.MAD.106875,R ALFARROBEIRAS,,9270-095,PORTO MONIZ,-17.169509191749786,32.867054677518986
pt.ine.add.MAD.106880,ESTR ANTIGA ER 101,,9270-091,PORTO MONIZ,-17.181001857916108,32.857683574297965
pt.ine.add.MAD.106884,CAM FONTE DO REI,,9270-036,PORTO MONIZ,-17.17909668399278,32.85536311818517
pt.ine.add.MAD.106921,SIT LAMACEIROS,,9270-035,PORTO MONIZ,-17.171933595373613,32.85517209476733
pt.ine.add.MAD.106938,CAM COXA,71,9270-092,PORTO MONIZ,-17.194919604582985,32.86011837675059
pt.ine.add.MAD.106961,CAM FONTE DO REI,,9270-036,PORTO MONIZ,-17.17960307326866,32.85335232375689
pt.ine.add.MAD.107080,CAM VOLTA DO CARRO,,9270-093,PORTO MONIZ,-17.189696747155963,32.860633777010754
pt.ine.add.MAD.110367,ER 101,174,9270-093,PORTO MONIZ,-17.19042370777297,32.86021524252688
pt.ine.add.MAD.109981,CAM EIRINHA,1,9270-013,ACHADAS DA CRUZ,-17.21148697509808,32.841421145030864
pt.ine.add.MAD.109982,CAM EIRINHA,3,9270-013,ACHADAS DA CRUZ,-17.21106019625169,32.842303417990536
pt.ine.add.MAD.109983,CAM POÇO DA EIRA VELHA,,9270-042,PORTO MONIZ,-17.199818658471976,32.86033889979462
pt.ine.add.MAD.109984,CAM POÇO DA EIRA VELHA,,9270-042,PORTO MONIZ,-17.199580357286795,32.86020782413471
pt.ine.add.MAD.109985,CAM POÇO DA EIRA VELHA,,9270-042,PORTO MONIZ,-17.199330709050027,32.860049894079744
pt.ine.add.MAD.109986,CAM POÇO DA EIRA VELHA,35,9270-042,PORTO MONIZ,-17.199113769462844,32.85991844179857
pt.ine.add.MAD.109987,CAM POÇO DA EIRA VELHA,27,9270-042,PORTO MONIZ,-17.19874775472296,32.85980764595627
pt.ine.add.MAD.109988,CAM LOMBO BRASIL,25,9270-042,PORTO MONIZ,-17.197785242596158,32.85760617853595
pt.ine.add.MAD.109989,CAM LOMBO BRASIL,,9270-042,PORTO MONIZ,-17.198182611706468,32.858555084808486
pt.ine.add.MAD.109990,CAM AGRICOLA DA FONTE,,9270-129,SEIXAL PMZ,-17.114844604046084,32.808210434614544
pt.ine.add.MAD.109991,CAM AGRICOLA DA FONTE,,9270-129,SEIXAL PMZ,-17.114120446085764,32.80739300332503
pt.ine.add.MAD.109992,CAM AGRICOLA DA FONTE,,9270-129,SEIXAL PMZ,-17.115232479290174,32.80565175772736
pt.ine.add.MAD.109993,CAM AGRICOLA DA FONTE,,9270-129,SEIXAL PMZ,-17.113624310181653,32.805381327173166
pt.ine.add.MAD.109994,CAM AGRICOLA DA FONTE,,9270-121,SEIXAL PMZ,-17.113441999452604,32.804897427886246
pt.ine.add.MAD.109995,CAM AGRICOLA DA FONTE,,9270-121,SEIXAL PMZ,-17.114108489506016,32.80418276018136
pt.ine.add.MAD.109996,CAM AGRICOLA DA FONTE,,9270-121,SEIXAL PMZ,-17.1153861523527,32.803124091827286
pt.ine.add.MAD.110061,CAM POMBAIS,,9270-042,PORTO MONIZ,-17.197027383938977,32.85936895487495
pt.ine.add.MAD.110062,CAM POMBAIS,23,9270-042,PORTO MONIZ,-17.19640928837571,32.8590010632111
pt.ine.add.MAD.110063,CAM POMBAIS,21,9270-042,PORTO MONIZ,-17.196202133366736,32.85926621863831
pt.ine.add.MAD.110064,CAM VALINHO,19,9270-042,PORTO MONIZ,-17.196010559784142,32.85929663637808
pt.ine.add.MAD.110065,CAM VALINHO,,9270-042,PORTO MONIZ,-17.195926689517506,32.8589283778121
pt.ine.add.MAD.110066,CAM VALINHO,,9270-042,PORTO MONIZ,-17.195704441059856,32.85814772824575
pt.ine.add.MAD.110067,CAM VALINHO,,9270-042,PORTO MONIZ,-17.196023282022427,32.85807900492001
pt.ine.add.MAD.110068,CAM POMBAIS,,9270-042,PORTO MONIZ,-17.194435489290036,32.85911687478509
pt.ine.add.MAD.110069,CAM CABEÇO CARRACHOTE,,9270-042,PORTO MONIZ,-17.194252841719166,32.8586421340761
pt.ine.add.MAD.110070,CAM LOMBINHO,,9270-035,PORTO MONIZ,-17.16996246080385,32.855395686839636
pt.ine.add.MAD.110071,CAM LOMBINHO,,9270-035,PORTO MONIZ,-17.169597230766517,32.855753721678624
pt.ine.add.MAD.110072,CAM TRACAS,7,9270-035,PORTO MONIZ,-17.169589261203797,32.85630395222115
pt.ine.add.MAD.110073,CAM LOMBINHO,40,9270-035,PORTO MONIZ,-17.170204581614502,32.855247199143705
pt.ine.add.MAD.110132,CAM COXA,,9270-092,PORTO MONIZ,-17.19542377522912,32.860632561185895
pt.ine.add.MAD.110133,CAM COXA,57,9270-092,PORTO MONIZ,-17.195596213342355,32.8606926586058
pt.ine.add.MAD.110134,CAM COXA,,9270-092,PORTO MONIZ,-17.194918234006142,32.860930006219114
pt.ine.add.MAD.110135,CAM POMBAIS,63,9270-042,PORTO MONIZ,-17.199788822254444,32.858265324374734
pt.ine.add.MAD.110136,CAM LOMBO BRASIL,8,9270-042,PORTO MONIZ,-17.198389536653128,32.85828091246833
pt.ine.add.MAD.110137,CAM CABEÇO CARRACHOTE,,9270-042,PORTO MONIZ,-17.193442328545185,32.857835728890414
pt.ine.add.MAD.110138,CAM CABEÇOCARRACHOTE,,9270-042,PORTO MONIZ,-17.19483024510956,32.858226198777096
pt.ine.add.MAD.110139,CAM LOMBO BRASIL,,9270-042,PORTO MONIZ,-17.197918748063255,32.85695454816005
pt.ine.add.MAD.110140,CAM ASSOMADA,5,9270-035,PORTO MONIZ,-17.17095134164531,32.857831394555234
pt.ine.add.MAD.110229,CAM COXA,82,9270-092,PORTO MONIZ,-17.19479013034434,32.85963368587721
pt.ine.add.MAD.110230,CAM LOMBO DOS FORNEIROS,18,9270-092,PORTO MONIZ,-17.193731890587188,32.86004903917148
pt.ine.add.MAD.110231,CAM LOMBO DOS FORNEIROS,,9270-092,PORTO MONIZ,-17.194091217231833,32.86032228831349
pt.ine.add.MAD.110232,CAM LOMBO DOS FORNEIROS,24,9270-092,PORTO MONIZ,-17.19413771232006,32.860474775820016
pt.ine.add.MAD.110233,CAM LOMBO BRASIL,29,9270-042,PORTO MONIZ,-17.197745197926242,32.85728224022786
pt.ine.add.MAD.110234,CAM CABEÇO CARRACHOTE,,9270-093,PORTO MONIZ,-17.1930345548644,32.85689600641312
pt.ine.add.MAD.110235,CAM LOMBO BRASIL,65,9270-093,PORTO MONIZ,-17.193433782332242,32.855752756308675
pt.ine.add.MAD.110304,CAM ACHADA ARRUDA,,9270-011,ACHADAS DA CRUZ,-17.2130869148459,32.8447655114898
pt.ine.add.MAD.110305,CAM EIRINHA,,9270-013,ACHADAS DA CRUZ,-17.21141569667061,32.842423383112134
pt.ine.add.MAD.110306,CAM EIRINHA,18,9270-013,ACHADAS DA CRUZ,-17.211772590876414,32.84130788141432
pt.ine.add.MAD.110307,CAM LAMEIROS,,9270-014,ACHADAS DA CRUZ,-17.20975759117994,32.84319214706335
pt.ine.add.MAD.110308,CAM ACHADA DA ARRUDA,26,9270-011,ACHADAS DA CRUZ,-17.2126613550619,32.84483616485624
pt.ine.add.MAD.110309,CAM ACHADA DA ARRUDA,12,9270-011,ACHADAS DA CRUZ,-17.21159191511657,32.844359098330216
pt.ine.add.MAD.110310,CAM VOLTA DO CARRO,26,9270-093,PORTO MONIZ,-17.191792494383495,32.86373527230294
pt.ine.add.MAD.110311,CAM IRMA MARY JANE WILSON,33,9270-093,PORTO MONIZ,-17.19259745775641,32.86171018198909
pt.ine.add.MAD.110312,CAM IRMA MARY JANE WILSON,,9270-093,PORTO MONIZ,-17.192753002808796,32.8615180799438
pt.ine.add.MAD.110313,CAM IRMA MARY JANE WILSON,,9270-093,PORTO MONIZ,-17.192715665964112,32.86086944996628
pt.ine.add.MAD.110314,CAM RIBEIRO CHARCO,,9270-093,PORTO MONIZ,-17.192312574484944,32.859686161752656
pt.ine.add.MAD.110315,CAM RIBEIRO CHARCO,6,9270-093,PORTO MONIZ,-17.19260695772804,32.859491625896794
pt.ine.add.MAD.110364,CAM VOLTA DO CARRO,54,9270-093,PORTO MONIZ,-17.19174632412224,32.862293226712346
pt.ine.add.MAD.110365,CAM IRMA PERPETUO SOCORRO,26,9270-093,PORTO MONIZ,-17.18980270687468,32.860162993357335
pt.ine.add.MAD.110366,CAM IRMA PERPETUO SOCORRO,28,9270-093,PORTO MONIZ,-17.190004300322713,32.860105356024306
pt.ine.add.MAD.110368,CAM CHÃO DA RIBEIRA,,9270-125,SEIXAL PMZ,-17.10710871760629,32.82430296049556
pt.ine.add.MAD.110369,CAM CHÃO DA RIBEIRA,,9270-125,SEIXAL PMZ,-17.10748497695215,32.82395393622059
pt.ine.add.MAD.110370,CAM CHÃO DA RIBEIRA,,9270-127,SEIXAL PMZ,-17.108032745238962,32.82272726619807
pt.ine.add.MAD.110439,SIT PINHEIRO,1,9270-014,ACHADAS DA CRUZ,-17.206057691950416,32.84045290815035
pt.ine.add.MAD.110440,CAM CABEÇOS,20,9270-012,ACHADAS DA CRUZ,-17.21452431146428,32.841132947327345
pt.ine.add.MAD.110441,ER 101,,9270-093,PORTO MONIZ,-17.18730946907912,32.85914251989558
pt.ine.add.MAD.110442,ER 101,150,9270-093,PORTO MONIZ,-17.18746563021403,32.85941032418964
pt.ine.add.MAD.110443,CAM CRUZ,111,9270-091,PORTO MONIZ,-17.184066473252724,32.85412213907246
pt.ine.add.MAD.110444,CAM CRUZ,,9270-091,PORTO MONIZ,-17.18407302861255,32.85482541864114
pt.ine.add.MAD.110445,CAM CHÃO DA RIBEIRA,,9270-125,SEIXAL PMZ,-17.107209732695427,32.82405777076977
pt.ine.add.MAD.110446,CAM CHÃO DA RIBEIRA,,9270-125,SEIXAL PMZ,-17.107209732695427,32.82405777076977
pt.ine.add.MAD.110447,CAM CHÃO DA RIBEIRA,,9270-125,SEIXAL PMZ,-17.1068087124523,32.82426292157226
pt.ine.add.MAD.110492,CAM EIRINHA,39,9270-012,ACHADAS DA CRUZ,-17.21221562814652,32.840650764147256
pt.ine.add.MAD.110493,CAM LAMEIROS,33,9270-011,ACHADAS DA CRUZ,-17.209892605948646,32.84303645886854
pt.ine.add.MAD.110494,SIT LAMEIROS,15,9270-011,ACHADAS DA CRUZ,-17.20989988311885,32.84246820750354
pt.ine.add.MAD.110495,CAM TELEFERICO,,9270-013,ACHADAS DA CRUZ,-17.20886086917124,32.84106174271849
pt.ine.add.MAD.110496,CAM EIRINHA,1,9270-013,ACHADAS DA CRUZ,-17.210937427544852,32.84252201567461
pt.ine.add.MAD.110497,CAM SERRA DE AGUA,,9270-130,SEIXAL PMZ,-17.103416179622933,32.82216466801281
pt.ine.add.MAD.110554,CAM POMBAIS,18,9270-042,PORTO MONIZ,-17.195737767336965,32.85949981880963
pt.ine.add.MAD.110555,CAM POMBAIS,,9270-042,PORTO MONIZ,-17.19587660787412,32.85949738095033
pt.ine.add.MAD.110556,CAM POMBAIS,28,9270-042,PORTO MONIZ,-17.19664490372354,32.859456834381845
pt.ine.add.MAD.110557,CAM POMBAIS,32,9270-042,PORTO MONIZ,-17.197160879961658,32.85958303749456
pt.ine.add.MAD.110558,CAM POÇO DA EIRA VELHA,24,9270-042,PORTO MONIZ,-17.19901097409792,32.86008257035179
pt.ine.add.MAD.110559,CAM POÇO DA EIRA VELHA,,9270-042,PORTO MONIZ,-17.19938188653895,32.86039167143905
pt.ine.add.MAD.110560,CAM RIBEIRO ESCURO,25,9270-104,RIBEIRA DA JANELA,-17.15209542482683,32.84509929934464
pt.ine.add.MAD.110621,CAM TERRA DA FONTE,2,9270-104,RIBEIRA DA JANELA,-17.153657758530528,32.84609143902612
pt.ine.add.MAD.110660,CAM FERREIRO,29,9270-041,PORTO MONIZ,-17.186272320757695,32.85345234759034
pt.ine.add.MAD.110661,CAM CASCALHO,20,9270-104,RIBEIRA DA JANELA,-17.15311599977006,32.84489235907037
pt.ine.add.MAD.110662,CAM RIBEIRO ESCURO,18,9270-104,RIBEIRA DA JANELA,-17.152326859173343,32.84539291006675
pt.ine.add.MAD.110663,CAM CASCALHO,17,9270-104,RIBEIRA DA JANELA,-17.153065437484987,32.84501046288117
pt.ine.add.MAD.110664,CAM AGRICOLA DA FONTE,,9270-127,SEIXAL PMZ,-17.116687281704998,32.802606100299
pt.ine.add.MAD.110711,CAM AGRICOLA DA FONTE,,9270-129,SEIXAL PMZ,-17.10942943516848,32.81720268944458
pt.ine.add.MAD.110712,CAM AGRICOLA DA FONTE,,9270-129,SEIXAL PMZ,-17.110181399697115,32.81783931508147
pt.ine.add.MAD.110713,CAM AGRICOLA DA FONTE,,9270-129,SEIXAL PMZ,-17.110189730265276,32.817739975522436
pt.ine.add.MAD.110757,CAM AGRICOLA DA FONTE,,9270-129,SEIXAL PMZ,-17.112139616521436,32.81213389628083
pt.ine.add.MAD.110758,CAM AGRICOLA DA FONTE,,9270-129,SEIXAL PMZ,-17.11240371673394,32.812012203609406
pt.ine.add.MAD.110759,CAM AGRICOLA DA FONTE,,9270-129,SEIXAL PMZ,-17.113438546930436,32.81151677365472
pt.ine.add.MAD.110760,CAM AGRICOLA DA FONTE,,9270-129,SEIXAL PMZ,-17.114725924977773,32.81041285588318
pt.ine.add.MAD.110761,CAM AGRICOLA DA FONTE,,9270-129,SEIXAL PMZ,-17.115102518579082,32.80963093581553
pt.ine.add.MAD.110762,CAM AGRICOLA DA FONTE,,9270-129,SEIXAL PMZ,-17.116344775859947,32.807526756061186
pt.ine.add.MAD.110763,CAM AGRICOLA DA FONTE,,9270-129,SEIXAL PMZ,-17.11618163540975,32.80605054641493
pt.ine.add.MAD.110764,CAM AGRICOLA DA FONTE,,9270-129,SEIXAL PMZ,-17.111158786402214,32.81265545918451
pt.ine.add.MAD.110765,CAM AGRICOLA DA FONTE,,9270-129,SEIXAL PMZ,-17.112076215076716,32.811711115489416
pt.ine.add.MAD.110766,CAM AGRICOLA DA FONTE,,9270-129,SEIXAL PMZ,-17.11400943537168,32.809919946614144
pt.ine.add.MAD.110767,CAM AGRICOLA DA FONTE,,9270-129,SEIXAL PMZ,-17.1143736531575,32.809516997789416
pt.ine.add.MAD.110768,CAM AGRICOLA DA FONTE,,9270-129,SEIXAL PMZ,-17.114338426151132,32.80938232141126
pt.ine.add.MAD.110769,CAM AGRICOLA DA FONTE,,9270-129,SEIXAL PMZ,-17.114271387052813,32.80880629552707
pt.ine.add.MAD.111673,CAM AGRICOLA DA FONTE,,9270-129,SEIXAL PMZ,-17.11571286840067,32.80834906811647
pt.ine.add.MAD.111820,CAM TELEFERICO,10,9270-013,ACHADAS DA CRUZ,-17.20919634676988,32.84123617489394
pt.ine.add.MAD.111821,CAM RIBEIRO CHARCO,12,9270-093,PORTO MONIZ,-17.192846608147597,32.85924394205474
pt.ine.add.MAD.111822,CAM IRMA DO PERPETUO SOCORRO,,9270-093,PORTO MONIZ,-17.190258407695836,32.86001072723046
pt.ine.add.MAD.111823,CAM POMBAIS,,9270-042,PORTO MONIZ,-17.196571932918395,32.85909740270863
pt.ine.add.MAD.111844,CAM VOLTAS,,9270-127,SEIXAL PMZ,-17.116501722740995,32.80063427333114
pt.ine.add.MAD.111919,CAM EIRINHA,,9270-012,ACHADAS DA CRUZ,-17.213218209336723,32.84058794057553
pt.ine.add.MAD.111920,CAM LAMEIROS,93,9270-011,ACHADAS DA CRUZ,-17.208730227256943,32.84268725826014
pt.ine.add.MAD.111932,CAM VOLTA DO CARRO,3,9270-093,PORTO MONIZ,-17.19017824352595,32.86066141643197
pt.ine.add.MAD.111933,CAM LOMBO BRASIL,,9270-042,PORTO MONIZ,-17.197954780047947,32.85798194798274
pt.ine.add.MAD.111940,CAM LOMBINHO,33,9270-035,PORTO MONIZ,-17.169692031677073,32.85569796960776
pt.ine.add.MAD.111941,CAM RIBEIRO ESCURO,4,9270-104,RIBEIRA DA JANELA,-17.153259596445245,32.845972042409194
pt.ine.add.MAD.111951,CAM AGRICOLA DA FONTE,,9270-129,SEIXAL PMZ,-17.11373979252757,32.81025817051437
pt.ine.add.MAD.111952,CAM AGRICOLA DA FONTE,,9270-129,SEIXAL PMZ,-17.11475300682722,32.80704864735971
pt.ine.add.MAD.112027,CAM COXA,61,9270-092,PORTO MONIZ,-17.195197047918064,32.860537345183246
pt.ine.add.MAD.112028,CAM RIBEIRO CHARCO,22,9270-092,PORTO MONIZ,-17.1932711461823,32.859128282963965
pt.ine.add.MAD.112029,ER 101,,9270-093,PORTO MONIZ,-17.187901964115753,32.85933956611832
pt.ine.add.MAD.112030,CAM POMBAIS,26,9270-042,PORTO MONIZ,-17.19642062306526,32.859460773758705
pt.ine.add.MAD.112058,CAM TRACAS,8,9270-035,PORTO MONIZ,-17.169399218892554,32.85639742799083
pt.ine.add.MAD.112059,CAM LOMBINHO,36,9270-035,PORTO MONIZ,-17.17013641036288,32.85551891924874
pt.ine.add.MAD.112216,CAM LAMEIROS,,9270-011,ACHADAS DA CRUZ,-17.210186498645932,32.843256711877665
pt.ine.add.MAD.112368,SIT PINHEIRO,2,9270-014,ACHADAS DA CRUZ,-17.20545436297785,32.8398142624612
pt.ine.add.MAD.112378,CAM POMBAIS,65,9270-042,PORTO MONIZ,-17.199990404058642,32.858207671373364
pt.ine.add.MAD.112379,CAM LOMBO BRASIL,,9270-093,PORTO MONIZ,-17.192989838925097,32.85681562990933
pt.ine.add.MAD.112380,CAM TRANCAS,,9270-035,PORTO MONIZ,-17.168517540026357,32.85748584994447
pt.ine.add.MAD.112394,CAM CRUZ,100,9270-041,PORTO MONIZ,-17.184738838316814,32.85409235983982
pt.ine.add.MAD.112416,CAM AGRICOLA DA FONTE,,9270-129,SEIXAL PMZ,-17.113273938945724,32.811781078104374
pt.ine.add.MAD.112547,CAM IRMA MARY JANE WILSON,27,9270-093,PORTO MONIZ,-17.192539205119722,32.861079954360235
pt.ine.add.MAD.112548,CAM CRUZ,8,9270-093,PORTO MONIZ,-17.186304338455237,32.8582402742896
pt.ine.add.MAD.112549,CAM POMBAIS,9,9270-042,PORTO MONIZ,-17.195110106362332,32.85917717775696
pt.ine.add.MAD.112564,ER 209,341,9270-104,RIBEIRA DA JANELA,-17.15368496579173,32.84898573445356
pt.ine.add.MAD.112729,CAM POMBAIS,12,9270-042,PORTO MONIZ,-17.195404686649947,32.859424506102634
pt.ine.add.MAD.112730,CAM POMBAIS,,9270-042,PORTO MONIZ,-17.196756372023813,32.85964425087258
pt.ine.add.MAD.112731,CAM POÇO DA EIRA VELHA,15,9270-042,PORTO MONIZ,-17.198568864852138,32.85948614925227
pt.ine.add.MAD.112760,VR RIBEIRO ESCURO,3,9270-106,RIBEIRA DA JANELA,-17.152762071544245,32.845277205131225
pt.ine.add.MAD.112761,CAM CHÃO DA RIBEIRA,,9270-127,SEIXAL PMZ,-17.10716109466837,32.82335517814319
pt.ine.add.MAD.112762,CAM CHÃO DA RIBEIRA,,9270-127,SEIXAL PMZ,-17.107038119140785,32.82312277836022
pt.ine.add.MAD.112763,CAM CHÃO DA RIBEIRA,,9270-125,SEIXAL PMZ,-17.106834536334386,32.82445186684158
pt.ine.add.MAD.112782,CAM AGRICOLA DA FONTE,,9270-129,SEIXAL PMZ,-17.11491461231763,32.806658138420744
pt.ine.add.MAD.112896,CAM RIBEIRO CHARCO,,9270-092,PORTO MONIZ,-17.193446243427,32.8592965509545
pt.ine.add.MAD.112897,CAM IRMA MARY JANE WILSON,13,9270-093,PORTO MONIZ,-17.19241687249362,32.860450850085094
pt.ine.add.MAD.112898,CAM CABEÇO CARRACHOTE,,9270-042,PORTO MONIZ,-17.194288434034952,32.85878579503494
pt.ine.add.MAD.112899,CAM POMBAIS,77,9270-042,PORTO MONIZ,-17.20027875378699,32.857769742715085
pt.ine.add.MAD.112927,CAM AGRICOLA DA FONTE,,9270-127,SEIXAL PMZ,-17.114514730526253,32.79653755888209
pt.ine.add.MAD.112928,CAM AGRICOLA DA FONTE,,9270-129,SEIXAL PMZ,-17.114173614454128,32.81053942217879
pt.ine.add.MAD.113001,CAM EIRINHA,,9270-012,ACHADAS DA CRUZ,-17.212525219619412,32.84021243340783
pt.ine.add.MAD.113007,CAM EIRINHA,,9270-012,ACHADAS DA CRUZ,-17.213077162124986,32.84050025785069
pt.ine.add.MAD.113018,CAM LOMBINHO,37,9270-035,PORTO MONIZ,-17.169859395491365,32.85555077946276
pt.ine.add.MAD.113029,VR CABEÇO DO FOLE,6,9270-106,RIBEIRA DA JANELA,-17.152674465309868,32.84518853321928
pt.ine.add.MAD.113045,CAM AGRICOLA DA FONTE,,9270-129,SEIXAL PMZ,-17.114537200592512,32.811011238969634
pt.ine.add.MAD.113046,CAM AGRICOLA DA FONTE,,9270-129,SEIXAL PMZ,-17.113622583103876,32.81072007306171
pt.ine.add.MAD.113282,ER 101,178,9270-093,PORTO MONIZ,-17.19080619846981,32.860127381671795
pt.ine.add.MAD.113287,CAM POMBAIS,,9270-042,PORTO MONIZ,-17.197287269539984,32.85907581814724
pt.ine.add.MAD.113288,CAM POMBAIS,,9270-042,PORTO MONIZ,-17.196567043144135,32.85889909621112
pt.ine.add.MAD.113289,CAM POMBAIS,69,9270-042,PORTO MONIZ,-17.200195541557562,32.85786138500527
pt.ine.add.MAD.113290,CAM CABEÇO CARRACHOTE,,9270-093,PORTO MONIZ,-17.19310262745917,32.85705713393043
pt.ine.add.MAD.113299,CAM FAJA DO BARRO,,9270-035,PORTO MONIZ,-17.169773880629883,32.85511038567954
pt.ine.add.MAD.113300,CAM FAJA DE BAIXO,,9270-035,PORTO MONIZ,-17.16895022673668,32.855070565191845
pt.ine.add.MAD.113301,CAM CHÃO DA RIBEIRA,,9270-127,SEIXAL PMZ,-17.10697682909837,32.823241045680106
pt.ine.add.MAD.113302,CAM AGRICOLA DA FONTE,,9270-121,SEIXAL PMZ,-17.113420228085438,32.80442885391489
pt.ine.add.MAD.113361,CAM LOMBO DOS FORNEIROS,,9270-092,PORTO MONIZ,-17.19346890891608,32.85978311691385
pt.ine.add.MAD.113362,CAM VOLTA DO CARRO,,9270-093,PORTO MONIZ,-17.189576605892423,32.86052766642462
pt.ine.add.MAD.113363,CAM LOMBO BRASIL,11,9270-042,PORTO MONIZ,-17.198177496030294,32.85834776458548
pt.ine.add.MAD.113364,CAM POMBAIS,41,9270-042,PORTO MONIZ,-17.19774049863746,32.859257228378524
pt.ine.add.MAD.113365,CAM POMBAIS,,9270-042,PORTO MONIZ,-17.196380594418386,32.85870397857215
pt.ine.add.MAD.113366,CAM POMBAIS,13,9270-042,PORTO MONIZ,-17.195235600903974,32.85906676081805
pt.ine.add.MAD.113400,CAM AGRICOLA DA FONTE,,9270-129,SEIXAL PMZ,-17.113545749496986,32.805220327858265
pt.ine.add.MAD.113401,CAM AGRICOLA DA FONTE,,9270-129,SEIXAL PMZ,-17.113500705367382,32.80512188929009
pt.ine.add.MAD.113607,CAM COXA,,9270-092,PORTO MONIZ,-17.194820354622916,32.86042672523117
pt.ine.add.MAD.113608,CAM RIBEIRO CHARCO,6,9270-092,PORTO MONIZ,-17.193503638793207,32.859457865412644
pt.ine.add.MAD.113622,CAM VOLTA DO CARRO,44,9270-093,PORTO MONIZ,-17.19141120418834,32.8625696352265
pt.ine.add.MAD.113654,CAM AGRICOLA DA FONTE,,9270-129,SEIXAL PMZ,-17.11579033083091,32.806661374332876
pt.ine.add.MAD.113782,CAM AGRICOLA DA FONTE,,9270-129,SEIXAL PMZ,-17.109464232379146,32.81731933820683
pt.ine.add.MAD.113783,CAM AGRICOLA DA FONTE,,9270-129,SEIXAL PMZ,-17.10941494403557,32.81658970279357
pt.ine.add.MAD.113863,ER 101,176,9270-093,PORTO MONIZ,-17.190579476920114,32.860032157023156
pt.ine.add.MAD.113864,CAM POMBAIS,,9270-042,PORTO MONIZ,-17.196743913688735,32.85957232704341
pt.ine.add.MAD.113865,CAM POMBAIS,,9270-042,PORTO MONIZ,-17.197356011211696,32.859696840800275
pt.ine.add.MAD.113866,CAM POMBAIS,47,9270-042,PORTO MONIZ,-17.19803353343432,32.85900859674988
pt.ine.add.MAD.113867,CAM CABEÇO CARRACHOTE,,9270-042,PORTO MONIZ,-17.194863597482303,32.858712576812366
pt.ine.add.MAD.113970,ESTR ANTIGA ER 101,,9270-013,ACHADAS DA CRUZ,-17.208626098397065,32.840209194439424
pt.ine.add.MAD.113971,CAM COXA,,9270-092,PORTO MONIZ,-17.19469621033076,32.860158368870266
pt.ine.add.MAD.113972,CAM VOLTA DO CARRO,,9270-093,PORTO MONIZ,-17.190236963911556,32.86087681637455
pt.ine.add.MAD.113992,CAM VALINHO,11,9270-042,PORTO MONIZ,-17.19545856468412,32.85857588342369
pt.ine.add.MAD.114035,CAM AGRICOLA DA FONTE,,9270-129,SEIXAL PMZ,-17.112668248384626,32.811457634294676
pt.ine.add.MAD.114226,ESTR ANTIGA ER 101,,9270-014,ACHADAS DA CRUZ,-17.205404621533667,32.841257993216814
pt.ine.add.MAD.114227,CAM COXA,64,9270-092,PORTO MONIZ,-17.195656517327148,32.86053829660242
pt.ine.add.MAD.114231,CAM LOMBO DOS FORNEIROS,,9270-092,PORTO MONIZ,-17.193660706609453,32.85976171693943
pt.ine.add.MAD.114238,CAM FERREIRO,33,9270-041,PORTO MONIZ,-17.186551975560633,32.85352861951559
pt.ine.add.MAD.114286,,,9270-041,PORTO MONIZ,-17.18406463547867,32.85709806860027
pt.ine.add.MAD.114290,CAM CRUZ,4,9270-041,PORTO MONIZ,-17.18406463547867,32.85709806860027
pt.ine.add.MAD.114378,CAM AGRICOLA DA FONTE,,9270-129,SEIXAL PMZ,-17.114794435333188,32.808346553801506
pt.ine.add.MAD.114421,CAM POMBAIS,6,9270-042,PORTO MONIZ,-17.194953681952057,32.85933322665136
pt.ine.add.MAD.114473,CAM AGRICOLA DA FONTE,,9270-129,SEIXAL PMZ,-17.11006423158489,32.81649759388745
pt.ine.add.MAD.114486,CAM AGRICOLA DA FONTE,,9270-129,SEIXAL PMZ,-17.112270291043007,32.81133809797492
pt.ine.add.MAD.114494,CAM VOLTA DO CARRO,,9270-093,PORTO MONIZ,-17.191764545910097,32.862599514014605
pt.ine.add.MAD.114625,CAM AGRICOLA DA FONTE,,9270-129,SEIXAL PMZ,-17.10982191070035,32.81618604588907
pt.ine.add.MAD.114607,CAM LOMBO BRASIL,,9270-042,PORTO MONIZ,-17.197038767819503,32.85766438404529
pt.ine.add.MAD.114647,CAM AGRICOLA DA FONTE,,9270-129,SEIXAL PMZ,-17.109736080748867,32.81616945666596
pt.ine.add.MAD.114856,ER 101,,9270-093,PORTO MONIZ,-17.18730946907912,32.85914251989558
pt.ine.add.MAD.114873,CAM TELEFERICO,,9270-013,ACHADAS DA CRUZ,-17.209892508685073,32.84217074963453
pt.ine.add.MAD.114902,CAM RIBEIRO ESCURO,25A,9270-104,RIBEIRA DA JANELA,-17.1520437728416,32.84517233170766
pt.ine.add.MAD.114957,CAM POMBAIS,,9270-042,PORTO MONIZ,-17.196365654992107,32.859831470434486
pt.ine.add.MAD.115009,CAM LOMBO DOS FORNEIROS,,9270-092,PORTO MONIZ,-17.193442417477737,32.86000902763185
pt.ine.add.MAD.115053,CAM POMBAIS,23,9270-042,PORTO MONIZ,-17.19640928837571,32.8590010632111
pt.ine.add.MAD.115062,CAM LAMEIROS,,9270-014,ACHADAS DA CRUZ,-17.20999340082572,32.843224052347495
pt.ine.add.MAD.115068,CAM AGRICOLA DA FONTE,,9270-129,SEIXAL PMZ,-17.113911014712766,32.809822409889506
pt.ine.add.MAD.117309,,,9270-041,PORTO MONIZ,-17.18406463547867,32.85709806860027
pt.ine.add.MAD.117310,ADRIANO PONTE NEGRINHO,,9270-091,PORTO MONIZ,-17.18406463547867,32.85709806860027
pt.ine.add.MAD.128116,CAM LOMBO BRASIL,,9270-042,PORTO MONIZ,-17.197920071833817,32.85787434398787
pt.ine.add.MAD.128117,CAM PERIM,,9270-034,PORTO MONIZ,-17.17082817249068,32.86461499107167
pt.ine.add.MAD.128133,ER 101,,9270-034,PORTO MONIZ,-17.170783556437893,32.86497648130771
pt.ine.add.MAD.128134,VR CALHAU MIUDO,,9270-122,SEIXAL PMZ,-17.119112324195893,32.82603913471278
pt.ine.add.MAD.128217,CAM COXA,,9270-092,PORTO MONIZ,-17.194536917638594,32.859764379412994
pt.ine.add.MAD.128218,CAM CASTANHEIRO,,9270-035,PORTO MONIZ,-17.171688175714582,32.857376724401654
pt.ine.add.MAD.128234,CAM ASSOMADA,,9270-035,PORTO MONIZ,-17.169483138613526,32.858966075054276
pt.ine.add.MAD.128235,CAM CASTANHEIRO,,9270-035,PORTO MONIZ,-17.172820193622258,32.856040448666086
pt.ine.add.MAD.128257,SITIO LAMACEIROS,,9270-035,PORTO MONIZ,-17.169055051112746,32.857620814989296
pt.ine.add.MAD.128316,CAM IRMA MARY JANE WILSON,,9270-093,PORTO MONIZ,-17.192434559732,32.86203768040226
pt.ine.add.MAD.128317,ER 101,,9270-091,PORTO MONIZ,-17.18366778575311,32.8579075889747
pt.ine.add.MAD.128318,CAM CASAIS DE BAIXO,32,9270-102,RIBEIRA DA JANELA,-17.157903882423966,32.84982383123615
pt.ine.add.MAD.128331,ESTR ANTIGA ER 101,1,9270-014,ACHADAS DA CRUZ,-17.204549083036426,32.84165182301526
pt.ine.add.MAD.128332,ESTR ANTIGA ER 101,,9270-091,PORTO MONIZ,-17.186141643596024,32.85857677937134
pt.ine.add.MAD.128356,,,9270-013,ACHADAS DA CRUZ,-17.217423625788324,32.85161437494346
pt.ine.add.MAD.128360,R MORGADA,,9270-035,PORTO MONIZ,-17.169982709047275,32.85403363155807
pt.ine.add.MAD.128409,CAM CRUZ,,9270-091,PORTO MONIZ,-17.184887990981366,32.85494645193827
pt.ine.add.MAD.128428,ER 101,,9270-093,PORTO MONIZ,-17.191871619775647,32.85913478474757
pt.ine.add.MAD.128429,CAM DR FRANCISCO RODRIGUES JARDIM,7,9270-101,RIBEIRA DA JANELA,-17.158107492288906,32.8454375969632
pt.ine.add.MAD.128519,CAM TERRA COIMEIRA,,9270-093,PORTO MONIZ,-17.192175738604313,32.856730706500585
pt.ine.add.MAD.128520,CAM PEDREGAL,1,9270-104,RIBEIRA DA JANELA,-17.15326917857976,32.84636866764086
pt.ine.add.MAD.128568,VR ENTRADA 2,5,9270-041,PORTO MONIZ,-17.185881671079983,32.853206675479456
pt.ine.add.MAD.128609,CAM PE JOSE GONÇALVES COSTA,,9270-093,PORTO MONIZ,-17.188593524522133,32.85530550058536
pt.ine.add.MAD.128610,VR PORTADA,,9270-127,SEIXAL PMZ,-17.10612939077405,32.822633063055214
pt.ine.add.MAD.128629,CAM CRUZ,,9270-041,PORTO MONIZ,-17.183964171440675,32.85387142510213
pt.ine.add.MAD.128630,CAM VOLTINHA,16,9270-101,RIBEIRA DA JANELA,-17.157443915812067,32.846269677331215
pt.ine.add.MAD.128766,VR PORTADA,20,9270-127,SEIXAL PMZ,-17.106425133214554,32.822492813477204
pt.ine.add.MAD.128801,SIT CHAO RIBEIRA,,9270-129,SEIXAL PMZ,-17.114624718638424,32.80929632175742
pt.ine.add.MAD.129066,ESTR ANTÓNIO GEREMIAS DE SOUSA,,9270-129,SEIXAL PMZ,-17.133079203267297,32.82990501644997
pt.ine.add.MAD.129144,CAM EIRINHA,37,9270-012,ACHADAS DA CRUZ,-17.212554628737006,32.84053655470436
pt.ine.add.MAD.129274,BC LOMBO DA RELVA,19,9270-014,ACHADAS DA CRUZ,-17.205176673714274,32.84240727691363
pt.ine.add.MAD.129292,SIT PENEIDA,6,9270-040,PORTO MONIZ,-17.174812325560342,32.865429514553725
pt.ine.add.MAD.129515,CAM FONTE DO REI,,9270-036,PORTO MONIZ,-17.178517457324542,32.85570687092287
pt.ine.add.MAD.129549,CAM CASCALHO,12,9270-104,RIBEIRA DA JANELA,-17.15349998666424,32.845309592987924
pt.ine.add.MAD.129771,ER 101,100,9270-091,PORTO MONIZ,-17.183596415096275,32.85761124547003
pt.ine.add.MAD.129837,CAM GORGULHO,,9270-035,PORTO MONIZ,-17.170767777326603,32.85643680614579
pt.ine.add.MAD.129874,CAM AGRICOLA DA FONTE,,9270-121,SEIXAL PMZ,-17.113928101460964,32.80332908664632
pt.ine.add.MAD.129925,CAM VOLTA CARRO,95,9270-093,PORTO MONIZ,-17.18925017160942,32.86072275646248
pt.ine.add.MAD.129933,CAM CAPELA,,9270-035,PORTO MONIZ,-17.17233287152082,32.8540198866551
pt.ine.add.MAD.129962,CAM MOINHOS,,9270-036,PORTO MONIZ,-17.180360558421704,32.85374492524931
pt.ine.add.MAD.129982,ESTR ANTIGA ER 101,,9270-014,ACHADAS DA CRUZ,-17.205549650174028,32.841075079504925
pt.ine.add.MAD.130116,CAM POMBAIS,,9270-042,PORTO MONIZ,-17.194760108945736,32.85928251702172
pt.ine.add.MAD.130193,BC LOMBO DA RELVA,,9270-014,ACHADAS DA CRUZ,-17.205736192180773,32.84300160671634
pt.ine.add.MAD.130197,CAM PEDRA MOLE,,9270-039,PORTO MONIZ,-17.175238140687007,32.86405138993152
pt.ine.add.MAD.130199,SIT PENEIDA I,I,9270-040,PORTO MONIZ,-17.174812325560342,32.865429514553725
pt.ine.add.MAD.130210,VIA EXPRESSO,,9270-122,SEIXAL PMZ,-17.11810527465197,32.82546099340775
pt.ine.add.MAD.130217,CAM JUNQUEIRA,,9270-041,PORTO MONIZ,-17.18596015912153,32.8520510163204
pt.ine.add.MAD.130227,CAM MANUEL DIAS DE CASTRO,,9270-125,SEIXAL PMZ,-17.106718404368515,32.82405702578328
pt.ine.add.MAD.130255,ER 101,,9270-092,PORTO MONIZ,-17.192618838977697,32.85823793702907
pt.ine.add.MAD.130265,CAM POMBAIS,51,9270-042,PORTO MONIZ,-17.198297196016387,32.85886869476519
