id,street,house,postcode,city,lon,lat
pt.ine.add.AC25.25,R VENTO,,9970-093,PONTA DELGADA SCF,-31.21132944556783,39.51993196132678
pt.ine.add.AC25.26,R CASAS DE BAIXO,,9970-080,PONTA DELGADA SCF,-31.20943927810622,39.519245146166824
pt.ine.add.AC25.27,R PEDRAS BRANCAS,,9970-080,PONTA DELGADA SCF,-31.209382088330955,39.51603680916054
pt.ine.add.AC25.28,R CASAS DE BAIXO,,9970-080,PONTA DELGADA SCF,-31.209856743985345,39.51612520871659
pt.ine.add.AC25.29,R PEDRAS BRANCAS,,9970-080,PONTA DELGADA SCF,-31.211129242740004,39.517307054898694
pt.ine.add.AC25.30,ESTR REGIONAL,,9970-071,PONTA DELGADA SCF,-31.210525954398122,39.51860417499813
pt.ine.add.AC25.31,R CASAS DE BAIXO,,9970-080,PONTA DELGADA SCF,-31.2096267180483,39.519193975684516
pt.ine.add.AC25.32,R PORTO,,9970-090,PONTA DELGADA SCF,-31.209589537207773,39.516112082869455
pt.ine.add.AC25.33,R CASAS DE BAIXO,,9970-080,PONTA DELGADA SCF,-31.210521240017243,39.51672305546101
pt.ine.add.AC25.34,R CASAS DE BAIXO,,9970-080,PONTA DELGADA SCF,-31.210618004973156,39.51683067974172
pt.ine.add.AC25.35,R CASAS DE BAIXO,,9970-080,PONTA DELGADA SCF,-31.210841317539096,39.5171945061894
pt.ine.add.AC25.36,R CASAS DE BAIXO,,9970-080,PONTA DELGADA SCF,-31.21093626228273,39.517574375596716
pt.ine.add.AC25.37,ESTR REGIONAL,,9970-071,PONTA DELGADA SCF,-31.21013129068592,39.518571068310834
pt.ine.add.AC25.38,R CASAS DE BAIXO,,9970-080,PONTA DELGADA SCF,-31.20984118513393,39.51627813412894
pt.ine.add.AC25.39,R PORTO,,9970-090,PONTA DELGADA SCF,-31.210234516680444,39.516815764951865
pt.ine.add.AC25.40,TV CANTO,,9970-285,SANTA CRUZ DAS FLORES,-31.13932438857246,39.44480484033344
pt.ine.add.AC25.41,R SANTO ESPÍRITO,,9970-285,SANTA CRUZ DAS FLORES,-31.139190252548076,39.44547842425304
pt.ine.add.AC25.83,R PORTO,,9970-090,PONTA DELGADA SCF,-31.21035301336293,39.51763747325564
pt.ine.add.AC25.84,R VENTO,,9970-093,PONTA DELGADA SCF,-31.21239294086248,39.51974110131422
pt.ine.add.AC25.85,R VENTO,,9970-093,PONTA DELGADA SCF,-31.211942590364266,39.51915755201452
pt.ine.add.AC25.86,R POLEIRO,,9970-088,PONTA DELGADA SCF,-31.212002731571346,39.51862690451852
pt.ine.add.AC25.87,R POLEIRO,,9970-088,PONTA DELGADA SCF,-31.212781651056844,39.51773791454685
pt.ine.add.AC25.88,ESTR REGIONAL,,9970-071,PONTA DELGADA SCF,-31.211078255574808,39.5183874351319
pt.ine.add.AC25.89,ESTR REGIONAL,,9970-071,PONTA DELGADA SCF,-31.211553008017535,39.5175658487353
pt.ine.add.AC25.90,ESTR REGIONAL,,9970-071,PONTA DELGADA SCF,-31.211584504258525,39.5167914983392
pt.ine.add.AC25.91,R SEBES,,9970-082,PONTA DELGADA SCF,-31.209772972017948,39.51576352992356
pt.ine.add.AC25.92,R SEBES,,9970-082,PONTA DELGADA SCF,-31.210239166903868,39.51527517606402
pt.ine.add.AC25.93,R SEBES,,9970-082,PONTA DELGADA SCF,-31.21072537461794,39.51491326433555
pt.ine.add.AC25.94,R QUARTEIRO,,9970-091,PONTA DELGADA SCF,-31.212017880468224,39.51486107828788
pt.ine.add.AC25.95,R TERRA CHA,,9970-078,PONTA DELGADA SCF,-31.209408581927008,39.5159110814129
pt.ine.add.AC25.96,R CANTO,,9970-084,PONTA DELGADA SCF,-31.205918763294083,39.514559863454004
pt.ine.add.AC25.97,R PORTINHO,,9970-089,PONTA DELGADA SCF,-31.20485774651524,39.51284965454499
pt.ine.add.AC25.98,R CRUZ,,9970-073,PONTA DELGADA SCF,-31.205631278588463,39.51126688086402
pt.ine.add.AC25.99,ESTR REGIONAL,,9970-310,SANTA CRUZ DAS FLORES,-31.150349398490185,39.470370180098925
pt.ine.add.AC25.100,R MOIO,,9970-241,SANTA CRUZ DAS FLORES,-31.147669951042428,39.46927338073764
pt.ine.add.AC25.101,ESTR REGIONAL,,9970-310,SANTA CRUZ DAS FLORES,-31.15027876232998,39.4686482001124
pt.ine.add.AC25.102,ESTR VALES,,9970-380,SANTA CRUZ DAS FLORES,-31.142932508118616,39.45158379060908
pt.ine.add.AC25.103,R BARREIRO,,9970-244,SANTA CRUZ DAS FLORES,-31.145062761970262,39.46677215738102
pt.ine.add.AC25.104,R FAZENDA,,9970-241,SANTA CRUZ DAS FLORES,-31.144875557953355,39.46725569489973
pt.ine.add.AC25.105,R VALES,,9970-380,SANTA CRUZ DAS FLORES,-31.14364029484901,39.45206359984745
pt.ine.add.AC25.106,R VALES,,9970-380,SANTA CRUZ DAS FLORES,-31.14497095077207,39.452283052312886
pt.ine.add.AC25.107,R VALES,,9970-380,SANTA CRUZ DAS FLORES,-31.14648103364961,39.452748613080324
pt.ine.add.AC25.108,R VALES,,9970-380,SANTA CRUZ DAS FLORES,-31.145663172993466,39.45247428942586
pt.ine.add.AC25.151,R CRUZ,,9970-073,PONTA DELGADA SCF,-31.205740827437904,39.51152985381331
pt.ine.add.AC25.152,R CRUZ,,9970-073,PONTA DELGADA SCF,-31.205887343509616,39.511712309907665
pt.ine.add.AC25.153,R S PEDRO,,9970-083,PONTA DELGADA SCF,-31.206233966053375,39.51315921405292
pt.ine.add.AC25.154,R S PEDRO,,9970-083,PONTA DELGADA SCF,-31.206537245514223,39.51357834118424
pt.ine.add.AC25.155,R LADEIRA,,9970-062,PONTA DELGADA SCF,-31.20742073943568,39.51405146670766
pt.ine.add.AC25.156,R TERRA CHA,,9970-078,PONTA DELGADA SCF,-31.20918204229379,39.51567333843837
pt.ine.add.AC25.157,R SENADOR ANDRE DE FREITAS,,9970-096,PONTA DELGADA SCF,-31.207326149401727,39.51456356120192
pt.ine.add.AC25.158,R CANTO,,9970-084,PONTA DELGADA SCF,-31.205643876227793,39.51439344497075
pt.ine.add.AC25.159,R PORTINHO,,9970-089,PONTA DELGADA SCF,-31.20474313147167,39.51323530166994
pt.ine.add.AC25.160,R PORTINHO,,9970-089,PONTA DELGADA SCF,-31.204932644902833,39.51310308326651
pt.ine.add.AC25.161,R PORTINHO,,9970-089,PONTA DELGADA SCF,-31.205030762982815,39.51290638506631
pt.ine.add.AC25.162,R PORTINHO,,9970-089,PONTA DELGADA SCF,-31.205116557877993,39.512736525590135
pt.ine.add.AC25.163,R PORTINHO,,9970-089,PONTA DELGADA SCF,-31.205921611933807,39.512640839223714
pt.ine.add.AC25.164,R PORTINHO,,9970-089,PONTA DELGADA SCF,-31.205433542059396,39.513074779828436
pt.ine.add.AC25.165,R QUARTEIRO,,9970-091,PONTA DELGADA SCF,-31.211547619466344,39.51460157065832
pt.ine.add.AC25.166,R LEVADA,,9970-077,PONTA DELGADA SCF,-31.21410654387195,39.5132444141992
pt.ine.add.AC25.167,R VALES,,9970-380,SANTA CRUZ DAS FLORES,-31.145340294820045,39.45237904199323
pt.ine.add.AC25.168,RIBEIRA POMAR,,9970-270,SANTA CRUZ DAS FLORES,-31.13623679323647,39.45513459926693
pt.ine.add.AC25.169,MTE CRUZES SN,SN,9970-380,SANTA CRUZ DAS FLORES,-31.138382560441176,39.45093440463704
pt.ine.add.AC25.170,VALES,,9970-380,SANTA CRUZ DAS FLORES,-31.140541905815855,39.45058154058112
pt.ine.add.AC25.171,VALES,S N,9970-380,SANTA CRUZ DAS FLORES,-31.140541905815855,39.45058154058112
pt.ine.add.AC25.172,VALES,S N,9970-380,SANTA CRUZ DAS FLORES,-31.141886054674195,39.450729166050664
pt.ine.add.AC25.173,VALES,,9970-380,SANTA CRUZ DAS FLORES,-31.143586385475263,39.4514680965255
pt.ine.add.AC25.174,RIBEIRA DOS MOINHOS,,9970-241,SANTA CRUZ DAS FLORES,-31.141271676413584,39.46901809178036
pt.ine.add.AC25.175,RIBEIRA DOS MOINHOS,,9970-241,SANTA CRUZ DAS FLORES,-31.141228314695212,39.4689002722507
pt.ine.add.AC25.176,ESTR NACIONAL,NUM 2,9970-260,SANTA CRUZ DAS FLORES,-31.1410070660122,39.46891475390525
pt.ine.add.AC25.177,ESTR REGIONAL,,9970-310,SANTA CRUZ DAS FLORES,-31.145303594205068,39.46820854459684
pt.ine.add.AC25.178,ESTR REGIONAL,,9970-310,SANTA CRUZ DAS FLORES,-31.146876986170884,39.468053441331605
pt.ine.add.AC25.179,ESTR REGIONAL,2,9970-310,SANTA CRUZ DAS FLORES,-31.14985671595541,39.46834416340178
pt.ine.add.AC25.180,R MONSENHOR AUGUSTO RIBEIRO,,9970-248,SANTA CRUZ DAS FLORES,-31.146732239100395,39.46737540516737
pt.ine.add.AC25.514,,,9970-265,SANTA CRUZ DAS FLORES,-31.1366270888988,39.46185309635912
pt.ine.add.AC25.227,R TERRA CHA,,9970-078,PONTA DELGADA SCF,-31.209212699798186,39.5153855001044
pt.ine.add.AC25.228,R TRAVESSA,,9970-079,PONTA DELGADA SCF,-31.21017596936743,39.514111949922544
pt.ine.add.AC25.229,R SEBES,,9970-082,PONTA DELGADA SCF,-31.209985671811406,39.515181174903105
pt.ine.add.AC25.230,R TERRA CHA,,9970-078,PONTA DELGADA SCF,-31.208574743167926,39.514862114827494
pt.ine.add.AC25.231,R PASSAL,,9970-087,PONTA DELGADA SCF,-31.208576999216643,39.51432156694227
pt.ine.add.AC25.232,R PASSAL,,9970-087,PONTA DELGADA SCF,-31.207955545038566,39.51360922870486
pt.ine.add.AC25.233,R ESCADINHA,,9970-092,PONTA DELGADA SCF,-31.208602161680393,39.51288941052068
pt.ine.add.AC25.234,R TERRA CHA,,9970-078,PONTA DELGADA SCF,-31.208483574229255,39.51478863182233
pt.ine.add.AC25.235,R TRAVESSA,,9970-079,PONTA DELGADA SCF,-31.21068810927996,39.5145523020968
pt.ine.add.AC25.236,ESTR REGIONAL,,9970-071,PONTA DELGADA SCF,-31.211350800260483,39.514112017195544
pt.ine.add.AC25.237,R QUARTEIRO,,9970-091,PONTA DELGADA SCF,-31.211474312574556,39.51428510256758
pt.ine.add.AC25.238,R LUGAR FAZENDA SN,SN,9970-248,SANTA CRUZ DAS FLORES,-31.14743330058651,39.46680094733068
pt.ine.add.AC25.239,R AREEIRO,,9970-243,SANTA CRUZ DAS FLORES,-31.15157764134752,39.46612811785176
pt.ine.add.AC25.240,ESTR REGIONAL N,N,9970-310,SANTA CRUZ DAS FLORES,-31.149739639403403,39.46793686274196
pt.ine.add.AC25.241,LAD ESPIRITO SANTO,,9970-240,SANTA CRUZ DAS FLORES,-31.148718488599926,39.46699260488799
pt.ine.add.AC25.242,R AREEIRO,,9970-243,SANTA CRUZ DAS FLORES,-31.149766599804607,39.46691919345242
pt.ine.add.AC25.243,ESTR REGIONAL,,9970-310,SANTA CRUZ DAS FLORES,-31.14358117024557,39.46784769308698
pt.ine.add.AC25.244,R TRAVESSA,,9970-250,SANTA CRUZ DAS FLORES,-31.14509082116272,39.467466353215926
pt.ine.add.AC25.245,R BARREIRO,,9970-244,SANTA CRUZ DAS FLORES,-31.146127656272913,39.46694230894124
pt.ine.add.AC25.308,R CANADAS,,9970-242,SANTA CRUZ DAS FLORES,-31.151226986551166,39.46576215308489
pt.ine.add.AC25.289,CAM NOVO,,9970-070,PONTA DELGADA SCF,-31.210426315930988,39.513422057071814
pt.ine.add.AC25.290,R OUTEIRO,,9970-086,PONTA DELGADA SCF,-31.209554407745397,39.5111381799467
pt.ine.add.AC25.291,CAM NOVO,,9970-070,PONTA DELGADA SCF,-31.210831276957748,39.51259939813744
pt.ine.add.AC25.292,R PASSAL,,9970-087,PONTA DELGADA SCF,-31.207541592251193,39.51342265088426
pt.ine.add.AC25.293,R PASSAL,,9970-087,PONTA DELGADA SCF,-31.20733577441115,39.51328433073669
pt.ine.add.AC25.294,R LEVADA,,9970-077,PONTA DELGADA SCF,-31.21259984521697,39.51303204802199
pt.ine.add.AC25.295,R LEVADA,,9970-077,PONTA DELGADA SCF,-31.21263749720591,39.51292451046927
pt.ine.add.AC25.296,R ROCHELA,,9970-072,PONTA DELGADA SCF,-31.20804099275657,39.51254740012656
pt.ine.add.AC25.297,R S PEDRO,,9970-083,PONTA DELGADA SCF,-31.20653766380027,39.51310984267625
pt.ine.add.AC25.298,R ESTALEIRO,,9970-085,PONTA DELGADA SCF,-31.206385539187405,39.51269304835605
pt.ine.add.AC25.299,R CRUZ,,9970-073,PONTA DELGADA SCF,-31.207236537163794,39.511715109997056
pt.ine.add.AC25.300,R ROCHELA,,9970-072,PONTA DELGADA SCF,-31.20782123458173,39.512498963026395
pt.ine.add.AC25.301,R ROCHELA,,9970-072,PONTA DELGADA SCF,-31.20705111413955,39.51304568712247
pt.ine.add.AC25.302,R FONTE MOLEIRO,,9970-094,PONTA DELGADA SCF,-31.207855599242187,39.51206702668454
pt.ine.add.AC25.303,R TRAVESSA,,9970-241,SANTA CRUZ DAS FLORES,-31.14555860065262,39.467798165760364
pt.ine.add.AC25.304,R TRAVESSA,,9970-241,SANTA CRUZ DAS FLORES,-31.145397604817106,39.46773252949252
pt.ine.add.AC25.305,R BARREIRO,,9970-244,SANTA CRUZ DAS FLORES,-31.145487070429073,39.46742762637001
pt.ine.add.AC25.306,R FAZENDA,,9970-241,SANTA CRUZ DAS FLORES,-31.153004416601433,39.4640425183031
pt.ine.add.AC25.307,R CANADAS,,9970-242,SANTA CRUZ DAS FLORES,-31.15140389319803,39.465665859266295
pt.ine.add.AC25.309,R CANADAS,,9970-242,SANTA CRUZ DAS FLORES,-31.150989361891625,39.46595658790192
pt.ine.add.AC25.310,R LOMBO,,9970-247,SANTA CRUZ DAS FLORES,-31.150284589327338,39.46623368768863
pt.ine.add.AC25.311,R LOMBO,,9970-247,SANTA CRUZ DAS FLORES,-31.149368758625116,39.46657950133082
pt.ine.add.AC25.312,R LOMBO,,9970-247,SANTA CRUZ DAS FLORES,-31.148585265694674,39.46675623060789
pt.ine.add.AC25.313,R FAZENDA,,9970-241,SANTA CRUZ DAS FLORES,-31.149468154089163,39.46633782106359
pt.ine.add.AC25.314,R CANADAS SN,SN,9970-242,SANTA CRUZ DAS FLORES,-31.150172590624376,39.465195787505856
pt.ine.add.AC25.315,R CANADAS,,9970-242,SANTA CRUZ DAS FLORES,-31.151204287267642,39.465302296168716
pt.ine.add.AC25.316,R FAZENDA,,9970-241,SANTA CRUZ DAS FLORES,-31.150253071355568,39.46610705009465
pt.ine.add.AC25.317,R FAZENDA,,9970-241,SANTA CRUZ DAS FLORES,-31.150088735228064,39.4661675032732
pt.ine.add.AC25.360,R CRUZ,,9970-073,PONTA DELGADA SCF,-31.206051279734613,39.51166979189381
pt.ine.add.AC25.361,R CRUZ,,9970-073,PONTA DELGADA SCF,-31.20564031656394,39.51091564158924
pt.ine.add.AC25.362,R OUTEIRO,,9970-086,PONTA DELGADA SCF,-31.20918720367176,39.51094331844548
pt.ine.add.AC25.363,R OUTEIRO,,9970-086,PONTA DELGADA SCF,-31.209344509177775,39.511140439439956
pt.ine.add.AC25.364,R OUTEIRO,,9970-086,PONTA DELGADA SCF,-31.20933934175211,39.51136010951113
pt.ine.add.AC25.365,R FONTE MOLEIRO,,9970-094,PONTA DELGADA SCF,-31.20737091672501,39.5114649107667
pt.ine.add.AC25.366,R CRUZ,,9970-073,PONTA DELGADA SCF,-31.20724278874424,39.511471944152696
pt.ine.add.AC25.367,R OUTEIRO,,9970-086,PONTA DELGADA SCF,-31.209078861044727,39.51108580447254
pt.ine.add.AC25.368,R OUTEIRO,,9970-086,PONTA DELGADA SCF,-31.20895964611636,39.511651579488195
pt.ine.add.AC25.369,R OUTEIRO,,9970-086,PONTA DELGADA SCF,-31.20856803037672,39.51150138841747
pt.ine.add.AC25.370,FAROL DO ALBARNAZ,,9970-062,PONTA DELGADA SCF,-31.235703222685274,39.51982702231903
pt.ine.add.AC25.371,FAROL DO ALBARNAZ,,9970-062,PONTA DELGADA SCF,-31.235703222685274,39.51982702231903
pt.ine.add.AC25.372,R ALM GAGO COUTINHO,,9970-315,SANTA CRUZ DAS FLORES,-31.129154317789865,39.45574162496441
pt.ine.add.AC25.373,R ALM GAGO COUTINHO,,9970-315,SANTA CRUZ DAS FLORES,-31.129154317789865,39.45574162496441
pt.ine.add.AC25.374,R ALM GAGO COUTINHO,27,9970-315,SANTA CRUZ DAS FLORES,-31.129075650307506,39.45564125218021
pt.ine.add.AC25.375,R ALM GAGO COUTINHO,25,9970-315,SANTA CRUZ DAS FLORES,-31.12888442936615,39.45540392223733
pt.ine.add.AC25.376,R FAZENDA,,9970-241,SANTA CRUZ DAS FLORES,-31.149024243080053,39.46642085132179
pt.ine.add.AC25.377,R FAZENDA,,9970-241,SANTA CRUZ DAS FLORES,-31.147811561130993,39.46656371202818
pt.ine.add.AC25.378,R FAZENDA,,9970-241,SANTA CRUZ DAS FLORES,-31.147601462118704,39.46659640339239
pt.ine.add.AC25.379,R AREEIRO,,9970-243,SANTA CRUZ DAS FLORES,-31.156728242559318,39.46167800135775
pt.ine.add.AC25.380,R AREEIRO,,9970-243,SANTA CRUZ DAS FLORES,-31.15496742754725,39.46497466130902
pt.ine.add.AC25.381,R AREEIRO,,9970-243,SANTA CRUZ DAS FLORES,-31.152995692146437,39.46569115972137
pt.ine.add.AC25.382,R AREEIRO,,9970-243,SANTA CRUZ DAS FLORES,-31.15273840734418,39.465750139927415
pt.ine.add.AC25.383,R AREEIRO,,9970-243,SANTA CRUZ DAS FLORES,-31.152388646647367,39.46578963046027
pt.ine.add.AC25.384,R AREEIRO,,9970-243,SANTA CRUZ DAS FLORES,-31.152388646647367,39.46578963046027
pt.ine.add.AC25.385,R CANTO,,9970-245,SANTA CRUZ DAS FLORES,-31.15469396683618,39.463006199970714
pt.ine.add.AC25.386,R AREEIRO,,9970-243,SANTA CRUZ DAS FLORES,-31.15684392531173,39.46213933190812
pt.ine.add.AC25.387,R BELGUINHA,,9970-265,SANTA CRUZ DAS FLORES,-31.13793490266305,39.464243605420904
pt.ine.add.AC25.388,R S PEDRO,21,9970-324,SANTA CRUZ DAS FLORES,-31.134447933052595,39.460322536158884
pt.ine.add.AC25.389,MTE S CRUZ SN,SN,9970-265,SANTA CRUZ DAS FLORES,-31.135686330421738,39.46095506214489
pt.ine.add.AC25.432,R ALM GAGO COUTINHO,23,9970-315,SANTA CRUZ DAS FLORES,-31.128794627919472,39.4552853506424
pt.ine.add.AC25.452,MTE S CRUZ FLORES,,9970-265,SANTA CRUZ DAS FLORES,-31.139475207366644,39.46270958532011
pt.ine.add.AC25.433,R ALM GAGO COUTINHO,21,9970-315,SANTA CRUZ DAS FLORES,-31.128670699169852,39.45513920053312
pt.ine.add.AC25.434,R ALM GAGO COUTINHO,17,9970-315,SANTA CRUZ DAS FLORES,-31.128697310042785,39.45501349281885
pt.ine.add.AC25.435,R ALM GAGO COUTINHO,19,9970-315,SANTA CRUZ DAS FLORES,-31.128697310042785,39.45501349281885
pt.ine.add.AC25.436,R ALM GAGO COUTINHO,19,9970-315,SANTA CRUZ DAS FLORES,-31.128697310042785,39.45501349281885
pt.ine.add.AC25.437,R ALM GAGO COUTINHO,13,9970-315,SANTA CRUZ DAS FLORES,-31.12847099981874,39.4547846071317
pt.ine.add.AC25.438,R CRISTINA MALHEIRO SERPA,2,9970-315,SANTA CRUZ DAS FLORES,-31.128878036428713,39.45434067275319
pt.ine.add.AC25.439,R CRISTINA MALHEIRO SERPA,12,9970-315,SANTA CRUZ DAS FLORES,-31.12942604959529,39.4551423462153
pt.ine.add.AC25.440,R CRISTINA MALHEIRO SERPA,14,9970-315,SANTA CRUZ DAS FLORES,-31.129537398510436,39.455324332012545
pt.ine.add.AC25.441,R CRISTINA MALHEIRO SERPA,6,9970-328,SANTA CRUZ DAS FLORES,-31.129773884759885,39.455607437638506
pt.ine.add.AC25.442,R D CRISTINA AIRES MALHEIRO SERPA,,9970-328,SANTA CRUZ DAS FLORES,-31.129976196999987,39.455430497555724
pt.ine.add.AC25.443,R D CRISTINA AIRES MALHEIRO SERPA,,9970-328,SANTA CRUZ DAS FLORES,-31.129740674733124,39.45511136896957
pt.ine.add.AC25.444,R D CRISTINA AIRES MALHEIRO SERPA,,9970-328,SANTA CRUZ DAS FLORES,-31.12962860237376,39.45495640087415
pt.ine.add.AC25.445,R MONTE,,9970-265,SANTA CRUZ DAS FLORES,-31.13564963457728,39.46145901772109
pt.ine.add.AC25.446,R MONTE,,9970-265,SANTA CRUZ DAS FLORES,-31.135512219894952,39.46181720258765
pt.ine.add.AC25.447,LG FARROPO,,9970-265,SANTA CRUZ DAS FLORES,-31.135134907195543,39.46201837423757
pt.ine.add.AC25.448,R LADEIRA DE S PEDRO,,9970-309,SANTA CRUZ DAS FLORES,-31.13504484644898,39.46190881300218
pt.ine.add.AC25.449,R MONTE,,9970-265,SANTA CRUZ DAS FLORES,-31.135271362611203,39.46169621331559
pt.ine.add.AC25.450,MTE S CRUZ FLORES,,9970-265,SANTA CRUZ DAS FLORES,-31.137806043392523,39.4638451140502
pt.ine.add.AC25.451,R MONTE,,9970-265,SANTA CRUZ DAS FLORES,-31.13814120559029,39.46348108390883
pt.ine.add.AC25.453,MTE CIMA,,9970-265,SANTA CRUZ DAS FLORES,-31.13965382885061,39.46167632623691
pt.ine.add.AC25.454,MTE S CRUZ FLORES,,9970-265,SANTA CRUZ DAS FLORES,-31.140440032388494,39.461833059762895
pt.ine.add.AC25.455,MTE CIMA,,9970-265,SANTA CRUZ DAS FLORES,-31.14003709865403,39.46212393481184
pt.ine.add.AC25.456,MTE S CRUZ FLORES,,9970-265,SANTA CRUZ DAS FLORES,-31.140245967178714,39.46301022853878
pt.ine.add.AC25.457,MTE CIMA,,9970-265,SANTA CRUZ DAS FLORES,-31.140186436239716,39.463063334516235
pt.ine.add.AC25.458,R MONTE,,9970-265,SANTA CRUZ DAS FLORES,-31.143471402840667,39.460169659845405
pt.ine.add.AC25.459,R MONTE,,9970-265,SANTA CRUZ DAS FLORES,-31.138278707481604,39.46355536363848
pt.ine.add.AC25.513,R BELGUINHA,,9970-265,SANTA CRUZ DAS FLORES,-31.136726936210135,39.46246735725113
pt.ine.add.AC25.492,R ROBERTO MESQUITA,,9970-335,SANTA CRUZ DAS FLORES,-31.12920182082003,39.453967475049595
pt.ine.add.AC25.493,R FR DIOGO DAS CHAGAS,,9970-334,SANTA CRUZ DAS FLORES,-31.129426881060926,39.45380892132552
pt.ine.add.AC25.494,R ROBERTO MESQUITA,1,9970-335,SANTA CRUZ DAS FLORES,-31.129686308637034,39.453668939456044
pt.ine.add.AC25.495,R FR DIOGO DAS CHAGAS,12,9970-334,SANTA CRUZ DAS FLORES,-31.129951180670822,39.454628230297175
pt.ine.add.AC25.496,R FR DIOGO DAS CHAGAS,,9970-334,SANTA CRUZ DAS FLORES,-31.129934984055303,39.45479915442623
pt.ine.add.AC25.497,R FR DIOGO DAS CHAGAS,18,9970-334,SANTA CRUZ DAS FLORES,-31.130180677266765,39.45517250451572
pt.ine.add.AC25.498,R FR DIOGO DAS CHAGAS,18,9970-334,SANTA CRUZ DAS FLORES,-31.130180677266765,39.45517250451572
pt.ine.add.AC25.499,ESTR REGIONAL,,9970-310,SANTA CRUZ DAS FLORES,-31.132770722324942,39.45306080693424
pt.ine.add.AC25.500,ESTR REGIONAL,,9970-310,SANTA CRUZ DAS FLORES,-31.132858843426003,39.45324241660304
pt.ine.add.AC25.501,R POMAR,5,9970-270,SANTA CRUZ DAS FLORES,-31.134271264300587,39.454751695019816
pt.ine.add.AC25.502,R MOINHOS SN,SN,9970-329,SANTA CRUZ DAS FLORES,-31.134081303245345,39.45490181176048
pt.ine.add.AC25.503,R POMAR,,9970-270,SANTA CRUZ DAS FLORES,-31.13369553483705,39.454985717119534
pt.ine.add.AC25.504,R SENADOR ANDRE DE FREITAS,24,9970-337,SANTA CRUZ DAS FLORES,-31.125844571614774,39.45434587154256
pt.ine.add.AC25.505,TV ALFANDEGA,6,9970-339,SANTA CRUZ DAS FLORES,-31.125630856238864,39.454081144554955
pt.ine.add.AC25.506,TV ALFANDEGA,6,9970-339,SANTA CRUZ DAS FLORES,-31.125630856238864,39.454081144554955
pt.ine.add.AC25.507,R MONTE,,9970-265,SANTA CRUZ DAS FLORES,-31.138145622575305,39.46375144606669
pt.ine.add.AC25.508,R BELGUINHA,,9970-265,SANTA CRUZ DAS FLORES,-31.13769480669902,39.46322166196997
pt.ine.add.AC25.509,R MONTE DE BAIXO,,9970-265,SANTA CRUZ DAS FLORES,-31.138027230130408,39.46252422877112
pt.ine.add.AC25.510,R BELGUINHA,,9970-265,SANTA CRUZ DAS FLORES,-31.137505217068327,39.462921304242585
pt.ine.add.AC25.511,R MONTE,,9970-265,SANTA CRUZ DAS FLORES,-31.137140873236916,39.46263616558223
pt.ine.add.AC25.512,R BELGUINHA,,9970-265,SANTA CRUZ DAS FLORES,-31.136840717461215,39.46255927792062
pt.ine.add.AC25.515,,,9970-265,SANTA CRUZ DAS FLORES,-31.136872272792008,39.46181197730434
pt.ine.add.AC25.516,,,9970-265,SANTA CRUZ DAS FLORES,-31.137829237985525,39.462539077008806
pt.ine.add.AC25.517,R MONTE,,9970-265,SANTA CRUZ DAS FLORES,-31.137987382983027,39.46183885217287
pt.ine.add.AC25.518,R MONTE,,9970-265,SANTA CRUZ DAS FLORES,-31.1382598829578,39.46164500249367
pt.ine.add.AC25.519,R MONTE DE BAIXO,,9970-265,SANTA CRUZ DAS FLORES,-31.137243004527786,39.46142149047715
pt.ine.add.AC25.520,R MONTE,,9970-265,SANTA CRUZ DAS FLORES,-31.136725079354694,39.46166546287937
pt.ine.add.AC25.521,R MONTE,,9970-265,SANTA CRUZ DAS FLORES,-31.136175335318157,39.46135933022397
pt.ine.add.AC25.552,TV ALFANDEGA,6,9970-339,SANTA CRUZ DAS FLORES,-31.125630856238864,39.454081144554955
pt.ine.add.AC25.553,R S CATARINA,25,9970-336,SANTA CRUZ DAS FLORES,-31.125600354187426,39.45391847793857
pt.ine.add.AC25.554,R SENADOR ANDRE DE FREITAS,18,9970-337,SANTA CRUZ DAS FLORES,-31.126209284637824,39.45418056551605
pt.ine.add.AC25.555,R SENADOR ANDRE DE FREITAS,20,9970-337,SANTA CRUZ DAS FLORES,-31.12605681594024,39.4542321664094
pt.ine.add.AC25.556,R SENADOR ANDRE DE FREITAS,11,9970-337,SANTA CRUZ DAS FLORES,-31.128274122739793,39.45345700931699
pt.ine.add.AC25.557,R SENADOR ANDRE DE FREITAS,,9970-337,SANTA CRUZ DAS FLORES,-31.128651648279714,39.453246853190365
pt.ine.add.AC25.558,R SENADOR ANDRE DE FREITAS,5,9970-337,SANTA CRUZ DAS FLORES,-31.128781603041492,39.45316785734619
pt.ine.add.AC25.559,R ROBERTO MESQUITA,6,9970-335,SANTA CRUZ DAS FLORES,-31.129078134566143,39.45381231954022
pt.ine.add.AC25.560,R ROBERTO MESQUITA,8,9970-335,SANTA CRUZ DAS FLORES,-31.12885403821408,39.45393484922238
pt.ine.add.AC25.561,R ROBERTO MESQUITA,8,9970-335,SANTA CRUZ DAS FLORES,-31.12885403821408,39.45393484922238
pt.ine.add.AC25.562,R ROBERTO MESQUITA,10,9970-335,SANTA CRUZ DAS FLORES,-31.128676890996662,39.454040114706274
pt.ine.add.AC25.563,PC MQ POMBAL,,9970-314,SANTA CRUZ DAS FLORES,-31.129277506214038,39.45331098338529
pt.ine.add.AC25.564,PC MQ POMBAL,,9970-314,SANTA CRUZ DAS FLORES,-31.129124559294198,39.453380600088366
pt.ine.add.AC25.565,R MONTE,,9970-265,SANTA CRUZ DAS FLORES,-31.136099859327878,39.46157435334811
pt.ine.add.AC25.566,R MONTE,,9970-265,SANTA CRUZ DAS FLORES,-31.135897063116893,39.461769315580284
pt.ine.add.AC25.567,R MONTE,,9970-265,SANTA CRUZ DAS FLORES,-31.13571405590674,39.46165826449805
pt.ine.add.AC25.568,R MONTE,,9970-265,SANTA CRUZ DAS FLORES,-31.13596828830054,39.46084245694513
pt.ine.add.AC25.569,R MONTE,,9970-265,SANTA CRUZ DAS FLORES,-31.135676553623412,39.46045036129161
pt.ine.add.AC25.570,R MONTE VALES,,9970-265,SANTA CRUZ DAS FLORES,-31.141573247715726,39.45724721161462
pt.ine.add.AC25.571,R PIMPILHAU,,9970-265,SANTA CRUZ DAS FLORES,-31.139722204757028,39.45823570706937
pt.ine.add.AC25.572,R PIMPILHAU,,9970-265,SANTA CRUZ DAS FLORES,-31.139681116790666,39.458469302413135
pt.ine.add.AC25.573,R PIMPILHAU,,9970-265,SANTA CRUZ DAS FLORES,-31.139163292328973,39.46001969717576
pt.ine.add.AC25.574,R PIMPILHAU,,9970-265,SANTA CRUZ DAS FLORES,-31.138569395759852,39.461370657323386
pt.ine.add.AC25.575,R MONTE DE CIMA,,9970-265,SANTA CRUZ DAS FLORES,-31.13949836954147,39.46140354695502
pt.ine.add.AC25.576,R PIMPILHAU,,9970-265,SANTA CRUZ DAS FLORES,-31.13892452032834,39.46156554679456
pt.ine.add.AC25.577,R PIMPILHAU,,9970-265,SANTA CRUZ DAS FLORES,-31.13892452032834,39.46156554679456
pt.ine.add.AC25.578,R PIMPILHAU,,9970-265,SANTA CRUZ DAS FLORES,-31.139184575734106,39.46096605836639
pt.ine.add.AC25.579,R PIMPILHAU,,9970-265,SANTA CRUZ DAS FLORES,-31.139184575734106,39.46096605836639
pt.ine.add.AC25.580,R PIMPILHAU,,9970-265,SANTA CRUZ DAS FLORES,-31.13928951455921,39.460517251990474
pt.ine.add.AC25.875,R S PEDRO,,9970-033,CEDROS SCF,-31.15819930951022,39.495803078044574
pt.ine.add.AC25.611,R S CATARINA,15,9970-336,SANTA CRUZ DAS FLORES,-31.1271293724095,39.453240360700796
pt.ine.add.AC25.612,TV S JOSE,,9970-341,SANTA CRUZ DAS FLORES,-31.12727725227594,39.45335986908797
pt.ine.add.AC25.613,TV S JOSE,3,9970-341,SANTA CRUZ DAS FLORES,-31.127331232986823,39.45351390376229
pt.ine.add.AC25.614,R SENADOR ANDRE DE FREITAS,12,9970-337,SANTA CRUZ DAS FLORES,-31.127210237659927,39.453692149167935
pt.ine.add.AC25.615,LG MAJOR CHAVES,5,9970-313,SANTA CRUZ DAS FLORES,-31.12517415578652,39.45377646029098
pt.ine.add.AC25.616,LG MAJOR CHAVES,,9970-313,SANTA CRUZ DAS FLORES,-31.125188430603266,39.453677583616916
pt.ine.add.AC25.617,R DR ARMAS DA SILVEIRA,16,9970-331,SANTA CRUZ DAS FLORES,-31.12752906894727,39.45176920471538
pt.ine.add.AC25.618,R DR ARMAS DA SILVEIRA,,9970-331,SANTA CRUZ DAS FLORES,-31.126879028181637,39.45174071448148
pt.ine.add.AC25.619,R DR ARMAS DA SILVEIRA,28,9970-331,SANTA CRUZ DAS FLORES,-31.126554732381322,39.45169945052045
pt.ine.add.AC25.620,R DR ARMAS DA SILVEIRA,,9970-331,SANTA CRUZ DAS FLORES,-31.126288519341724,39.451659121719935
pt.ine.add.AC25.621,R DR ARMAS DA SILVEIRA,,9970-331,SANTA CRUZ DAS FLORES,-31.126288519341724,39.451659121719935
pt.ine.add.AC25.622,R DR ARMAS DA SILVEIRA,,9970-331,SANTA CRUZ DAS FLORES,-31.12617259615107,39.45164824375143
pt.ine.add.AC25.623,R DR ARMAS DA SILVEIRA,22,9970-331,SANTA CRUZ DAS FLORES,-31.12684659277927,39.45165009472684
pt.ine.add.AC25.624,AV DIOGO TEIVE,10,9970-301,SANTA CRUZ DAS FLORES,-31.12541714245854,39.45381641720162
pt.ine.add.AC25.625,MTE S CRUZ,,9970-265,SANTA CRUZ DAS FLORES,-31.139533387689028,39.46008868832312
pt.ine.add.AC25.626,R PIMPILHAU,,9970-265,SANTA CRUZ DAS FLORES,-31.1396320872548,39.4598740344465
pt.ine.add.AC25.627,R PIMPILHAU,,9970-265,SANTA CRUZ DAS FLORES,-31.13979990658783,39.4592460392493
pt.ine.add.AC25.628,R PIMPILHAU,,9970-265,SANTA CRUZ DAS FLORES,-31.13982961673229,39.45900325212516
pt.ine.add.AC25.629,R S PEDRO,,9970-390,SANTA CRUZ DAS FLORES,-31.133781416577566,39.46221288843258
pt.ine.add.AC25.630,R ZONA INDUSTRIAL DO BOQUEIRÃO,9B,9970-390,SANTA CRUZ DAS FLORES,-31.131782891357062,39.462622265835925
pt.ine.add.AC25.631,R ZONA INDUSTRIAL DO BOQUEIRÃO,,9970-390,SANTA CRUZ DAS FLORES,-31.131582489135223,39.46272716177132
pt.ine.add.AC25.632,R ZONA INDUSTRIAL DO BOQUEIRÃO,,9970-390,SANTA CRUZ DAS FLORES,-31.131382086318755,39.462832057345054
pt.ine.add.AC25.633,R ZONA INDUSTRIAL DO BOQUEIRÃO,1,9970-390,SANTA CRUZ DAS FLORES,-31.131198361034013,39.46274801678324
pt.ine.add.AC25.634,R ZONA INDUSTRIAL DO BOQUEIRÃO,,9970-390,SANTA CRUZ DAS FLORES,-31.129329297677028,39.4630963647546
pt.ine.add.AC25.635,R S PEDRO,,9970-265,SANTA CRUZ DAS FLORES,-31.134060255155305,39.46221736413234
pt.ine.add.AC25.636,R BOQUEIRÃO,2,9970-390,SANTA CRUZ DAS FLORES,-31.13153162428388,39.46245605302511
pt.ine.add.AC25.637,R HORTENSIAS,13,9970-306,SANTA CRUZ DAS FLORES,-31.129077350881445,39.460785825374465
pt.ine.add.AC25.638,R HORTENSIAS,11,9970-306,SANTA CRUZ DAS FLORES,-31.129045632464962,39.46066818871681
pt.ine.add.AC25.639,R HORTENSIAS,11,9970-306,SANTA CRUZ DAS FLORES,-31.129045632464962,39.46066818871681
pt.ine.add.AC25.673,AV DIOGO TEIVE,12,9970-301,SANTA CRUZ DAS FLORES,-31.12544327535173,39.45370872197222
pt.ine.add.AC25.674,AV DIOGO TEIVE,14,9970-301,SANTA CRUZ DAS FLORES,-31.125445932983812,39.45360965795492
pt.ine.add.AC25.675,AV DIOGO TEIVE,18,9970-301,SANTA CRUZ DAS FLORES,-31.125612191725917,39.45347719273273
pt.ine.add.AC25.676,AV DIOGO TEIVE,,9970-301,SANTA CRUZ DAS FLORES,-31.12589896504068,39.45318449504808
pt.ine.add.AC25.677,R CONCEIÇÃO,,9970-318,SANTA CRUZ DAS FLORES,-31.127050650501026,39.45227505273597
pt.ine.add.AC25.678,R S CATARINA,2,9970-336,SANTA CRUZ DAS FLORES,-31.127251091206038,39.453035097862404
pt.ine.add.AC25.679,,,9970-336,SANTA CRUZ DAS FLORES,-31.12634477268276,39.4534619717931
pt.ine.add.AC25.680,R S CATARINA,,9970-336,SANTA CRUZ DAS FLORES,-31.12634477268276,39.4534619717931
pt.ine.add.AC25.681,R S CATARINA,8,9970-336,SANTA CRUZ DAS FLORES,-31.12609768083677,39.45357511583364
pt.ine.add.AC25.682,R S CATARINA,14,9970-336,SANTA CRUZ DAS FLORES,-31.125626970005577,39.45379277102298
pt.ine.add.AC25.683,R S CATARINA,18,9970-336,SANTA CRUZ DAS FLORES,-31.125520969073047,39.4538451203496
pt.ine.add.AC25.684,R S CATARINA,16,9970-336,SANTA CRUZ DAS FLORES,-31.12560784327263,39.453639297506484
pt.ine.add.AC25.685,TV S JOSE,2,9970-341,SANTA CRUZ DAS FLORES,-31.12744447240184,39.4531913778208
pt.ine.add.AC25.686,R STA CATARINA,,9970-336,SANTA CRUZ DAS FLORES,-31.127411794316135,39.45310976404257
pt.ine.add.AC25.687,R STA CATARINA,11,9970-336,SANTA CRUZ DAS FLORES,-31.12756474224977,39.45304014961678
pt.ine.add.AC25.688,R HORTENSIAS,9,9970-306,SANTA CRUZ DAS FLORES,-31.12900205497948,39.460559370906445
pt.ine.add.AC25.689,R ESPERANÇA,,9970-320,SANTA CRUZ DAS FLORES,-31.131139039800697,39.46062077170273
pt.ine.add.AC25.690,R ESPERANÇA,,9970-320,SANTA CRUZ DAS FLORES,-31.1301868470408,39.460587441887725
pt.ine.add.AC25.691,R HORTENSIAS,17,9970-306,SANTA CRUZ DAS FLORES,-31.129449368223124,39.46078280185485
pt.ine.add.AC25.692,R ESPERANÇA,20,9970-320,SANTA CRUZ DAS FLORES,-31.13019239119041,39.46038030771501
pt.ine.add.AC25.693,R NSA SRA DO ROSÁRIO,,9970-306,SANTA CRUZ DAS FLORES,-31.127666891002725,39.459636905084295
pt.ine.add.AC25.694,R HORTENSIAS,4,9970-306,SANTA CRUZ DAS FLORES,-31.12841794687187,39.45980216330805
pt.ine.add.AC25.695,AV BALEEIROS,,9970-306,SANTA CRUZ DAS FLORES,-31.128042451770778,39.461670137112435
pt.ine.add.AC25.696,R ESPERANÇA,11,9970-320,SANTA CRUZ DAS FLORES,-31.131465548012066,39.46058097130388
pt.ine.add.AC25.697,R ESPERANÇA,,9970-320,SANTA CRUZ DAS FLORES,-31.129983229500418,39.457773136731866
pt.ine.add.AC25.698,R ESPERANÇA,1,9970-320,SANTA CRUZ DAS FLORES,-31.129506297018835,39.45648608502024
pt.ine.add.AC25.699,R CMDT SOUTT CRUZ,,9970-316,SANTA CRUZ DAS FLORES,-31.12984483949174,39.45599599682274
pt.ine.add.AC25.700,R CMDT SOUTT CRUZ,51,9970-316,SANTA CRUZ DAS FLORES,-31.1298837889918,39.455843458163585
pt.ine.add.AC25.722,R IGREJA,18,9970-010,CAVEIRA,-31.15152717714158,39.43200740180993
pt.ine.add.AC25.723,ESTR REGIONAL,,9970-010,CAVEIRA,-31.147656113480483,39.43208995750005
pt.ine.add.AC25.724,R JOSE PEREIRA BORGES,,9970-010,CAVEIRA,-31.147914913782277,39.42933709038942
pt.ine.add.AC25.725,R JOSE PEREIRA BORGES,9,9970-010,CAVEIRA,-31.148537242331926,39.42952719613398
pt.ine.add.AC25.726,R JOSE PEREIRA BORGES,,9970-010,CAVEIRA,-31.14894887222799,39.4297770131781
pt.ine.add.AC25.727,R JOSE PEREIRA BORGES,,9970-010,CAVEIRA,-31.14952237259334,39.430056434127486
pt.ine.add.AC25.728,ESTR REGIONAL,,9970-010,CAVEIRA,-31.149228644374702,39.43061937510825
pt.ine.add.AC25.729,R NORTE,,9970-010,CAVEIRA,-31.147378895924128,39.43027457773934
pt.ine.add.AC25.730,R JOSE PEREIRA BORGES,,9970-010,CAVEIRA,-31.148066524223857,39.42975395450193
pt.ine.add.AC25.731,R JOSE PEREIRA BORGES,15,9970-010,CAVEIRA,-31.14843074783749,39.43003905745174
pt.ine.add.AC25.732,R STA CATARINA,7,9970-336,SANTA CRUZ DAS FLORES,-31.1278701546503,39.45291893180408
pt.ine.add.AC25.733,R S CATARINA,1,9970-336,SANTA CRUZ DAS FLORES,-31.128258812573147,39.452726975618454
pt.ine.add.AC25.734,R ROBERTO MESQUITA,5,9970-335,SANTA CRUZ DAS FLORES,-31.1285644636428,39.45259675007697
pt.ine.add.AC25.735,R SENADOR ANDRÉ DE FREITAS,2,9970-337,SANTA CRUZ DAS FLORES,-31.128927273767328,39.45293594904241
pt.ine.add.AC25.736,R SENADOR ANDRÉ DE FREITAS,2,9970-337,SANTA CRUZ DAS FLORES,-31.128927273767328,39.45293594904241
pt.ine.add.AC25.737,PC MARQUES DE POMBAL,,9970-314,SANTA CRUZ DAS FLORES,-31.12918038681348,39.452597652800215
pt.ine.add.AC25.738,LG 25 DE ABRIL,,9970-312,SANTA CRUZ DAS FLORES,-31.128800655036596,39.452456396119686
pt.ine.add.AC25.739,LG 25 DE ABRIL,2,9970-312,SANTA CRUZ DAS FLORES,-31.12900199570098,39.45231548084197
pt.ine.add.AC25.740,LG 25 ABRIL,,9970-312,SANTA CRUZ DAS FLORES,-31.12900199570098,39.45231548084197
pt.ine.add.AC25.741,R CONCEIÇÃO,,9970-318,SANTA CRUZ DAS FLORES,-31.128394314685984,39.452440845950946
pt.ine.add.AC25.742,R CONCEIÇÃO,,9970-318,SANTA CRUZ DAS FLORES,-31.127215937567357,39.452178608366
pt.ine.add.AC25.743,R CONCEIÇÃO,,9970-318,SANTA CRUZ DAS FLORES,-31.126766030214203,39.45205423411324
pt.ine.add.AC25.744,R DR ARMAS DA SILVEIRA,25,9970-331,SANTA CRUZ DAS FLORES,-31.12607507583235,39.45181785664905
pt.ine.add.AC25.745,R DR ARMAS DA SILVEIRA,23,9970-331,SANTA CRUZ DAS FLORES,-31.126099757835558,39.45176419615124
pt.ine.add.AC25.746,R DR ARMAS DA SILVEIRA,21,9970-331,SANTA CRUZ DAS FLORES,-31.12620454769375,39.45175687532658
pt.ine.add.AC25.747,R CMDT SOUTT CRUZ,1,9970-316,SANTA CRUZ DAS FLORES,-31.130169349880713,39.45559577906331
pt.ine.add.AC25.748,R FLORES,3,9970-323,SANTA CRUZ DAS FLORES,-31.129647416972674,39.4520826030074
pt.ine.add.AC25.749,R FLORES,,9970-323,SANTA CRUZ DAS FLORES,-31.129307402539236,39.45219425910343
pt.ine.add.AC25.750,R S PEDRO,,9970-324,SANTA CRUZ DAS FLORES,-31.13340551910787,39.4575758605258
pt.ine.add.AC25.751,R S PEDRO,,9970-324,SANTA CRUZ DAS FLORES,-31.133903530147283,39.45851185600839
pt.ine.add.AC25.752,R S PEDRO,,9970-324,SANTA CRUZ DAS FLORES,-31.13420013018446,39.45915630623552
pt.ine.add.AC25.753,PC MARQUES DE POMBAL,,9970-314,SANTA CRUZ DAS FLORES,-31.129633436010884,39.452604941925074
pt.ine.add.AC25.754,R S PEDRO,,9970-324,SANTA CRUZ DAS FLORES,-31.13484110771885,39.459526979853514
pt.ine.add.AC25.755,R S PEDRO,7,9970-324,SANTA CRUZ DAS FLORES,-31.13464673064138,39.45940673498572
pt.ine.add.AC25.756,R S PEDRO,3,9970-324,SANTA CRUZ DAS FLORES,-31.13445932841444,39.45902531993669
pt.ine.add.AC25.757,R S PEDRO,,9970-324,SANTA CRUZ DAS FLORES,-31.134324966040285,39.45883395979677
pt.ine.add.AC25.758,R S PEDRO,,9970-324,SANTA CRUZ DAS FLORES,-31.13368746658795,39.45746326056021
pt.ine.add.AC25.759,R PAU PICO,,9970-327,SANTA CRUZ DAS FLORES,-31.13589959598419,39.457318555784724
pt.ine.add.AC25.760,R PAU PICO,,9970-327,SANTA CRUZ DAS FLORES,-31.13589959598419,39.457318555784724
pt.ine.add.AC25.788,R NORTE,,9970-010,CAVEIRA,-31.148696448101116,39.43141277292986
pt.ine.add.AC25.789,R NORTE,,9970-010,CAVEIRA,-31.148501407232587,39.43131956988119
pt.ine.add.AC25.790,R NORTE,,9970-010,CAVEIRA,-31.148415654937775,39.43104791138837
pt.ine.add.AC25.791,ESTR REGIONAL,,9970-010,CAVEIRA,-31.14883372990702,39.43105456769068
pt.ine.add.AC25.792,R NORTE,2,9970-010,CAVEIRA,-31.150527713034975,39.43201853890459
pt.ine.add.AC25.793,ESTR REGIONAL,,9970-010,CAVEIRA,-31.150422891385382,39.43071045486612
pt.ine.add.AC25.794,R IGREJA,,9970-010,CAVEIRA,-31.151806423843936,39.43155234213973
pt.ine.add.AC25.795,R IGREJA,15,9970-010,CAVEIRA,-31.151608045618854,39.43158522803749
pt.ine.add.AC25.796,R IGREJA,4,9970-010,CAVEIRA,-31.15319126111425,39.43146622719022
pt.ine.add.AC25.797,R SUL,2,9970-010,CAVEIRA,-31.1519721525215,39.430996370204475
pt.ine.add.AC25.798,RAM GAMELAO,,9970-010,CAVEIRA,-31.1530817881048,39.43121221481852
pt.ine.add.AC25.799,R JOSE PEREIRA BORGES,4,9970-010,CAVEIRA,-31.14903540705549,39.42958017565677
pt.ine.add.AC25.800,R JOSE PEREIRA BORGES,14,9970-010,CAVEIRA,-31.14755475114964,39.428898884413016
pt.ine.add.AC25.801,R DR ARMAS DA SILVEIRA,19,9970-331,SANTA CRUZ DAS FLORES,-31.12643615302828,39.45178763692133
pt.ine.add.AC25.802,R DR ARMAS DA SILVEIRA,17,9970-331,SANTA CRUZ DAS FLORES,-31.126575068047178,39.45180789482462
pt.ine.add.AC25.803,R FLORES,,9970-323,SANTA CRUZ DAS FLORES,-31.131091262599703,39.45024080812835
pt.ine.add.AC25.804,R FLORES,,9970-323,SANTA CRUZ DAS FLORES,-31.131132132403327,39.450016221929936
pt.ine.add.AC25.805,R FLORES,,9970-323,SANTA CRUZ DAS FLORES,-31.131132132403327,39.450016221929936
pt.ine.add.AC25.806,R FLORES,16,9970-323,SANTA CRUZ DAS FLORES,-31.13138931746793,39.44952482065604
pt.ine.add.AC25.807,R FLORES,20,9970-323,SANTA CRUZ DAS FLORES,-31.131663711869994,39.449258938480874
pt.ine.add.AC25.808,R CRUZ,,9970-319,SANTA CRUZ DAS FLORES,-31.13208688448434,39.44864406652116
pt.ine.add.AC25.809,R CRUZ,,9970-319,SANTA CRUZ DAS FLORES,-31.132146408695874,39.448590964421385
pt.ine.add.AC25.810,R CRUZ,,9970-319,SANTA CRUZ DAS FLORES,-31.132884231791017,39.448377571979464
pt.ine.add.AC25.811,R TERCA,,9970-322,SANTA CRUZ DAS FLORES,-31.134508150087754,39.447619791878004
pt.ine.add.AC25.812,R BOAVISTA,,9970-210,SANTA CRUZ DAS FLORES,-31.136183235593716,39.44755655852361
pt.ine.add.AC25.813,R BOAVISTA,,9970-210,SANTA CRUZ DAS FLORES,-31.1376906576493,39.44767982006694
pt.ine.add.AC25.814,R BOAVISTA,,9970-210,SANTA CRUZ DAS FLORES,-31.1379454872808,39.447710930653955
pt.ine.add.AC25.815,R VALES,,9970-380,SANTA CRUZ DAS FLORES,-31.13931515222399,39.449516785515286
pt.ine.add.AC25.816,R CRUZ,,9970-319,SANTA CRUZ DAS FLORES,-31.13277006349482,39.44873612771785
pt.ine.add.AC25.817,R PAU PICO,3,9970-327,SANTA CRUZ DAS FLORES,-31.134194306770315,39.45763357055013
pt.ine.add.AC25.818,R PAU PICO,1,9970-327,SANTA CRUZ DAS FLORES,-31.134322580419227,39.457617609625686
pt.ine.add.AC25.819,R PAU PICO,5,9970-327,SANTA CRUZ DAS FLORES,-31.13468320424873,39.457605376655366
pt.ine.add.AC25.820,BR NSA SRA FATIMA,,9970-304,SANTA CRUZ DAS FLORES,-31.128437248322246,39.45908169721634
pt.ine.add.AC25.821,R NSA SRA ROSARIO,1,9970-306,SANTA CRUZ DAS FLORES,-31.130111117377062,39.458640126189465
pt.ine.add.AC25.822,TV ESTRELA,,9970-304,SANTA CRUZ DAS FLORES,-31.129383347707478,39.45890771980633
pt.ine.add.AC25.823,TV ESTRELA,16,9970-304,SANTA CRUZ DAS FLORES,-31.128955422661164,39.45882875604642
pt.ine.add.AC25.824,TV ESTRELA,16,9970-304,SANTA CRUZ DAS FLORES,-31.128955422661164,39.45882875604642
pt.ine.add.AC25.825,TV GRAÇA,,9970-304,SANTA CRUZ DAS FLORES,-31.127846159483433,39.458585655953634
pt.ine.add.AC25.826,TV ESTRELA,9,9970-304,SANTA CRUZ DAS FLORES,-31.12921314006742,39.45831934976989
pt.ine.add.AC25.827,TV ESTRELA,,9970-304,SANTA CRUZ DAS FLORES,-31.129233963709655,39.458409781972264
pt.ine.add.AC25.828,TV ESTRELA,,9970-304,SANTA CRUZ DAS FLORES,-31.129360069455036,39.45847487907784
pt.ine.add.AC25.829,TV ESTRELA,N1,9970-304,SANTA CRUZ DAS FLORES,-31.129264716960467,39.45856344193243
pt.ine.add.AC25.830,TV ESTRELA,,9970-304,SANTA CRUZ DAS FLORES,-31.129285781880867,39.45864486829346
pt.ine.add.AC25.860,R JOSE PEREIRA BORGES,,9970-010,CAVEIRA,-31.14681630307261,39.42870692295568
pt.ine.add.AC25.861,ESTR REGIONAL,,9970-010,CAVEIRA,-31.152801729196018,39.430378867088855
pt.ine.add.AC25.862,R JOSE PEREIRA BORGES,,9970-010,CAVEIRA,-31.149785245631914,39.42978131411073
pt.ine.add.AC25.863,R JOSE PEREIRA BORGES,,9970-010,CAVEIRA,-31.14898306307348,39.42936310791976
pt.ine.add.AC25.864,R JOSE PEREIRA BORGES,12,9970-010,CAVEIRA,-31.147832743556986,39.42893034189546
pt.ine.add.AC25.865,TV S JOSE,,9970-010,CAVEIRA,-31.146999800892004,39.42835846605517
pt.ine.add.AC25.866,R MOIO,,9970-033,CEDROS SCF,-31.158680989112987,39.49826134468949
pt.ine.add.AC25.867,R MANUEL MARIA,,9970-033,CEDROS SCF,-31.15745923696201,39.49476424410508
pt.ine.add.AC25.868,R MANUEL MARIA,,9970-033,CEDROS SCF,-31.157305034995918,39.49487892554494
pt.ine.add.AC25.869,LG ESPERANÇA,,9970-033,CEDROS SCF,-31.158631730253166,39.49660278190617
pt.ine.add.AC25.870,R MOIO,,9970-033,CEDROS SCF,-31.159034970914995,39.4976272641435
pt.ine.add.AC25.871,R S PEDRO,,9970-033,CEDROS SCF,-31.15786361225759,39.49618517476346
pt.ine.add.AC25.872,R S PEDRO,,9970-033,CEDROS SCF,-31.157739552141337,39.496039053492694
pt.ine.add.AC25.873,LG ESPERANSA,,9970-033,CEDROS SCF,-31.15880017249808,39.496389217749865
pt.ine.add.AC25.874,R S PEDRO,,9970-033,CEDROS SCF,-31.158495829332153,39.49602400879863
pt.ine.add.AC25.876,R PROF JOSE FRANCESCO FRAGA,,9970-031,CEDROS SCF,-31.154308947720878,39.48153307783089
pt.ine.add.AC25.877,R FLORES,,9970-323,SANTA CRUZ DAS FLORES,-31.131915173775667,39.4494161443828
pt.ine.add.AC25.878,R FLORES,18,9970-323,SANTA CRUZ DAS FLORES,-31.131538160357,39.44960830025257
pt.ine.add.AC25.879,R FLORES,27,9970-323,SANTA CRUZ DAS FLORES,-31.131047150605042,39.44971753495004
pt.ine.add.AC25.880,R TERCA,,9970-322,SANTA CRUZ DAS FLORES,-31.132551459693406,39.44821906222729
pt.ine.add.AC25.881,R CRUZ,,9970-319,SANTA CRUZ DAS FLORES,-31.132067744479414,39.44849059363441
pt.ine.add.AC25.882,R CRUZ,,9970-319,SANTA CRUZ DAS FLORES,-31.1319885990558,39.44840823452115
pt.ine.add.AC25.883,R BOAVISTA,,9970-215,SANTA CRUZ DAS FLORES,-31.138566748943113,39.44794612191748
pt.ine.add.AC25.884,TV ESTRELA,,9970-304,SANTA CRUZ DAS FLORES,-31.129350423781137,39.45883511236355
pt.ine.add.AC25.885,TV ESTRELA,,9970-304,SANTA CRUZ DAS FLORES,-31.128827588620982,39.45839423250585
pt.ine.add.AC25.886,R NSA SRA DO ROSÁRIO,2,9970-306,SANTA CRUZ DAS FLORES,-31.129920413532805,39.4588172530755
pt.ine.add.AC25.887,R ANUNCIAÇÃO,,9970-304,SANTA CRUZ DAS FLORES,-31.12944785968815,39.45780056312429
pt.ine.add.AC25.888,R ANUNCIAÇÃO,29,9970-304,SANTA CRUZ DAS FLORES,-31.129342096416313,39.45784390999129
pt.ine.add.AC25.889,R ANUNCIAÇÃO,6,9970-304,SANTA CRUZ DAS FLORES,-31.12914435748064,39.45784973788473
pt.ine.add.AC25.890,R ANUNCIAÇÃO,,9970-304,SANTA CRUZ DAS FLORES,-31.128852231198483,39.45790810465024
pt.ine.add.AC25.891,R ANUNCIAÇÃO,,9970-304,SANTA CRUZ DAS FLORES,-31.12866514469908,39.45795014201986
pt.ine.add.AC25.892,R ANUNCIAÇÃO,36,9970-304,SANTA CRUZ DAS FLORES,-31.12802280239462,39.458065937067104
pt.ine.add.AC25.893,TV GRAÇA,41,9970-304,SANTA CRUZ DAS FLORES,-31.127298410966453,39.458207436074794
pt.ine.add.AC25.894,TV GRAÇA,40,9970-304,SANTA CRUZ DAS FLORES,-31.12726693797038,39.45808079315919
pt.ine.add.AC25.895,R BECO DA ALFÂNDEGA,1,9970-337,SANTA CRUZ DAS FLORES,-31.125949629682196,39.45476201188353
pt.ine.add.AC25.896,R BECO DA ALFÂNDEGA,2,9970-337,SANTA CRUZ DAS FLORES,-31.125729148615342,39.45474944801993
pt.ine.add.AC25.897,BC RELVÃO,,9970-342,SANTA CRUZ DAS FLORES,-31.125729148615342,39.45474944801993
pt.ine.add.AC25.898,R SENADOR ANDRE DE FREITAS,27,9970-337,SANTA CRUZ DAS FLORES,-31.12612434362716,39.45431434223932
pt.ine.add.AC25.931,R IGREJA,,9970-031,CEDROS SCF,-31.153018233496933,39.48153960608944
pt.ine.add.AC25.932,R IGREJA,,9970-031,CEDROS SCF,-31.15234067596066,39.48103766457982
pt.ine.add.AC25.933,R RIBEIRINHHA,,9970-031,CEDROS SCF,-31.154714557843718,39.48114309026465
pt.ine.add.AC25.934,R COVOADA,,9970-031,CEDROS SCF,-31.153131060063462,39.482109010040226
pt.ine.add.AC25.935,ER 1-2A,,9970-031,CEDROS SCF,-31.15085293404946,39.480766386115576
pt.ine.add.AC25.936,ER 1-2A,,9970-031,CEDROS SCF,-31.15081074231305,39.48060354029546
pt.ine.add.AC25.937,R IGREJA,,9970-031,CEDROS SCF,-31.152636150288817,39.48147947636004
pt.ine.add.AC25.938,R ROCINHA,,9970-031,CEDROS SCF,-31.15753289514376,39.481404028082444
pt.ine.add.AC25.939,ER 1-2A,,9970-031,CEDROS SCF,-31.155680336427082,39.48122601439066
pt.ine.add.AC25.940,ER 1-2A,,9970-031,CEDROS SCF,-31.15550748020389,39.4806150921846
pt.ine.add.AC25.941,ER 1-2A,,9970-031,CEDROS SCF,-31.151039182819094,39.48031886355234
pt.ine.add.AC25.942,R ROCINHA,,9970-031,CEDROS SCF,-31.156920008798508,39.48106098544647
pt.ine.add.AC25.943,R BOAVISTA,,9970-215,SANTA CRUZ DAS FLORES,-31.13799459012715,39.447612609930204
pt.ine.add.AC25.944,R TERCA,S N,9970-215,SANTA CRUZ DAS FLORES,-31.13585238114217,39.44732601104564
pt.ine.add.AC25.945,R BOAVISTA,,9970-215,SANTA CRUZ DAS FLORES,-31.135483077758124,39.44722999208102
pt.ine.add.AC25.946,R TERCA,51,9970-215,SANTA CRUZ DAS FLORES,-31.139288401270115,39.447029670143095
pt.ine.add.AC25.947,R BOAVISTA,,9970-215,SANTA CRUZ DAS FLORES,-31.13842389778083,39.447637503793125
pt.ine.add.AC25.948,R BOAVISTA,,9970-215,SANTA CRUZ DAS FLORES,-31.138193019636212,39.44757974858133
pt.ine.add.AC25.949,R BOAVISTA,,9970-215,SANTA CRUZ DAS FLORES,-31.138078200869685,39.44709138417228
pt.ine.add.AC25.950,R BOAVISTA,,9970-215,SANTA CRUZ DAS FLORES,-31.139019080048172,39.44710644742084
pt.ine.add.AC25.951,R BOAVISTA,,9970-210,SANTA CRUZ DAS FLORES,-31.14147708279466,39.44819089328494
pt.ine.add.AC25.952,R BOAVISTA,,9970-210,SANTA CRUZ DAS FLORES,-31.14162413779503,39.44790493216699
pt.ine.add.AC25.953,R BOAVISTA,,9970-215,SANTA CRUZ DAS FLORES,-31.141906990897226,39.44775628719568
pt.ine.add.AC25.954,R BOAVISTA,,9970-275,SANTA CRUZ DAS FLORES,-31.1397376712637,39.44848742687086
pt.ine.add.AC25.955,R TRAVESSA DOS RAMOS,,9970-307,SANTA CRUZ DAS FLORES,-31.126403149473727,39.454318835551256
pt.ine.add.AC25.956,R TRAVESSA RAMOS,51,9970-307,SANTA CRUZ DAS FLORES,-31.12666575088601,39.45449425168817
pt.ine.add.AC25.957,R SENADOR ANDRE FREITAS,17,9970-337,SANTA CRUZ DAS FLORES,-31.126924916031662,39.45393081518346
pt.ine.add.AC25.958,R SENADOR ANDRE DE FREITAS,,9970-337,SANTA CRUZ DAS FLORES,-31.126924916031662,39.45393081518346
pt.ine.add.AC25.959,R SENADOR ANDRE DE FREITAS,,9970-337,SANTA CRUZ DAS FLORES,-31.126924916031662,39.45393081518346
pt.ine.add.AC25.960,R ALM GAGO COUTINHO,,9970-315,SANTA CRUZ DAS FLORES,-31.12790828176497,39.45453228517306
pt.ine.add.AC25.961,BR FRANCES,,9970-305,SANTA CRUZ DAS FLORES,-31.128110631517217,39.45478781532241
pt.ine.add.AC25.962,R ALM GAGO COUTINHO,,9970-315,SANTA CRUZ DAS FLORES,-31.12793372230311,39.45488407374967
pt.ine.add.AC25.963,R ANTIGO BR DOS FRANCESES,51N,9970-315,SANTA CRUZ DAS FLORES,-31.12779531742917,39.45527827256146
pt.ine.add.AC25.964,R ANTIGO BR DOS FRANCESES,,9970-315,SANTA CRUZ DAS FLORES,-31.12762764313475,39.4558972426615
pt.ine.add.AC25.965,R CMDT SOUTT CRUZ,7,9970-316,SANTA CRUZ DAS FLORES,-31.12821750203768,39.45643831382274
pt.ine.add.AC25.966,BR FRANCES,S N,9970-305,SANTA CRUZ DAS FLORES,-31.126229669244292,39.45515394322041
pt.ine.add.AC25.967,BR ANTIGO BR DOS FRANCESES,,9970-305,SANTA CRUZ DAS FLORES,-31.1269012568884,39.454813386152686
pt.ine.add.AC25.968,R ANTIGO,,9970-315,SANTA CRUZ DAS FLORES,-31.127544809948393,39.45508503430152
pt.ine.add.AC25.998,R ROCINHA,,9970-031,CEDROS SCF,-31.15775073038834,39.481308373776166
pt.ine.add.AC25.999,R LOMBO,,9970-031,CEDROS SCF,-31.157776522208135,39.48054295724114
pt.ine.add.AC25.1000,R MIRADOURO,,9970-031,CEDROS SCF,-31.151753572400413,39.480123001097944
pt.ine.add.AC25.1001,R ALAGOA,,9970-031,CEDROS SCF,-31.151626452692827,39.480093950758615
pt.ine.add.AC25.1002,R ALAGOA,,9970-031,CEDROS SCF,-31.15133097498748,39.47983698035412
pt.ine.add.AC25.1003,R LOMBO,,9970-031,CEDROS SCF,-31.1581306318601,39.48034134523521
pt.ine.add.AC25.1004,R LOMBO,,9970-031,CEDROS SCF,-31.157617386764628,39.48040528953528
pt.ine.add.AC25.1005,R ALAGOA,,9970-031,CEDROS SCF,-31.150979223117396,39.47687620220973
pt.ine.add.AC25.1006,R VENTO,,9970-093,PONTA DELGADA SCF,-31.209201915259488,39.51988117788433
pt.ine.add.AC25.1007,R PORTO,,9970-090,PONTA DELGADA SCF,-31.20943233849416,39.51951533040023
pt.ine.add.AC25.1008,R BOAVISTA,,9970-275,SANTA CRUZ DAS FLORES,-31.139560816234905,39.44770975973371
pt.ine.add.AC25.1009,R BOAVISTA,,9970-275,SANTA CRUZ DAS FLORES,-31.139358071219498,39.447904729628874
pt.ine.add.AC25.1010,R BOAVISTA,,9970-275,SANTA CRUZ DAS FLORES,-31.1394932785119,39.44762759139784
pt.ine.add.AC25.1011,R SILVAS,,9970-330,SANTA CRUZ DAS FLORES,-31.14027908514222,39.44779332852114
pt.ine.add.AC25.1012,R SILVAS,,9970-330,SANTA CRUZ DAS FLORES,-31.14071497966514,39.44800752379327
pt.ine.add.AC25.1013,R ALM GAGO COUTINHO,,9970-315,SANTA CRUZ DAS FLORES,-31.129123607886264,39.45602043197923
pt.ine.add.AC25.1014,BR FRANCES,S N,9970-315,SANTA CRUZ DAS FLORES,-31.128549057686406,39.45620939871359
pt.ine.add.AC25.1015,R ANTIGO,GIRELLES,9970-315,SANTA CRUZ DAS FLORES,-31.1280865040664,39.45568839842024
pt.ine.add.AC25.1016,R ANTIGO BR DOS FRANCESES,,9970-315,SANTA CRUZ DAS FLORES,-31.12810198165778,39.45554449217797
pt.ine.add.AC25.1017,R ANTIGO BR DOS FRANCESES,2A,9970-315,SANTA CRUZ DAS FLORES,-31.12835004249403,39.45539532067358
pt.ine.add.AC25.1054,R NORTE,11,9970-010,CAVEIRA,-31.14794213780566,39.43094126309782
pt.ine.add.AC25.1055,R JOSE PEREIRA BORGES,2,9970-010,CAVEIRA,-31.14986272448567,39.42992670322672
pt.ine.add.AC25.1056,R SEBES,,9970-082,PONTA DELGADA SCF,-31.20999221267706,39.51537948929527
pt.ine.add.AC25.1057,R S PEDRO,,9970-083,PONTA DELGADA SCF,-31.206110047726174,39.51345462187039
pt.ine.add.AC25.1058,R QUARTEIRO,,9970-091,PONTA DELGADA SCF,-31.214529759569917,39.51534117103103
pt.ine.add.AC25.1059,R PASSAL,,9970-087,PONTA DELGADA SCF,-31.2088090851922,39.51434316350646
pt.ine.add.AC25.1060,R PASSAL,,9970-087,PONTA DELGADA SCF,-31.208695124553852,39.51425130997363
pt.ine.add.AC25.1061,R SENADOR ANDRE DE FREITAS,3,9970-337,SANTA CRUZ DAS FLORES,-31.128875983872582,39.45311531800226
pt.ine.add.AC25.1062,TV S JOSE,,9970-341,SANTA CRUZ DAS FLORES,-31.12751127679542,39.453300570366366
pt.ine.add.AC25.1063,R STA CATARINA,,9970-336,SANTA CRUZ DAS FLORES,-31.128030858193735,39.452993597139134
pt.ine.add.AC25.1064,R DR ARMAS DA SILVEIRA,3,9970-331,SANTA CRUZ DAS FLORES,-31.12791992829116,39.451928664133064
pt.ine.add.AC25.1065,R BOAVISTA,,9970-210,SANTA CRUZ DAS FLORES,-31.13803001680079,39.44802762511666
pt.ine.add.AC25.1066,R TERCA,102,9970-322,SANTA CRUZ DAS FLORES,-31.13543581986333,39.44813020758146
pt.ine.add.AC25.1067,R BOAVISTA,,9970-275,SANTA CRUZ DAS FLORES,-31.13993071852634,39.448220223294456
pt.ine.add.AC25.1068,MTE CRUZES,,9970-380,SANTA CRUZ DAS FLORES,-31.136188345348845,39.451286669390306
pt.ine.add.AC25.1069,R FAZENDA,,9970-241,SANTA CRUZ DAS FLORES,-31.150462690863343,39.4660923657278
pt.ine.add.AC25.1070,R AREEIRO,,9970-243,SANTA CRUZ DAS FLORES,-31.15589441800268,39.4637640459384
pt.ine.add.AC25.1071,R LADEIRA DE S PEDRO,,9970-309,SANTA CRUZ DAS FLORES,-31.134776424818455,39.46194955536799
pt.ine.add.AC25.1072,R MONTE DE BAIXO,,9970-265,SANTA CRUZ DAS FLORES,-31.138109422617,39.4620570399078
pt.ine.add.AC25.1073,R PIMPILHAU,,9970-265,SANTA CRUZ DAS FLORES,-31.13906945675567,39.46136064334659
pt.ine.add.AC25.1074,MTE S CRUZ,,9970-265,SANTA CRUZ DAS FLORES,-31.139506793926934,39.460214398830814
pt.ine.add.AC25.1075,R ZONA INDUSTRIAL DO BOQUEIRÃO,9A,9970-390,SANTA CRUZ DAS FLORES,-31.131992984614577,39.4625896029378
pt.ine.add.AC25.1076,R ZONA INDUSTRIAL DO BOQUEIRÃO,,9970-390,SANTA CRUZ DAS FLORES,-31.131254284367248,39.462830003095995
pt.ine.add.AC25.1077,R HOSPITAL,,9970-303,SANTA CRUZ DAS FLORES,-31.128750166724267,39.450869872597245
pt.ine.add.AC25.1078,LAD HORTINHAS,,9970-311,SANTA CRUZ DAS FLORES,-31.135259592505346,39.458218274068905
pt.ine.add.AC25.1079,R NSA SRA DO ROSÁRIO,,9970-306,SANTA CRUZ DAS FLORES,-31.12863571447556,39.45904885312817
pt.ine.add.AC25.1080,BR NSA SRA FATIMA,15,9970-304,SANTA CRUZ DAS FLORES,-31.12892298161521,39.4587381368334
pt.ine.add.AC25.1096,R MOIO,,9970-033,CEDROS SCF,-31.158994693300468,39.496509424885794
pt.ine.add.AC25.1097,R S PEDRO,,9970-033,CEDROS SCF,-31.15830915564167,39.495606605431945
pt.ine.add.AC25.1098,R LOMBO,13,9970-031,CEDROS SCF,-31.158341718665007,39.480272611978
pt.ine.add.AC25.1099,R PORTO,,9970-090,PONTA DELGADA SCF,-31.209041603619074,39.519329115532614
pt.ine.add.AC25.1100,R VENTO,,9970-093,PONTA DELGADA SCF,-31.211201302224126,39.51993899872404
pt.ine.add.AC25.1101,R PEDRAS BRANCAS,S N,9970-080,PONTA DELGADA SCF,-31.20956872215292,39.51692263603342
pt.ine.add.AC25.1102,R TRAVESSA,,9970-079,PONTA DELGADA SCF,-31.210440163731487,39.51424215425755
pt.ine.add.AC25.1103,R LEVADA,,9970-077,PONTA DELGADA SCF,-31.214275092048425,39.513021761074604
pt.ine.add.AC25.1104,R ALM GAGO COUTINHO,21 A,9970-315,SANTA CRUZ DAS FLORES,-31.128834061598823,39.45511480069278
pt.ine.add.AC25.1105,R ROBERTO MESQUITA,,9970-335,SANTA CRUZ DAS FLORES,-31.130234424675784,39.45533554382374
pt.ine.add.AC25.1106,R ROBERTO MESQUITA,2,9970-335,SANTA CRUZ DAS FLORES,-31.130234424675784,39.45533554382374
pt.ine.add.AC25.1107,R SENADOR ANDRE DE FREITAS,1,9970-337,SANTA CRUZ DAS FLORES,-31.128971087993342,39.45303576106127
pt.ine.add.AC25.1108,R ROBERTO MESQUITA,4,9970-335,SANTA CRUZ DAS FLORES,-31.129231805838987,39.45371568540932
pt.ine.add.AC25.1109,R DR ARMAS DA SILVEIRA,26,9970-331,SANTA CRUZ DAS FLORES,-31.12667041430297,39.4517193339403
pt.ine.add.AC25.1110,R DR ARMAS DA SILVEIRA,26,9970-331,SANTA CRUZ DAS FLORES,-31.12667041430297,39.4517193339403
pt.ine.add.AC25.1111,R BOAVISTA,9970,9970-210,SANTA CRUZ DAS FLORES,-31.136649070325202,39.44751897632406
pt.ine.add.AC25.1112,R FLORES,,9970-323,SANTA CRUZ DAS FLORES,-31.133043178450606,39.44808280323953
pt.ine.add.AC25.1113,R CRUZ,,9970-319,SANTA CRUZ DAS FLORES,-31.131635304894267,39.44858275240313
pt.ine.add.AC25.1114,R BOAVISTA,,9970-210,SANTA CRUZ DAS FLORES,-31.14150510451518,39.44801114642163
pt.ine.add.AC25.1115,TV CANTO,,9970-285,SANTA CRUZ DAS FLORES,-31.13917397464038,39.44521688126734
pt.ine.add.AC25.1116,R AREEIRO,,9970-243,SANTA CRUZ DAS FLORES,-31.147305164385074,39.467249391273576
pt.ine.add.AC25.1117,R CANTO,,9970-245,SANTA CRUZ DAS FLORES,-31.15502396908995,39.46371419648076
pt.ine.add.AC25.1118,R MONTE,,9970-265,SANTA CRUZ DAS FLORES,-31.13542552418673,39.46158155961166
pt.ine.add.AC25.1119,MTE S CRUZ,,9970-265,SANTA CRUZ DAS FLORES,-31.13779850648233,39.46369182819563
pt.ine.add.AC25.1120,,,9970-265,SANTA CRUZ DAS FLORES,-31.137644838382847,39.461608122509574
pt.ine.add.AC25.1121,R MONTE DE CIMA,,9970-265,SANTA CRUZ DAS FLORES,-31.14003712194359,39.46124999248508
pt.ine.add.AC25.1122,R SENADOR ANDRE DE FREITAS,,9970-337,SANTA CRUZ DAS FLORES,-31.126968969343913,39.454021622060544
pt.ine.add.AC25.1123,R CMDT SOUTT CRUZ,9,9970-316,SANTA CRUZ DAS FLORES,-31.128128906882107,39.456274712580374
pt.ine.add.AC25.1124,R ESPERANÇA,,9970-320,SANTA CRUZ DAS FLORES,-31.129661073505766,39.4576508282447
pt.ine.add.AC25.1125,R ESPERANÇA,,9970-320,SANTA CRUZ DAS FLORES,-31.129661073505766,39.4576508282447
pt.ine.add.AC25.1144,R CONCEIÇÃO,12,9970-318,SANTA CRUZ DAS FLORES,-31.126638489742078,39.45204316942987
pt.ine.add.AC25.1145,R DR ARMAS DA SILVEIRA,13 A,9970-331,SANTA CRUZ DAS FLORES,-31.1269804385068,39.451859474579436
pt.ine.add.AC25.1146,R DR ARMAS DA SILVEIRA,6,9970-331,SANTA CRUZ DAS FLORES,-31.12828148793562,39.451880426995224
pt.ine.add.AC25.1147,R BOAVISTA,,9970-275,SANTA CRUZ DAS FLORES,-31.14003229110978,39.447023553039266
pt.ine.add.AC25.1148,TV CANTO,,9970-285,SANTA CRUZ DAS FLORES,-31.139235888121302,39.4450737162729
pt.ine.add.AC25.1149,R FAZENDA SN,SN,9970-241,SANTA CRUZ DAS FLORES,-31.146364726643288,39.46720737098089
pt.ine.add.AC25.1150,R MON AUGUSTO RIBEIRO SN,SN,9970-248,SANTA CRUZ DAS FLORES,-31.146364726643288,39.46720737098089
pt.ine.add.AC25.1151,R S PEDRO,17,9970-324,SANTA CRUZ DAS FLORES,-31.134478624328775,39.460043727472936
pt.ine.add.AC25.1152,R MONTE,,9970-265,SANTA CRUZ DAS FLORES,-31.136038884750405,39.461681492339565
pt.ine.add.AC25.1153,R PIMPILHAU,,9970-265,SANTA CRUZ DAS FLORES,-31.13908193209098,39.460892337680356
pt.ine.add.AC25.1154,AV BALEEIROS,,9970-306,SANTA CRUZ DAS FLORES,-31.127477143871406,39.45977800443562
pt.ine.add.AC25.1155,AV BALEEIROS,,9970-306,SANTA CRUZ DAS FLORES,-31.128235269447824,39.460547028204026
pt.ine.add.AC25.1156,R CMDT SOUTT CRUZ,3,9970-316,SANTA CRUZ DAS FLORES,-31.130016639741168,39.455656390975825
pt.ine.add.AC25.1157,R PAU PICO,,9970-327,SANTA CRUZ DAS FLORES,-31.134543553638974,39.457612145713206
pt.ine.add.AC25.1340,R PASSAL,,9970-087,PONTA DELGADA SCF,-31.207245766577884,39.51316581611731
pt.ine.add.AC25.1171,TV GRAÇA,,9970-304,SANTA CRUZ DAS FLORES,-31.127407344918634,39.45847948202822
pt.ine.add.AC25.1172,TV GRAÇA,,9970-304,SANTA CRUZ DAS FLORES,-31.12789966238056,39.45875770200755
pt.ine.add.AC25.1173,R ANTIGO BR DOS FRANCESES,,9970-315,SANTA CRUZ DAS FLORES,-31.12812397351786,39.455157428490935
pt.ine.add.AC25.1174,R ANTIGO BR DOS FRANCESES,,9970-315,SANTA CRUZ DAS FLORES,-31.127751812265892,39.456034388016924
pt.ine.add.AC25.1181,R IGREJA,2,9970-010,CAVEIRA,-31.15327065152036,39.43153956623539
pt.ine.add.AC25.1182,R MANUEL MARIA,,9970-033,CEDROS SCF,-31.158638474669278,39.49458471827657
pt.ine.add.AC25.1183,R QUARTEIRO,,9970-091,PONTA DELGADA SCF,-31.211182314860853,39.51478515259205
pt.ine.add.AC25.1184,R TERRA CHA,,9970-078,PONTA DELGADA SCF,-31.2093496868985,39.51548671762375
pt.ine.add.AC25.1185,R PASSAL,,9970-087,PONTA DELGADA SCF,-31.2085674543001,39.514240332413685
pt.ine.add.AC25.1186,R TRAVESSA,,9970-079,PONTA DELGADA SCF,-31.211068812448683,39.514675288993296
pt.ine.add.AC25.1187,R PASSAL,,9970-087,PONTA DELGADA SCF,-31.208170215166255,39.51385580078364
pt.ine.add.AC25.1188,R OUTEIRO,,9970-086,PONTA DELGADA SCF,-31.209410387620377,39.51221712709597
pt.ine.add.AC25.1189,R D CRISTINA AIRES MALHEIRO SERPA,3,9970-328,SANTA CRUZ DAS FLORES,-31.12915732508018,39.454327147790806
pt.ine.add.AC25.1190,R ROBERTO MESQUITA,2,9970-335,SANTA CRUZ DAS FLORES,-31.129408469227922,39.45362843071505
pt.ine.add.AC25.1191,R SENADOR ANDRE DE FREITAS,,9970-337,SANTA CRUZ DAS FLORES,-31.12859838839093,39.45306580154737
pt.ine.add.AC25.1192,R CONCEIÇÃO,4 A,9970-318,SANTA CRUZ DAS FLORES,-31.12774764526921,39.4522862787306
pt.ine.add.AC25.1193,R CONCEIÇÃO,,9970-318,SANTA CRUZ DAS FLORES,-31.126939312704113,39.45209306473628
pt.ine.add.AC25.1194,R CONCEIÇÃO,,9970-318,SANTA CRUZ DAS FLORES,-31.126939312704113,39.45209306473628
pt.ine.add.AC25.1221,R VENTO,,9970-093,PONTA DELGADA SCF,-31.20979889370612,39.51973721032104
pt.ine.add.AC25.1222,R QUARTEIRO,,9970-091,PONTA DELGADA SCF,-31.212566074928585,39.5152569283591
pt.ine.add.AC25.1223,R QUARTEIRO,,9970-091,PONTA DELGADA SCF,-31.21266325150135,39.51509624801698
pt.ine.add.AC25.1224,R LEVADA,,9970-077,PONTA DELGADA SCF,-31.21346427411699,39.51334265973665
pt.ine.add.AC25.1225,R TRAVESSA,,9970-079,PONTA DELGADA SCF,-31.210171576898784,39.51428306682569
pt.ine.add.AC25.1226,R SEBES,,9970-082,PONTA DELGADA SCF,-31.210601400875944,39.51475819051024
pt.ine.add.AC25.1227,R LEVADA,,9970-077,PONTA DELGADA SCF,-31.213183108313988,39.51205895740941
pt.ine.add.AC25.1228,R OUTEIRO,,9970-086,PONTA DELGADA SCF,-31.208939800914262,39.51106564213114
pt.ine.add.AC25.1229,R D CRISTINA AIRES MALHEIRO SERPA,9,9970-328,SANTA CRUZ DAS FLORES,-31.12950539566883,39.45478323410185
pt.ine.add.AC25.1230,R FR DIOGO DAS CHAGAS,6,9970-334,SANTA CRUZ DAS FLORES,-31.129751911767602,39.45382316000758
pt.ine.add.AC25.1231,ESTR REGIONAL,,9970-310,SANTA CRUZ DAS FLORES,-31.13207022521541,39.452310757447876
pt.ine.add.AC25.1232,TV ALFANDEGA,,9970-339,SANTA CRUZ DAS FLORES,-31.125591898643457,39.45423368163465
pt.ine.add.AC25.1233,R FR DIOGO DAS CHAGAS,2,9970-334,SANTA CRUZ DAS FLORES,-31.129588989263034,39.45339708227834
pt.ine.add.AC25.1234,R S CATARINA,,9970-336,SANTA CRUZ DAS FLORES,-31.12713374767503,39.45351072269842
pt.ine.add.AC25.1235,R DR ARMAS DA SILVEIRA,13,9970-331,SANTA CRUZ DAS FLORES,-31.12710846146009,39.451852527218975
pt.ine.add.AC25.1236,R CANADAS,,9970-242,SANTA CRUZ DAS FLORES,-31.151293186166168,39.465456875191414
pt.ine.add.AC25.1237,R PIMPILHAU,,9970-265,SANTA CRUZ DAS FLORES,-31.138394981409665,39.46180934075978
pt.ine.add.AC25.1238,R HORTENSIAS,1,9970-306,SANTA CRUZ DAS FLORES,-31.128865977053536,39.459998578889504
pt.ine.add.AC25.1299,R TERRA CHA,,9970-078,PONTA DELGADA SCF,-31.208819443245982,39.51529835250077
pt.ine.add.AC25.1239,R HORTENSIAS,14,9970-306,SANTA CRUZ DAS FLORES,-31.128598080039392,39.46045376208411
pt.ine.add.AC25.1240,R ESPERANÇA,7,9970-320,SANTA CRUZ DAS FLORES,-31.13000308980367,39.457899592170904
pt.ine.add.AC25.1241,R S PEDRO,1,9970-324,SANTA CRUZ DAS FLORES,-31.134470299070127,39.459484991510664
pt.ine.add.AC25.1242,R ANTIGO BR DOS FRANCESES,,9970-315,SANTA CRUZ DAS FLORES,-31.127586385687152,39.45440096548332
pt.ine.add.AC25.1243,R CMDT SOUTT CRUZ,11B,9970-316,SANTA CRUZ DAS FLORES,-31.12795995678828,39.4560737785753
pt.ine.add.AC25.1244,R ESPERANÇA,6,9970-320,SANTA CRUZ DAS FLORES,-31.129649652146767,39.45720916851125
pt.ine.add.AC25.1245,R ALM GAGO COUTINHO,,9970-315,SANTA CRUZ DAS FLORES,-31.12829975109446,39.455971132824054
pt.ine.add.AC25.1258,R CONCEIÇÃO,17,9970-318,SANTA CRUZ DAS FLORES,-31.128748882882924,39.45265377671506
pt.ine.add.AC25.1259,R CONCEIÇÃO,14,9970-318,SANTA CRUZ DAS FLORES,-31.1263059568713,39.451875635985914
pt.ine.add.AC25.1260,R DR ARMAS DA SILVEIRA,15,9970-331,SANTA CRUZ DAS FLORES,-31.126748108394583,39.451855731546075
pt.ine.add.AC25.1261,R BOAVISTA,,9970-210,SANTA CRUZ DAS FLORES,-31.14135050441201,39.448143821208824
pt.ine.add.AC25.1262,R BOAVISTA,,9970-275,SANTA CRUZ DAS FLORES,-31.140396795903044,39.44817362023238
pt.ine.add.AC25.1263,R PAU PICO,,9970-327,SANTA CRUZ DAS FLORES,-31.137542942420037,39.45714667913506
pt.ine.add.AC25.1264,R BARREIRO,,9970-244,SANTA CRUZ DAS FLORES,-31.14658845054684,39.46666134518222
pt.ine.add.AC25.1265,R AREEIRO,,9970-243,SANTA CRUZ DAS FLORES,-31.153275738237053,39.465650559958775
pt.ine.add.AC25.1266,R CANTO,,9970-245,SANTA CRUZ DAS FLORES,-31.155267723176166,39.46372707426831
pt.ine.add.AC25.1267,R HORTENSIAS,18,9970-306,SANTA CRUZ DAS FLORES,-31.12866103279056,39.460707047253784
pt.ine.add.AC25.1268,AV BALEEIROS,,9970-306,SANTA CRUZ DAS FLORES,-31.128159598507644,39.46163598449512
pt.ine.add.AC25.1269,R PAU PICO,,9970-327,SANTA CRUZ DAS FLORES,-31.133827357497037,39.457447486668734
pt.ine.add.AC25.1281,R PAU PICO,7,9970-327,SANTA CRUZ DAS FLORES,-31.13487124826387,39.45752730603955
pt.ine.add.AC25.1282,R SENADOR ANDRE FREITAS,21,9970-337,SANTA CRUZ DAS FLORES,-31.126635970637007,39.454304567817914
pt.ine.add.AC25.1283,R ANTIGO BR DOS FRANCESES,,9970-315,SANTA CRUZ DAS FLORES,-31.12773981895992,39.454313339244635
pt.ine.add.AC25.1284,R ESPERANÇA,,9970-320,SANTA CRUZ DAS FLORES,-31.129639767303086,39.457578407770434
pt.ine.add.AC25.1285,R ESPERANÇA,,9970-320,SANTA CRUZ DAS FLORES,-31.129682620841457,39.45771424287997
pt.ine.add.AC25.1294,R MANUEL MARIA,,9970-033,CEDROS SCF,-31.15773630696256,39.494840713425845
pt.ine.add.AC25.1295,R ALAGOA,,9970-031,CEDROS SCF,-31.15137374295059,39.4760265543818
pt.ine.add.AC25.1296,R VENTO,,9970-093,PONTA DELGADA SCF,-31.212436533626818,39.52030938337903
pt.ine.add.AC25.1297,R VENTO,,9970-093,PONTA DELGADA SCF,-31.209567714674932,39.51967959077309
pt.ine.add.AC25.1298,R QUARTEIRO,,9970-091,PONTA DELGADA SCF,-31.211381600063618,39.51472515174814
pt.ine.add.AC25.1300,R TERRA CHA,,9970-078,PONTA DELGADA SCF,-31.20907016106788,39.51550042992339
pt.ine.add.AC25.1301,R PORTINHO,,9970-089,PONTA DELGADA SCF,-31.20576818190615,39.51317905331312
pt.ine.add.AC25.1302,R SEBES,,9970-082,PONTA DELGADA SCF,-31.210519083672175,39.51479296192527
pt.ine.add.AC25.1303,R SENADOR ANDRE DE FREITAS,,9970-096,PONTA DELGADA SCF,-31.208060300181504,39.51451181503183
pt.ine.add.AC25.1304,R ROCHELA,,9970-072,PONTA DELGADA SCF,-31.207457372027672,39.51307898289095
pt.ine.add.AC25.1305,R ROCHELA,,9970-072,PONTA DELGADA SCF,-31.2080951387061,39.512250914410046
pt.ine.add.AC25.1306,R ALM GAGO COUTINHO,5,9970-315,SANTA CRUZ DAS FLORES,-31.128281713159335,39.454475229601364
pt.ine.add.AC25.1333,ESTR REGIONAL,3,9970-010,CAVEIRA,-31.15118959753219,39.43071363764016
pt.ine.add.AC25.1334,R JOSE PEREIRA BORGES,,9970-010,CAVEIRA,-31.14820809799001,39.42923364237319
pt.ine.add.AC25.1335,R S PEDRO,,9970-083,PONTA DELGADA SCF,-31.206787950536103,39.51378042329724
pt.ine.add.AC25.1336,R TRAVESSA,,9970-079,PONTA DELGADA SCF,-31.21030833216162,39.514393289368435
pt.ine.add.AC25.1337,R ESCADINHA,,9970-092,PONTA DELGADA SCF,-31.20850613608609,39.5130050566497
pt.ine.add.AC25.1338,R ESCOLA,,9970-074,PONTA DELGADA SCF,-31.209297206416473,39.514359695118436
pt.ine.add.AC25.1339,R LEVADA,,9970-077,PONTA DELGADA SCF,-31.212037048951473,39.51411356688591
pt.ine.add.AC25.1341,R S PEDRO,3,9970-324,SANTA CRUZ DAS FLORES,-31.13272836556542,39.454645837774706
pt.ine.add.AC25.1342,R ROBERTO MESQUITA,12,9970-335,SANTA CRUZ DAS FLORES,-31.12849950203625,39.45415438574035
pt.ine.add.AC25.1343,R DR ARMAS DA SILVEIRA,12,9970-331,SANTA CRUZ DAS FLORES,-31.127899349229697,39.45182922585096
pt.ine.add.AC25.1344,R STO ESPIRITO,9970,9970-285,SANTA CRUZ DAS FLORES,-31.140119368068326,39.445934767462184
pt.ine.add.AC25.1345,ESTR REGIONAL,51,9970-310,SANTA CRUZ DAS FLORES,-31.1428562253012,39.468007298957815
pt.ine.add.AC25.1346,ESTR VALES,,9970-380,SANTA CRUZ DAS FLORES,-31.143405437631106,39.45171747981993
pt.ine.add.AC25.1347,VALES,,9970-380,SANTA CRUZ DAS FLORES,-31.141462714023213,39.451353081126705
pt.ine.add.AC25.1348,FAJA DO CONDE,,9970-380,SANTA CRUZ DAS FLORES,-31.143139097281058,39.438558999293605
pt.ine.add.AC25.1349,R AREEIRO,,9970-243,SANTA CRUZ DAS FLORES,-31.152184214261005,39.466047663325234
pt.ine.add.AC25.1350,R TRAVESSA,,9970-241,SANTA CRUZ DAS FLORES,-31.14527338039259,39.46759540193961
pt.ine.add.AC25.1351,R BARREIRO,,9970-244,SANTA CRUZ DAS FLORES,-31.14457550819429,39.467611295080104
pt.ine.add.AC25.1352,R S PEDRO,,9970-324,SANTA CRUZ DAS FLORES,-31.135647630577704,39.46109859699388
pt.ine.add.AC25.1353,ESTR PRINCIPAL,,9970-265,SANTA CRUZ DAS FLORES,-31.1378376837621,39.46353028088429
pt.ine.add.AC25.1354,R CMDT SOUTT CRUZ,,9970-316,SANTA CRUZ DAS FLORES,-31.129719219800794,39.4559128886361
pt.ine.add.AC25.1355,R CMDT SOUTT CRUZ,51,9970-316,SANTA CRUZ DAS FLORES,-31.12964437555503,39.45306461365636
pt.ine.add.AC25.1356,R CMDT SOUTT CRUZ,N 1,9970-316,SANTA CRUZ DAS FLORES,-31.129539493053702,39.45220700289417
pt.ine.add.AC25.1357,R BECO DA ALFÂNDEGA,,9970-337,SANTA CRUZ DAS FLORES,-31.125916952697796,39.454680397730115
pt.ine.add.AC25.1358,R TRAVESSA RAMOS,2,9970-307,SANTA CRUZ DAS FLORES,-31.12649294561017,39.45443740888612
pt.ine.add.AC25.1359,R TRAVESSA RAMOS,2,9970-307,SANTA CRUZ DAS FLORES,-31.12649294561017,39.45443740888612
pt.ine.add.AC25.1391,R JOSE PEREIRA BORGES,,9970-010,CAVEIRA,-31.148766163636513,39.429656977576805
pt.ine.add.AC25.1392,R JOSE PEREIRA BORGES,1,9970-010,CAVEIRA,-31.150214390599633,39.430247639932354
pt.ine.add.AC25.1393,ESTR REGIONAL,,9970-010,CAVEIRA,-31.149117452211392,39.4308698788896
pt.ine.add.AC25.1394,R MANUEL MARIA,,9970-033,CEDROS SCF,-31.157994884978898,39.494736695238224
pt.ine.add.AC25.1395,ER 1-2A,,9970-031,CEDROS SCF,-31.152771193252047,39.480769855788886
pt.ine.add.AC25.1396,R ALAGOA,,9970-031,CEDROS SCF,-31.151100331693208,39.47581498282442
pt.ine.add.AC25.1397,R CRUZ,,9970-073,PONTA DELGADA SCF,-31.205721049565923,39.511394402787914
pt.ine.add.AC25.1398,R QUARTEIRO,,9970-091,PONTA DELGADA SCF,-31.212642220927325,39.51455534171733
pt.ine.add.AC25.1399,R PASSAL,,9970-087,PONTA DELGADA SCF,-31.20798487191057,39.51382591398033
pt.ine.add.AC25.1400,R PASSAL,,9970-087,PONTA DELGADA SCF,-31.207533669241712,39.51327837330073
pt.ine.add.AC25.1401,R D CRISTINA AIRES MALHEIRO SERPA,7,9970-328,SANTA CRUZ DAS FLORES,-31.129404459118827,39.45464646438291
pt.ine.add.AC25.1402,R CONCEIÇÃO,13,9970-318,SANTA CRUZ DAS FLORES,-31.12681976748048,39.45221727483592
pt.ine.add.AC25.1403,TV MATRIZ,1,9970-334,SANTA CRUZ DAS FLORES,-31.12715034149249,39.452024386512065
pt.ine.add.AC25.1404,R DR ARMAS DA SILVEIRA,7,9970-331,SANTA CRUZ DAS FLORES,-31.127595148271286,39.45190541470913
pt.ine.add.AC25.1405,R DR ARMAS DA SILVEIRA,4,9970-331,SANTA CRUZ DAS FLORES,-31.128419438941894,39.45193670606106
pt.ine.add.AC25.1406,R DR ARMAS DA SILVEIRA,4,9970-331,SANTA CRUZ DAS FLORES,-31.128419438941894,39.45193670606106
pt.ine.add.AC25.1407,R TERCA,,9970-322,SANTA CRUZ DAS FLORES,-31.13434432614421,39.44766221193652
pt.ine.add.AC25.1408,R TERCA,,9970-322,SANTA CRUZ DAS FLORES,-31.13493681507523,39.44810418467453
pt.ine.add.AC25.1409,R BOAVISTA,,9970-215,SANTA CRUZ DAS FLORES,-31.136213672179956,39.44728675438567
pt.ine.add.AC25.1410,R BOAVISTA,,9970-275,SANTA CRUZ DAS FLORES,-31.14045058479969,39.44658876648
pt.ine.add.AC25.1411,R MOIO,,9970-241,SANTA CRUZ DAS FLORES,-31.147530755477295,39.46926215304835
pt.ine.add.AC25.1412,ESTR VALES,,9970-380,SANTA CRUZ DAS FLORES,-31.143626152894324,39.45172100409184
pt.ine.add.AC25.1413,R VALES,,9970-380,SANTA CRUZ DAS FLORES,-31.143826161276284,39.45206656732949
pt.ine.add.AC25.1414,R FAZENDA,,9970-241,SANTA CRUZ DAS FLORES,-31.147911273492735,39.46718697123346
pt.ine.add.AC25.1415,R CANADAS,,9970-242,SANTA CRUZ DAS FLORES,-31.150676667796795,39.465474098831784
pt.ine.add.AC25.1416,R MONTE,,9970-265,SANTA CRUZ DAS FLORES,-31.136682209895618,39.46152963007137
pt.ine.add.AC25.1417,R PIMPILHAU,,9970-265,SANTA CRUZ DAS FLORES,-31.139702167756926,39.45942466978765
pt.ine.add.AC25.1418,R S PEDRO,,9970-390,SANTA CRUZ DAS FLORES,-31.134011135756605,39.46231568258399
pt.ine.add.AC25.1419,R ZONA INDUSTRIAL DO BOQUEIRÃO,9,9970-390,SANTA CRUZ DAS FLORES,-31.13215829010962,39.46249315212021
pt.ine.add.AC25.1420,R ZONA INDUSTRIAL DO BOQUEIRÃO,9,9970-390,SANTA CRUZ DAS FLORES,-31.13215829010962,39.46249315212021
pt.ine.add.AC25.1421,R HORTENSIAS,3,9970-306,SANTA CRUZ DAS FLORES,-31.128897453692677,39.4601252214221
pt.ine.add.AC25.1422,R ESPERANÇA,,9970-320,SANTA CRUZ DAS FLORES,-31.129836378956135,39.46065388239477
pt.ine.add.AC25.1423,R HORTENSIAS,9,9970-306,SANTA CRUZ DAS FLORES,-31.12852375106865,39.460191284037066
pt.ine.add.AC25.1424,R S PEDRO,,9970-324,SANTA CRUZ DAS FLORES,-31.134538082164926,39.459558156880625
pt.ine.add.AC25.1425,R NSA SRA DO ROSÁRIO,,9970-306,SANTA CRUZ DAS FLORES,-31.128728656180023,39.45905034911524
pt.ine.add.AC25.1426,BR NSA SRA FATIMA,31,9970-304,SANTA CRUZ DAS FLORES,-31.12899260622789,39.457874324963804
pt.ine.add.AC25.1427,BR NSA SRA FATIMA,,9970-304,SANTA CRUZ DAS FLORES,-31.12899260622789,39.457874324963804
pt.ine.add.AC25.1428,TV GRAÇA,51,9970-304,SANTA CRUZ DAS FLORES,-31.12692077016555,39.45712018716979
pt.ine.add.AC25.1429,R CMDT SOUTT CRUZ,5C,9970-316,SANTA CRUZ DAS FLORES,-31.12897600160131,39.45632438694551
pt.ine.add.AC25.1430,R CMDT SOUTT CRUZ,5C,9970-316,SANTA CRUZ DAS FLORES,-31.12897600160131,39.45632438694551
pt.ine.add.AC25.1461,ER 1-2A,,9970-031,CEDROS SCF,-31.151860664471915,39.48090854802153
pt.ine.add.AC25.1462,R QUARTEIRO,,9970-091,PONTA DELGADA SCF,-31.211600905920672,39.514791594629976
pt.ine.add.AC25.1463,R LEVADA,,9970-077,PONTA DELGADA SCF,-31.213018051366824,39.51350698424416
pt.ine.add.AC25.1464,ESTR REGIONAL,,9970-071,PONTA DELGADA SCF,-31.20937714766122,39.513964499465885
pt.ine.add.AC25.1465,R LEVADA,,9970-077,PONTA DELGADA SCF,-31.214097821294512,39.512676667899626
pt.ine.add.AC25.1466,R FR DIOGO DAS CHAGAS,8,9970-334,SANTA CRUZ DAS FLORES,-31.129795004556232,39.45394998926766
pt.ine.add.AC25.1467,R FR DIOGO DAS CHAGAS,8,9970-334,SANTA CRUZ DAS FLORES,-31.129795004556232,39.45394998926766
pt.ine.add.AC25.1468,R FR DIOGO DAS CHAGAS,12,9970-334,SANTA CRUZ DAS FLORES,-31.12988798678196,39.45438395143552
pt.ine.add.AC25.1469,R DR ARMAS DA SILVEIRA,11,9970-331,SANTA CRUZ DAS FLORES,-31.12722366109611,39.45189042176038
pt.ine.add.AC25.1470,R FLORES,24,9970-323,SANTA CRUZ DAS FLORES,-31.13178902131864,39.448918582383534
pt.ine.add.AC25.1471,R AREEIRO,S N,9970-243,SANTA CRUZ DAS FLORES,-31.156244315407623,39.46503996760625
pt.ine.add.AC25.1472,R FAZENDA,,9970-241,SANTA CRUZ DAS FLORES,-31.149703159784067,39.4662424546696
pt.ine.add.AC25.1473,R CANTO,,9970-245,SANTA CRUZ DAS FLORES,-31.154816774950543,39.46319735353186
pt.ine.add.AC25.1474,R BELGUINHA,,9970-265,SANTA CRUZ DAS FLORES,-31.13658487353026,39.462564187166045
pt.ine.add.AC25.1475,MTE S CRUZ,,9970-265,SANTA CRUZ DAS FLORES,-31.135677677909012,39.46127927313449
pt.ine.add.AC25.1476,R LADEIRA DE S PEDRO,,9970-309,SANTA CRUZ DAS FLORES,-31.13551726775525,39.46162807954815
pt.ine.add.AC25.1477,SIT PULO,,9970-265,SANTA CRUZ DAS FLORES,-31.140312341472452,39.462263483747655
pt.ine.add.AC25.1478,R BELGUJNHA,,9970-265,SANTA CRUZ DAS FLORES,-31.139279613879285,39.46263437725062
pt.ine.add.AC25.1479,R PIMPILHAU,,9970-265,SANTA CRUZ DAS FLORES,-31.139453875710863,39.45958287154041
pt.ine.add.AC25.1480,R HORTENSIAS,7,9970-306,SANTA CRUZ DAS FLORES,-31.12896040728712,39.460378506462035
pt.ine.add.AC25.1481,R HORTENSIAS,2,9970-306,SANTA CRUZ DAS FLORES,-31.12834024125141,39.45966576670693
pt.ine.add.AC25.1482,R S PEDRO,6,9970-324,SANTA CRUZ DAS FLORES,-31.133380118581737,39.457656540172
pt.ine.add.AC25.1865,R MONTE,,9970-265,SANTA CRUZ DAS FLORES,-31.137855886532062,39.461539425387194
pt.ine.add.AC25.1488,R S PEDRO,,9970-033,CEDROS SCF,-31.158265462877974,39.496380746347306
pt.ine.add.AC25.1489,R MOIO,,9970-033,CEDROS SCF,-31.15924919888739,39.4974414536232
pt.ine.add.AC25.1490,R S PEDRO,,9970-033,CEDROS SCF,-31.157088907116606,39.49513677995956
pt.ine.add.AC25.1491,R COVOADA,,9970-031,CEDROS SCF,-31.15310167536556,39.481901320000446
pt.ine.add.AC25.1492,R MIRADOURO,,9970-031,CEDROS SCF,-31.151880630907712,39.480593525832745
pt.ine.add.AC25.1493,R LOMBO,,9970-031,CEDROS SCF,-31.156901820425034,39.48064621803901
pt.ine.add.AC25.1494,R PORTO,,9970-090,PONTA DELGADA SCF,-31.21051395600649,39.51771202917542
pt.ine.add.AC25.1495,R LEVADA,,9970-077,PONTA DELGADA SCF,-31.21338408882761,39.51238639701087
pt.ine.add.AC25.1496,R FONTE MOLEIRO,,9970-094,PONTA DELGADA SCF,-31.2078346598044,39.511976606657925
pt.ine.add.AC25.1497,R ALM GAGO COUTINHO,7,9970-315,SANTA CRUZ DAS FLORES,-31.128442420679647,39.45454989444426
pt.ine.add.AC25.1498,TV ALFANDEGA,8,9970-339,SANTA CRUZ DAS FLORES,-31.125447160835538,39.453997095496064
pt.ine.add.AC25.1499,R DR ARMAS DA SILVEIRA,24,9970-331,SANTA CRUZ DAS FLORES,-31.126763104740753,39.451729837096615
pt.ine.add.AC25.1500,R CANADAS,,9970-242,SANTA CRUZ DAS FLORES,-31.150820625149873,39.465305203964576
pt.ine.add.AC25.1501,R FAZENDA,,9970-241,SANTA CRUZ DAS FLORES,-31.149807492648225,39.466253124885974
pt.ine.add.AC25.1502,R AREEIRO,,9970-243,SANTA CRUZ DAS FLORES,-31.151409553167355,39.465891192368034
pt.ine.add.AC25.1503,R MONTE,,9970-265,SANTA CRUZ DAS FLORES,-31.13571821883977,39.46063122374134
pt.ine.add.AC25.1504,R HORTENSIAS,15,9970-306,SANTA CRUZ DAS FLORES,-31.12941740802607,39.4606741711131
pt.ine.add.AC25.1505,R HORTENSIAS,8,9970-306,SANTA CRUZ DAS FLORES,-31.128492757616193,39.46004662976901
pt.ine.add.AC25.1506,R HORTENSIAS,16,9970-306,SANTA CRUZ DAS FLORES,-31.128641174329534,39.46058059168224
pt.ine.add.AC25.1507,R NSA SRA DO ROSÁRIO,,9970-306,SANTA CRUZ DAS FLORES,-31.128332206320998,39.45909802561497
pt.ine.add.AC25.1508,R ESPERANÇA,1,9970-320,SANTA CRUZ DAS FLORES,-31.129703686035196,39.45779566918208
pt.ine.add.AC25.1509,R SENADOR ANDRÉ DE FREITAS,21,9970-337,SANTA CRUZ DAS FLORES,-31.12644210536329,39.45416629816065
pt.ine.add.AC25.1510,R SENADOR ANDRE DE FREITAS,19,9970-337,SANTA CRUZ DAS FLORES,-31.12675986577456,39.45401825317754
pt.ine.add.AC25.1511,R CMDT SOUTT CRUZ,5,9970-316,SANTA CRUZ DAS FLORES,-31.12908128043514,39.45629905202029
pt.ine.add.AC25.1512,R CMDT SOUTT CRUZ,5,9970-316,SANTA CRUZ DAS FLORES,-31.12908128043514,39.45629905202029
pt.ine.add.AC25.1540,R S PEDRO,,9970-033,CEDROS SCF,-31.157976339714022,39.49543915713678
pt.ine.add.AC25.1552,R NORTE,,9970-010,CAVEIRA,-31.14677390492118,39.42986850763291
pt.ine.add.AC25.1553,R S PEDRO,,9970-033,CEDROS SCF,-31.158472082259802,39.49648312668037
pt.ine.add.AC25.1554,R S PEDRO,,9970-033,CEDROS SCF,-31.157218435089863,39.49507576576923
pt.ine.add.AC25.1555,R MIRADOURO,,9970-031,CEDROS SCF,-31.15153675684221,39.48040786413693
pt.ine.add.AC25.1556,R PORTO,,9970-090,PONTA DELGADA SCF,-31.21033470622492,39.51653800682409
pt.ine.add.AC25.1557,R VENTO,,9970-093,PONTA DELGADA SCF,-31.211605525465846,39.51869287051125
pt.ine.add.AC25.1558,R S PEDRO,,9970-083,PONTA DELGADA SCF,-31.20642630075007,39.51336940574654
pt.ine.add.AC25.1559,R CANTO,,9970-084,PONTA DELGADA SCF,-31.206611732757313,39.51430026741367
pt.ine.add.AC25.1560,R QUARTEIRO,,9970-091,PONTA DELGADA SCF,-31.211743670085824,39.51466765540559
pt.ine.add.AC25.1561,R ESCADINHA,,9970-092,PONTA DELGADA SCF,-31.209123010634492,39.51253704896276
pt.ine.add.AC25.1562,ESTR REGIONAL,,9970-071,PONTA DELGADA SCF,-31.21176915634312,39.51412746469659
pt.ine.add.AC25.1563,R CRISTINA MALHEIRO SERPA,,9970-315,SANTA CRUZ DAS FLORES,-31.12930260197422,39.454978185075305
pt.ine.add.AC25.1564,R FR DIOGO DAS CHAGAS,16,9970-334,SANTA CRUZ DAS FLORES,-31.130018761257055,39.455142871210704
pt.ine.add.AC25.1565,R DR ARMAS DA SILVEIRA,9,9970-331,SANTA CRUZ DAS FLORES,-31.127328692411524,39.45187409409209
pt.ine.add.AC25.1566,R CRUZ,,9970-319,SANTA CRUZ DAS FLORES,-31.133157894279936,39.4481387035871
pt.ine.add.AC25.1567,R TERCA,,9970-322,SANTA CRUZ DAS FLORES,-31.13500114316869,39.447870963493344
pt.ine.add.AC25.1568,R BOAVISTA,,9970-215,SANTA CRUZ DAS FLORES,-31.138847929642726,39.447860525829014
pt.ine.add.AC25.1569,R BOAVISTA,,9970-215,SANTA CRUZ DAS FLORES,-31.138818493804518,39.44722036331035
pt.ine.add.AC25.1570,R BOAVISTA,,9970-275,SANTA CRUZ DAS FLORES,-31.13851939589115,39.44623351370557
pt.ine.add.AC25.1571,R BOAVISTA,,9970-275,SANTA CRUZ DAS FLORES,-31.139689550014346,39.44767578059552
pt.ine.add.AC25.1572,R ESPIGAO,,9970-246,SANTA CRUZ DAS FLORES,-31.165414295465467,39.45844574787152
pt.ine.add.AC25.1573,ESTR REGIONAL,,9970-310,SANTA CRUZ DAS FLORES,-31.146679218579862,39.46805929839998
pt.ine.add.AC25.1574,R FAZENDA,,9970-241,SANTA CRUZ DAS FLORES,-31.14711274354959,39.46661564431211
pt.ine.add.AC25.1575,R FAZENDA,,9970-241,SANTA CRUZ DAS FLORES,-31.146954377199172,39.46645094520328
pt.ine.add.AC25.1576,R S PEDRO,19,9970-324,SANTA CRUZ DAS FLORES,-31.13464416083685,39.45993826699797
pt.ine.add.AC25.1577,R S PEDRO,,9970-265,SANTA CRUZ DAS FLORES,-31.13423638137381,39.46171564693384
pt.ine.add.AC25.1578,R PIMPILHAU,,9970-265,SANTA CRUZ DAS FLORES,-31.138638484448514,39.461831259071374
pt.ine.add.AC25.1579,R MONTE DE CIMA,,9970-265,SANTA CRUZ DAS FLORES,-31.14026553912354,39.460965335559585
pt.ine.add.AC25.1580,R ESPERANÇA,,9970-320,SANTA CRUZ DAS FLORES,-31.130571927407363,39.460530566594095
pt.ine.add.AC25.1581,R CMDT SOUTT CRUZ,3D,9970-316,SANTA CRUZ DAS FLORES,-31.129389115995675,39.456087772201684
pt.ine.add.AC25.1582,R CMDT SOUTT CRUZ,51,9970-316,SANTA CRUZ DAS FLORES,-31.130025123507057,39.45577365374909
pt.ine.add.AC25.1583,R PAU PICO,,9970-327,SANTA CRUZ DAS FLORES,-31.135474156743932,39.457582025254766
pt.ine.add.AC25.1584,R ANUNCIAÇÃO,,9970-304,SANTA CRUZ DAS FLORES,-31.12848991676904,39.457983360268
pt.ine.add.AC25.1585,R ANTIGO BR DOS FRANCESES,2,9970-315,SANTA CRUZ DAS FLORES,-31.128550669093205,39.45528142396738
pt.ine.add.AC25.1610,ESTR REGIONAL,,9970-010,CAVEIRA,-31.153376439595785,39.43061323949043
pt.ine.add.AC25.1611,R ROCINHA,,9970-031,CEDROS SCF,-31.157280547785803,39.48127389218388
pt.ine.add.AC25.1612,R CANTO,,9970-084,PONTA DELGADA SCF,-31.205934793667637,39.514388926447666
pt.ine.add.AC25.1613,ESTR REGIONAL,,9970-071,PONTA DELGADA SCF,-31.209416256245746,39.514253412807214
pt.ine.add.AC25.1614,R ESCOLA,,9970-074,PONTA DELGADA SCF,-31.208794681408353,39.51445105805218
pt.ine.add.AC25.1615,R ROCHELA,,9970-072,PONTA DELGADA SCF,-31.20805938673374,39.51273688770957
pt.ine.add.AC25.1616,R FONTE MOLEIRO,,9970-094,PONTA DELGADA SCF,-31.207422980879706,39.51124948065049
pt.ine.add.AC25.1617,R DR ARMAS DA SILVEIRA,12,9970-331,SANTA CRUZ DAS FLORES,-31.127737442006683,39.45179958955958
pt.ine.add.AC25.1618,AV DIOGO TEIVE,24,9970-301,SANTA CRUZ DAS FLORES,-31.126064497351777,39.45307904659562
pt.ine.add.AC25.1619,R CONCEIÇÃO,10,9970-318,SANTA CRUZ DAS FLORES,-31.126222709439343,39.45194637211686
pt.ine.add.AC25.1620,ESTR REGIONAL,4,9970-310,SANTA CRUZ DAS FLORES,-31.13117337082391,39.44890868839785
pt.ine.add.AC25.1621,R MON AUGUSTO RIBEIRO,9,9970-248,SANTA CRUZ DAS FLORES,-31.1467291323958,39.467492481965
pt.ine.add.AC25.1622,R S PEDRO,23,9970-324,SANTA CRUZ DAS FLORES,-31.134159720998614,39.460669289873096
pt.ine.add.AC25.1623,LG FARROPO,,9970-265,SANTA CRUZ DAS FLORES,-31.135298283911702,39.46199396566754
pt.ine.add.AC25.1624,R LADEIRA S PEDRO,,9970-309,SANTA CRUZ DAS FLORES,-31.134903744506293,39.461969617419584
pt.ine.add.AC25.1625,LUGAR DO MONTE,,9970-265,SANTA CRUZ DAS FLORES,-31.136094092153783,39.46179049403787
pt.ine.add.AC25.1626,R ESPERANÇA,22,9970-320,SANTA CRUZ DAS FLORES,-31.12981820605664,39.460464386150996
pt.ine.add.AC25.1627,R HORTENSIAS,5,9970-306,SANTA CRUZ DAS FLORES,-31.12846128174503,39.459919987143515
pt.ine.add.AC25.1628,R S PEDRO,,9970-324,SANTA CRUZ DAS FLORES,-31.135292119154865,39.460047768398596
pt.ine.add.AC25.1629,R S PEDRO,5,9970-324,SANTA CRUZ DAS FLORES,-31.134580390415984,39.45927953453024
pt.ine.add.AC25.1630,R NSA SRA DO ROSÁRIO,,9970-306,SANTA CRUZ DAS FLORES,-31.130130737054174,39.45877558743612
pt.ine.add.AC25.1631,R ANUNCIAÇÃO,35,9970-304,SANTA CRUZ DAS FLORES,-31.128326788758866,39.45799875362256
pt.ine.add.AC25.1632,R ANUNCIAÇÃO,37,9970-304,SANTA CRUZ DAS FLORES,-31.12776576837695,39.458115856407076
pt.ine.add.AC25.1633,TV GRAÇA,39,9970-304,SANTA CRUZ DAS FLORES,-31.1270846787397,39.457942711513994
pt.ine.add.AC25.1634,R SENADOR ANDRE DE FREITAS,33,9970-337,SANTA CRUZ DAS FLORES,-31.125758904994065,39.45450666543446
pt.ine.add.AC25.1635,R ESPERANÇA,4,9970-320,SANTA CRUZ DAS FLORES,-31.12916312572153,39.456714815952544
pt.ine.add.AC25.1672,R JOSE PEREIRA BORGES,11,9970-010,CAVEIRA,-31.14822607762025,39.42943214366888
pt.ine.add.AC25.1673,R PROF JOSE FRANCESCO FRAGA,,9970-031,CEDROS SCF,-31.153981875217983,39.481590952115944
pt.ine.add.AC25.1674,R PORTO,,9970-090,PONTA DELGADA SCF,-31.208398808481764,39.51944534380999
pt.ine.add.AC25.1675,R PORTO,,9970-090,PONTA DELGADA SCF,-31.209263003482285,39.51931450779668
pt.ine.add.AC25.1676,R LADEIRA,,9970-062,PONTA DELGADA SCF,-31.207521913010154,39.51418817281733
pt.ine.add.AC25.1677,R QUARTEIRO,,9970-091,PONTA DELGADA SCF,-31.211628318969503,39.51462984161214
pt.ine.add.AC25.1678,R SENADOR ANDRE DE FREITAS,,9970-096,PONTA DELGADA SCF,-31.20823262920141,39.51459555934983
pt.ine.add.AC25.1679,R LEVADA,,9970-077,PONTA DELGADA SCF,-31.213529382882864,39.51216338746685
pt.ine.add.AC25.1680,R ESTALEIRO,,9970-085,PONTA DELGADA SCF,-31.20638299092843,39.512792115856236
pt.ine.add.AC25.1681,R ROCHELA,,9970-072,PONTA DELGADA SCF,-31.207356663181173,39.51292426445796
pt.ine.add.AC25.1682,R ROCHELA,,9970-072,PONTA DELGADA SCF,-31.208156745535156,39.512116718534045
pt.ine.add.AC25.1683,R ALM GAGO COUTINHO,3,9970-315,SANTA CRUZ DAS FLORES,-31.128114938139632,39.45419324335909
pt.ine.add.AC25.1684,R DR ARMAS DA SILVEIRA,30,9970-331,SANTA CRUZ DAS FLORES,-31.126439291987623,39.45167056115903
pt.ine.add.AC25.1685,R DR ARMAS DA SILVEIRA,30,9970-331,SANTA CRUZ DAS FLORES,-31.126439291987623,39.45167056115903
pt.ine.add.AC25.1686,PC MARQUES DE POMBAL,2,9970-314,SANTA CRUZ DAS FLORES,-31.129230952185594,39.4524453011867
pt.ine.add.AC25.1687,R DR ARMAS DA SILVEIRA,5,9970-331,SANTA CRUZ DAS FLORES,-31.127734546500037,39.45190765957195
pt.ine.add.AC25.1688,R CONCEIÇÃO,6,9970-318,SANTA CRUZ DAS FLORES,-31.127390185998923,39.45218141500266
pt.ine.add.AC25.1689,R BOAVISTA,,9970-210,SANTA CRUZ DAS FLORES,-31.13837475809817,39.448609768474526
pt.ine.add.AC25.1690,R CRUZ,,9970-319,SANTA CRUZ DAS FLORES,-31.132313605485933,39.44842246546675
pt.ine.add.AC25.1691,R FLORES,31,9970-323,SANTA CRUZ DAS FLORES,-31.131508550682824,39.448977143499654
pt.ine.add.AC25.1692,R BELGUINHA,,9970-265,SANTA CRUZ DAS FLORES,-31.13721475672195,39.46291665057577
pt.ine.add.AC25.1693,R BOQUEIRÃO,3,9970-390,SANTA CRUZ DAS FLORES,-31.13093986580332,39.462851977754646
pt.ine.add.AC25.1694,R ESPERANÇA,,9970-320,SANTA CRUZ DAS FLORES,-31.1300568859209,39.45849509853075
pt.ine.add.AC25.1695,R NSA SRA ROSARIO,3,9970-306,SANTA CRUZ DAS FLORES,-31.129652724650583,39.45883096633864
pt.ine.add.AC25.1696,R ALM GAGO COUTINHO,,9970-315,SANTA CRUZ DAS FLORES,-31.12823142216096,39.45505104181112
pt.ine.add.AC25.1697,BR ANTIGO BR DOS FRANCESES,,9970-305,SANTA CRUZ DAS FLORES,-31.127019116733255,39.45475221690797
pt.ine.add.AC25.1700,R FERNANDO MENDONCA,2,9970-332,SANTA CRUZ DAS FLORES,-31.129535726828735,39.45321603100869
pt.ine.add.AC25.1701,PC MQ POMBAL,2,9970-314,SANTA CRUZ DAS FLORES,-31.129535726828735,39.45321603100869
pt.ine.add.AC25.1702,R S CATARINA,,9970-336,SANTA CRUZ DAS FLORES,-31.125499426600292,39.45378170502141
pt.ine.add.AC25.1703,R AREEIRO,,9970-243,SANTA CRUZ DAS FLORES,-31.150409298473797,39.46635279823468
pt.ine.add.AC25.1704,R AREEIRO,,9970-243,SANTA CRUZ DAS FLORES,-31.151726602702094,39.465770097224315
pt.ine.add.AC25.1705,R S PEDRO,,9970-324,SANTA CRUZ DAS FLORES,-31.135605325180393,39.46137721972493
pt.ine.add.AC25.1706,R MONTE,,9970-265,SANTA CRUZ DAS FLORES,-31.143787481748543,39.460084609570195
pt.ine.add.AC25.1707,R ESPERANÇA,,9970-320,SANTA CRUZ DAS FLORES,-31.130843667440626,39.459931285153246
pt.ine.add.AC25.1708,R HORTENSIAS,12,9970-306,SANTA CRUZ DAS FLORES,-31.128543609233507,39.46031773962902
pt.ine.add.AC25.1709,R HORTENSIAS,12,9970-306,SANTA CRUZ DAS FLORES,-31.128543609233507,39.46031773962902
pt.ine.add.AC25.1710,R PAU PICO,,9970-327,SANTA CRUZ DAS FLORES,-31.13624892675998,39.45772959373685
pt.ine.add.AC25.1711,R PAU PICO,,9970-327,SANTA CRUZ DAS FLORES,-31.134763084223756,39.457660716548894
pt.ine.add.AC25.1712,R NSA SRA DO ROSÁRIO,,9970-306,SANTA CRUZ DAS FLORES,-31.128075168669742,39.45914794554554
pt.ine.add.AC25.1738,R VENTO,,9970-093,PONTA DELGADA SCF,-31.212097532863975,39.51946626584323
pt.ine.add.AC25.1739,R SENADOR ANDRE DE FREITAS,,9970-096,PONTA DELGADA SCF,-31.207577966374515,39.514270124713775
pt.ine.add.AC25.1740,R SENADOR ANDRE DE FREITAS,,9970-096,PONTA DELGADA SCF,-31.20788403641325,39.51458117486436
pt.ine.add.AC25.1741,R QUARTEIRO,,9970-091,PONTA DELGADA SCF,-31.21240906087971,39.51502927057021
pt.ine.add.AC25.1744,ESTR REGIONAL,,9970-071,PONTA DELGADA SCF,-31.210197889880526,39.51914871520817
pt.ine.add.AC25.1745,R QUARTEIRO,,9970-091,PONTA DELGADA SCF,-31.211291352423927,39.51461564625014
pt.ine.add.AC25.1746,R PASSAL,,9970-087,PONTA DELGADA SCF,-31.207804390004053,39.513606897905305
pt.ine.add.AC25.1747,R LEVADA,,9970-077,PONTA DELGADA SCF,-31.21394943596111,39.51256627104577
pt.ine.add.AC25.1748,R CRUZ,,9970-073,PONTA DELGADA SCF,-31.20653706485363,39.51177639604493
pt.ine.add.AC25.1749,R CRISTINA MALHEIRO SERPA,4,9970-315,SANTA CRUZ DAS FLORES,-31.12897824804758,39.454504460411016
pt.ine.add.AC25.1750,R DR ARMAS DA SILVEIRA,10,9970-331,SANTA CRUZ DAS FLORES,-31.128029784614924,39.45173221911491
pt.ine.add.AC25.1751,R DR ARMAS DA SILVEIRA,10,9970-331,SANTA CRUZ DAS FLORES,-31.128029784614924,39.45173221911491
pt.ine.add.AC25.1752,R S CATARINA,6,9970-336,SANTA CRUZ DAS FLORES,-31.1262145732104,39.45354997065402
pt.ine.add.AC25.1753,R S CATARINA,,9970-336,SANTA CRUZ DAS FLORES,-31.125910121479123,39.45363516068095
pt.ine.add.AC25.1754,R STA CATARINA,,9970-336,SANTA CRUZ DAS FLORES,-31.127941061158378,39.452875024946486
pt.ine.add.AC25.1755,R DR ARMAS DA SILVEIRA,,9970-331,SANTA CRUZ DAS FLORES,-31.128515024293677,39.45183913777568
pt.ine.add.AC25.1756,R TERCA,,9970-322,SANTA CRUZ DAS FLORES,-31.132618027105345,39.44833725786802
pt.ine.add.AC25.1757,R TERCA,51,9970-215,SANTA CRUZ DAS FLORES,-31.13805842771484,39.44739739857373
pt.ine.add.AC25.1758,LAD CAIMBROS,,9970-310,SANTA CRUZ DAS FLORES,-31.149882533093972,39.47000236235637
pt.ine.add.AC25.1759,ESTR REGIONAL,,9970-310,SANTA CRUZ DAS FLORES,-31.144055885310397,39.46791834068399
pt.ine.add.AC25.1760,R BARREIRO,,9970-244,SANTA CRUZ DAS FLORES,-31.14624791127975,39.466791061346996
pt.ine.add.AC25.1761,R AREEIRO,,9970-243,SANTA CRUZ DAS FLORES,-31.151674645265246,39.46597649483284
pt.ine.add.AC25.1762,R AREEIRO,,9970-243,SANTA CRUZ DAS FLORES,-31.154652488950113,39.462816337248995
pt.ine.add.AC25.1763,R HORTENSIAS,5,9970-306,SANTA CRUZ DAS FLORES,-31.128905453394786,39.46026049581438
pt.ine.add.AC25.1764,R HORTENSIAS,5,9970-306,SANTA CRUZ DAS FLORES,-31.128905453394786,39.46026049581438
pt.ine.add.AC25.1765,R NSA SRA DO ROSÁRIO,,9970-306,SANTA CRUZ DAS FLORES,-31.127877218194524,39.459595243619304
pt.ine.add.AC25.1766,R NSA SRA DO ROSÁRIO,,9970-306,SANTA CRUZ DAS FLORES,-31.127877218194524,39.459595243619304
pt.ine.add.AC25.1767,R HORTENSIAS,20,9970-306,SANTA CRUZ DAS FLORES,-31.128715021614642,39.46086108130876
pt.ine.add.AC25.1768,R ESPERANÇA,51,9970-320,SANTA CRUZ DAS FLORES,-31.129975950961107,39.45761084480511
pt.ine.add.AC25.1769,R S PEDRO,,9970-324,SANTA CRUZ DAS FLORES,-31.134709893124274,39.45660572597393
pt.ine.add.AC25.1770,BR ANTIGO BR DOS FRANCESES,,9970-305,SANTA CRUZ DAS FLORES,-31.126570185773392,39.45502428499589
pt.ine.add.AC25.1771,BR ANTIGO BR DOS FRANCESES,,9970-305,SANTA CRUZ DAS FLORES,-31.126570185773392,39.45502428499589
pt.ine.add.AC25.1772,R ALM GAGO COUTINHO,2C,9970-315,SANTA CRUZ DAS FLORES,-31.12870776077584,39.455491175987184
pt.ine.add.AC25.1811,R IGREJA,,9970-010,CAVEIRA,-31.152164056385402,39.43164812352005
pt.ine.add.AC25.1812,R IGREJA,6,9970-010,CAVEIRA,-31.1530514258957,39.43148202578191
pt.ine.add.AC25.1813,LG ESPERANÇA,,9970-033,CEDROS SCF,-31.159307301804542,39.497883848463225
pt.ine.add.AC25.1814,R LOMBO,,9970-031,CEDROS SCF,-31.156987926189206,39.480467389066476
pt.ine.add.AC25.1815,ESTR REGIONAL,,9970-071,PONTA DELGADA SCF,-31.210197889880526,39.51914871520817
pt.ine.add.AC25.1816,R SEBES,,9970-082,PONTA DELGADA SCF,-31.210312400123097,39.51514115814012
pt.ine.add.AC25.1817,R ESTALEIRO,,9970-085,PONTA DELGADA SCF,-31.206193712712086,39.512915330578686
pt.ine.add.AC25.1818,R TERRA CHA,,9970-078,PONTA DELGADA SCF,-31.20866521814818,39.51496261619721
pt.ine.add.AC25.1819,R BOAVISTA,6,9970-275,SANTA CRUZ DAS FLORES,-31.14097951162851,39.44811086080146
pt.ine.add.AC25.1822,R D CRISTINA AIRES MALHEIRO SERPA,5,9970-328,SANTA CRUZ DAS FLORES,-31.129281012379558,39.454482303228765
pt.ine.add.AC25.1847,R NORTE,,9970-010,CAVEIRA,-31.14857466315705,39.4311855897282
pt.ine.add.AC25.1848,R MANUEL MARIA,,9970-033,CEDROS SCF,-31.15782385621193,39.49460784908033
pt.ine.add.AC25.1849,R ALAGOA,,9970-031,CEDROS SCF,-31.15146807619693,39.47641547198759
pt.ine.add.AC25.1850,R PORTO,,9970-090,PONTA DELGADA SCF,-31.2094751941152,39.51829968039361
pt.ine.add.AC25.1851,R SENADOR ANDRE DE FREITAS,,9970-096,PONTA DELGADA SCF,-31.20765704322506,39.51436144136227
pt.ine.add.AC25.1852,R TRAVESSA,,9970-079,PONTA DELGADA SCF,-31.210295017453547,39.51400566666659
pt.ine.add.AC25.1853,R CASAS DE CONCELHO,,9970-061,PONTA DELGADA SCF,-31.208489301963137,39.514112991780586
pt.ine.add.AC25.1854,R ALM GAGO COUTINHO,17,9970-315,SANTA CRUZ DAS FLORES,-31.12858258688588,39.45495758794772
pt.ine.add.AC25.1855,R CRISTINA MALHEIRO SERPA,,9970-315,SANTA CRUZ DAS FLORES,-31.12930260197422,39.454978185075305
pt.ine.add.AC25.1856,R D CRISTINA AIRES MALHEIRO SERPA,1,9970-328,SANTA CRUZ DAS FLORES,-31.129045978656237,39.45414516166128
pt.ine.add.AC25.1857,R SENADOR ANDRE DE FREITAS,11,9970-337,SANTA CRUZ DAS FLORES,-31.1282409610831,39.45339340741869
pt.ine.add.AC25.1858,R SENADOR ANDRE DE FREITAS,,9970-337,SANTA CRUZ DAS FLORES,-31.1276243071467,39.45341951704458
pt.ine.add.AC25.1859,R AREEIRO,,9970-243,SANTA CRUZ DAS FLORES,-31.151134210672705,39.46619314439666
pt.ine.add.AC25.1860,R AREEIRO,,9970-243,SANTA CRUZ DAS FLORES,-31.14973436676293,39.46681957351837
pt.ine.add.AC25.1861,R FAZENDA,51,9970-241,SANTA CRUZ DAS FLORES,-31.14957861828137,39.46655581267446
pt.ine.add.AC25.1862,R AREEIRO,,9970-243,SANTA CRUZ DAS FLORES,-31.159265817705503,39.46021358018634
pt.ine.add.AC25.1863,R MONTE,,9970-265,SANTA CRUZ DAS FLORES,-31.135370397342154,39.46190502516151
pt.ine.add.AC25.1864,R BELGUINHA,,9970-265,SANTA CRUZ DAS FLORES,-31.13769480669902,39.46322166196997
pt.ine.add.AC25.1866,R MONTE DE CIMA,,9970-265,SANTA CRUZ DAS FLORES,-31.140771349813345,39.46073917291503
pt.ine.add.AC25.1867,R PIMPILHAU,,9970-265,SANTA CRUZ DAS FLORES,-31.138985250505428,39.46146741205711
pt.ine.add.AC25.1868,R PIMPILHAU,,9970-265,SANTA CRUZ DAS FLORES,-31.139749465549816,39.45983086404821
pt.ine.add.AC25.1869,R PIMPILHAU,,9970-265,SANTA CRUZ DAS FLORES,-31.140167929410836,39.460702492231206
pt.ine.add.AC25.1875,R SENADOR ANDRE DE FREITAS,,9970-337,SANTA CRUZ DAS FLORES,-31.125927339282807,39.45429314743007
pt.ine.add.AC25.1876,FAJA DO CONDE,,9970-000,,-31.16013985836965,39.440261799906914
pt.ine.add.AC25.1877,R ZONA INDUSTRIAL DO BOQUEIRÃO,,9970-390,SANTA CRUZ DAS FLORES,-31.130378568945584,39.462978098066536
pt.ine.add.AC25.1878,R BOQUEIRÃO,,9970-390,SANTA CRUZ DAS FLORES,-31.131092297578956,39.462367904039894
pt.ine.add.AC25.1879,AV BALEEIROS,,9970-306,SANTA CRUZ DAS FLORES,-31.12782894795493,39.46139640792969
pt.ine.add.AC25.1880,R HORTENSIAS,,9970-306,SANTA CRUZ DAS FLORES,-31.12909109887245,39.46027249318766
pt.ine.add.AC25.1881,R S PEDRO,,9970-324,SANTA CRUZ DAS FLORES,-31.135200618177812,39.45999224246511
pt.ine.add.AC25.1986,R PORTO,,9970-090,PONTA DELGADA SCF,-31.209361180677746,39.51956829226693
pt.ine.add.AC25.1888,R BELGUINHA,,9970-265,SANTA CRUZ DAS FLORES,-31.137505217068327,39.462921304242585
pt.ine.add.AC25.1889,R NOSSA SENHORA DO ROSÁRIO,3,9970-306,SANTA CRUZ DAS FLORES,-31.128321831289465,39.45948527612703
pt.ine.add.AC25.1890,R HOSPITAL,,9970-303,SANTA CRUZ DAS FLORES,-31.12909026151368,39.45162315269541
pt.ine.add.AC25.1891,ESTR REGIONAL,,9970-310,SANTA CRUZ DAS FLORES,-31.133602427692995,39.45542569882826
pt.ine.add.AC25.1892,BR FRANCES,,9970-305,SANTA CRUZ DAS FLORES,-31.126388227775426,39.45574212993261
pt.ine.add.AC25.1893,R SENADOR ANDRE DE FREITAS,23,9970-337,SANTA CRUZ DAS FLORES,-31.126323763056217,39.454245478484424
pt.ine.add.AC25.1894,R ALM GAGO COUTINHO,,9970-315,SANTA CRUZ DAS FLORES,-31.128816696452983,39.4557632207702
pt.ine.add.AC25.1899,R CASAS DE CONCELHO,,9970-061,PONTA DELGADA SCF,-31.208359837196625,39.51462454957708
pt.ine.add.AC25.1901,FAROL DO ALBARNAZ,,9970-062,PONTA DELGADA SCF,-31.235703222685274,39.51982702231903
pt.ine.add.AC25.1902,R CANTO,,9970-245,SANTA CRUZ DAS FLORES,-31.1550847525264,39.46273310037495
pt.ine.add.AC25.1905,PC MARQUES DE POMBAL,,9970-314,SANTA CRUZ DAS FLORES,-31.129633436010884,39.452604941925074
pt.ine.add.AC25.1907,R PEDRAS BRANCAS,,9970-080,PONTA DELGADA SCF,-31.21047608930597,39.51646810622815
pt.ine.add.AC25.1911,R S PEDRO,,9970-324,SANTA CRUZ DAS FLORES,-31.13548938410126,39.46136635064823
pt.ine.add.AC25.1915,R JOSE PEREIRA BORGES,8,9970-010,CAVEIRA,-31.148715489242605,39.42937686790316
pt.ine.add.AC25.1916,R TERCA,,9970-322,SANTA CRUZ DAS FLORES,-31.134027572214794,39.44777425538562
pt.ine.add.AC25.1919,R POMAR,,9970-270,SANTA CRUZ DAS FLORES,-31.134081303245345,39.45490181176048
pt.ine.add.AC25.1921,R PEDRAS BRANCAS,,9970-062,PONTA DELGADA SCF,-31.20923300978761,39.515953424788734
pt.ine.add.AC25.1922,R BARREIRO,,9970-244,SANTA CRUZ DAS FLORES,-31.145281372563904,39.46685673273256
pt.ine.add.AC25.1926,R MANUEL MARIA,,9970-033,CEDROS SCF,-31.158759941318657,39.49438842926691
pt.ine.add.AC25.1927,R BECO DA ALFÂNDEGA,4,9970-337,SANTA CRUZ DAS FLORES,-31.125863721192054,39.454931811655484
pt.ine.add.AC25.1930,R SENADOR ANDRE DE FREITAS,16,9970-337,SANTA CRUZ DAS FLORES,-31.126350619217213,39.45411076555808
pt.ine.add.AC25.1933,R SENADOR ANDRE DE FREITAS,,9970-096,PONTA DELGADA SCF,-31.208102875331242,39.514665636547036
pt.ine.add.AC25.1934,ESTR REGIONAL,,9970-310,SANTA CRUZ DAS FLORES,-31.14459457504719,39.46820624053779
pt.ine.add.AC25.1938,AV DIOGO TEIVE,8,9970-301,SANTA CRUZ DAS FLORES,-31.125415209592635,39.45388846375606
pt.ine.add.AC25.1941,R BOAVISTA,,9970-215,SANTA CRUZ DAS FLORES,-31.1363995251234,39.447289733436605
pt.ine.add.AC25.1942,BR FRANCES,,9970-305,SANTA CRUZ DAS FLORES,-31.127800833470896,39.45463867157044
pt.ine.add.AC25.1943,R HORTENSIAS,13,9970-306,SANTA CRUZ DAS FLORES,-31.129077350881445,39.460785825374465
pt.ine.add.AC25.1947,R S CATARINA,,9970-336,SANTA CRUZ DAS FLORES,-31.125791537955568,39.45372334629848
pt.ine.add.AC25.1950,R FAZENDA,,9970-241,SANTA CRUZ DAS FLORES,-31.150993828422962,39.46622695063787
pt.ine.add.AC25.1952,R ESPERANÇA,,9970-320,SANTA CRUZ DAS FLORES,-31.130930775341902,39.45971645250432
pt.ine.add.AC25.1953,R BOAVISTA,,9970-275,SANTA CRUZ DAS FLORES,-31.1395112360112,39.44782609297035
pt.ine.add.AC25.1955,LAD HORTINHAS,,9970-311,SANTA CRUZ DAS FLORES,-31.135087967164655,39.459422823359354
pt.ine.add.AC25.1956,R ESPERANÇA,,9970-320,SANTA CRUZ DAS FLORES,-31.12972591131806,39.4573995993037
pt.ine.add.AC25.1957,R S CATARINA,23,9970-336,SANTA CRUZ DAS FLORES,-31.125893915324617,39.45380608404416
pt.ine.add.AC25.1958,AV BALEEIROS,,9970-306,SANTA CRUZ DAS FLORES,-31.12786180535998,39.46060408279518
pt.ine.add.AC25.1959,R DR ARMAS DA SILVEIRA,36,9970-331,SANTA CRUZ DAS FLORES,-31.126104346358805,39.45159308545309
pt.ine.add.AC25.1961,R CRUZ,,9970-073,PONTA DELGADA SCF,-31.206634481594453,39.511606714719754
pt.ine.add.AC25.1962,,,9970-390,SANTA CRUZ DAS FLORES,-31.130135982824235,39.46248767240077
pt.ine.add.AC25.1965,R BOAVISTA,,9970-275,SANTA CRUZ DAS FLORES,-31.13842599097341,39.446250037739915
pt.ine.add.AC25.1967,R S PAULO,2,9970-333,SANTA CRUZ DAS FLORES,-31.13361893217846,39.45872352078091
pt.ine.add.AC25.1969,R S PEDRO,,9970-324,SANTA CRUZ DAS FLORES,-31.134866988212178,39.45942828817026
pt.ine.add.AC25.1971,R ESTALEIRO,,9970-085,PONTA DELGADA SCF,-31.20609814655883,39.51301296235595
pt.ine.add.AC25.1974,R TRAVESSA,,9970-079,PONTA DELGADA SCF,-31.210411753679086,39.51398944482226
pt.ine.add.AC25.1975,R AREEIRO,,9970-243,SANTA CRUZ DAS FLORES,-31.15190464263479,39.46607024853083
pt.ine.add.AC25.1976,R CMDT SOUTT CRUZ,1,9970-316,SANTA CRUZ DAS FLORES,-31.129867792003278,39.4534015671983
pt.ine.add.AC25.1979,R LEVADA,,9970-077,PONTA DELGADA SCF,-31.213084465049764,39.51182318812181
pt.ine.add.AC25.1980,R BOAVISTA,,9970-275,SANTA CRUZ DAS FLORES,-31.13972330878146,39.44815383681246
pt.ine.add.AC25.1981,R CMDT SOUTT CRUZ,51,9970-316,SANTA CRUZ DAS FLORES,-31.12956578531442,39.45600051744033
pt.ine.add.AC25.1983,R VALES,,9970-380,SANTA CRUZ DAS FLORES,-31.145472141878056,39.452227979597104
pt.ine.add.AC25.1985,R S PEDRO,,9970-324,SANTA CRUZ DAS FLORES,-31.135235637960687,39.45693850968453
pt.ine.add.AC25.1987,R TERCA,,9970-322,SANTA CRUZ DAS FLORES,-31.134799587007123,39.44802089573386
pt.ine.add.AC25.1988,R ESPERANÇA,16,9970-320,SANTA CRUZ DAS FLORES,-31.130076887993685,39.459918954755786
pt.ine.add.AC25.1991,R STA CATARINA,3,9970-336,SANTA CRUZ DAS FLORES,-31.12814119849932,39.45277914041278
pt.ine.add.AC25.1993,R POMAR,3,9970-270,SANTA CRUZ DAS FLORES,-31.13439616618938,39.45486181597337
pt.ine.add.AC25.1997,R S PEDRO,,9970-324,SANTA CRUZ DAS FLORES,-31.132706592418682,39.45633030569993
pt.ine.add.AC25.1998,R CMDT SOUTT CRUZ,5C,9970-316,SANTA CRUZ DAS FLORES,-31.12897600160131,39.45632438694551
pt.ine.add.AC25.2002,R FONTE MOLEIRO,,9970-094,PONTA DELGADA SCF,-31.20767604803636,39.511811985881636
pt.ine.add.AC25.2003,BR ANTIGO BR DOS FRANCESES,,9970-305,SANTA CRUZ DAS FLORES,-31.12738358792171,39.454595913019475
pt.ine.add.AC25.2004,R CANTO,,9970-084,PONTA DELGADA SCF,-31.20623409482311,39.51451067251738
pt.ine.add.AC25.2008,R S PEDRO,,9970-324,SANTA CRUZ DAS FLORES,-31.13321542251946,39.45381575505595
pt.ine.add.AC25.2009,R POMAR,1,9970-270,SANTA CRUZ DAS FLORES,-31.13298015568942,39.45522650355861
pt.ine.add.AC25.2010,R BOAVISTA,,9970-215,SANTA CRUZ DAS FLORES,-31.138329291494564,39.447699057178156
pt.ine.add.AC25.2011,R ALM GAGO COUTINHO,11,9970-315,SANTA CRUZ DAS FLORES,-31.128426944089473,39.454693800777214
pt.ine.add.AC25.2012,R ROBERTO MESQUITA,5,9970-335,SANTA CRUZ DAS FLORES,-31.128495005007085,39.45258662231038
pt.ine.add.AC25.2013,MTE CIMA,,9970-265,SANTA CRUZ DAS FLORES,-31.139368754722106,39.46190601684493
pt.ine.add.AC25.2014,TV ESTRELA,17,9970-304,SANTA CRUZ DAS FLORES,-31.128962457645944,39.459000053780926
pt.ine.add.AC25.2016,R FR DIOGO DAS CHAGAS,4,9970-334,SANTA CRUZ DAS FLORES,-31.12964466256436,39.45348807510904
pt.ine.add.AC25.2017,R PIMPILHAU,,9970-265,SANTA CRUZ DAS FLORES,-31.139403806391616,39.45971721606602
pt.ine.add.AC25.2019,R QUARTEIRO,,9970-091,PONTA DELGADA SCF,-31.21141201691746,39.514446318731935
pt.ine.add.AC25.2020,R BOAVISTA,,9970-215,SANTA CRUZ DAS FLORES,-31.13778694417849,39.44755522596594
pt.ine.add.AC25.2021,BR ANTIGO BR DOS FRANCESES,,9970-305,SANTA CRUZ DAS FLORES,-31.12725387029867,39.45466590135359
pt.ine.add.AC25.2023,R SENADOR ANDRE FREITAS,14A,9970-337,SANTA CRUZ DAS FLORES,-31.126823744362138,39.453803049181104
pt.ine.add.AC25.2026,R FLORES,,9970-323,SANTA CRUZ DAS FLORES,-31.13136217476504,39.44923607316019
pt.ine.add.AC25.2028,MTE CRUZES,,9970-380,SANTA CRUZ DAS FLORES,-31.135955535462426,39.45130095655022
pt.ine.add.AC25.2032,R STA CATARINA,10,9970-336,SANTA CRUZ DAS FLORES,-31.1257460369804,39.453686573939635
pt.ine.add.AC25.2035,R SEBES,,9970-082,PONTA DELGADA SCF,-31.210776116785617,39.51520235632625
pt.ine.add.AC25.2039,R SEBES,,9970-082,PONTA DELGADA SCF,-31.210186577429955,39.51505813310431
pt.ine.add.AC25.2041,R MONTE,,9970-265,SANTA CRUZ DAS FLORES,-31.135555968201928,39.461484544768325
pt.ine.add.AC25.2042,R PIMPILHAU,,9970-265,SANTA CRUZ DAS FLORES,-31.13856411622607,39.46156878657467
pt.ine.add.AC25.2045,R DR ARMAS DA SILVEIRA,18,9970-331,SANTA CRUZ DAS FLORES,-31.127192190627976,39.4517637787651
pt.ine.add.AC25.2046,AV BALEEIROS,,9970-306,SANTA CRUZ DAS FLORES,-31.12830970469841,39.46210690596559
pt.ine.add.AC25.2047,R JOSE PEREIRA BORGES,16,9970-010,CAVEIRA,-31.14711656551988,39.42877477613696
pt.ine.add.AC25.2048,TV GRAÇA,,9970-304,SANTA CRUZ DAS FLORES,-31.127932102095514,39.45884832147448
pt.ine.add.AC25.2050,R ESPERANÇA,2,9970-320,SANTA CRUZ DAS FLORES,-31.12926257503741,39.45647315390384
pt.ine.add.AC25.2055,ESTR REGIONAL,,9970-310,SANTA CRUZ DAS FLORES,-31.143812249688146,39.46833790741126
pt.ine.add.AC25.2058,R FLORES,22,9970-323,SANTA CRUZ DAS FLORES,-31.131782761913023,39.4491527347325
pt.ine.add.AC25.2059,R HORTENSIAS,1,9970-306,SANTA CRUZ DAS FLORES,-31.128865977053536,39.459998578889504
pt.ine.add.AC25.2060,TV GRAÇA,,9970-304,SANTA CRUZ DAS FLORES,-31.127041105870777,39.45783389303335
pt.ine.add.AC25.2063,R S PEDRO,,9970-324,SANTA CRUZ DAS FLORES,-31.133565929586084,39.45722705682529
pt.ine.add.AC25.2067,R ESTALEIRO,,9970-085,PONTA DELGADA SCF,-31.206329995567916,39.513043569895245
pt.ine.add.AC25.2070,R SILVAS,,9970-330,SANTA CRUZ DAS FLORES,-31.140381357977162,39.447443584524365
pt.ine.add.AC25.2071,R PIMPILHAU,,9970-265,SANTA CRUZ DAS FLORES,-31.13947430872503,39.46099772456418
pt.ine.add.AC25.2072,R CRISTINA MALHEIRO SERPA,6,9970-315,SANTA CRUZ DAS FLORES,-31.129112828809372,39.45468682048293
pt.ine.add.AC25.2073,R FAZENDA SN,SN,9970-241,SANTA CRUZ DAS FLORES,-31.149840441266765,39.46632572703012
pt.ine.add.AC25.2074,R SENADOR ANDRÉ DE FREITAS,6,9970-337,SANTA CRUZ DAS FLORES,-31.12841010875854,39.45315286802639
pt.ine.add.AC25.2078,R FLORES,33,9970-323,SANTA CRUZ DAS FLORES,-31.13160870218926,39.44870846110615
pt.ine.add.AC25.2085,R ESPIGAO,51,9970-246,SANTA CRUZ DAS FLORES,-31.159389829158613,39.45991822215877
pt.ine.add.AC25.2088,R LUGAR DA FAZENDA,,9970-248,SANTA CRUZ DAS FLORES,-31.14686769715975,39.46708925353003
pt.ine.add.AC25.2090,ESTR REGIONAL,,9970-071,PONTA DELGADA SCF,-31.209971464269653,39.513469110666435
pt.ine.add.AC25.2091,R PASSAL,,9970-087,PONTA DELGADA SCF,-31.20883806422416,39.51366788172245
pt.ine.add.AC25.2092,R PASSAL,,9970-087,PONTA DELGADA SCF,-31.207590005187438,39.5138018054188
pt.ine.add.AC25.2093,R BARREIRO,,9970-244,SANTA CRUZ DAS FLORES,-31.145902350093415,39.467109900464315
pt.ine.add.AC25.2094,R ESCADINHA,,9970-070,PONTA DELGADA SCF,-31.2092550723468,39.51237690897827
pt.ine.add.AC25.2095,R ESCADINHA,,9970-070,PONTA DELGADA SCF,-31.208940446329517,39.512399089950165
pt.ine.add.AC25.2097,R AREEIRO,,9970-243,SANTA CRUZ DAS FLORES,-31.156320117299355,39.4626085422112
pt.ine.add.AC25.2098,R AREEIRO,,9970-243,SANTA CRUZ DAS FLORES,-31.156427745428335,39.46293459937302
pt.ine.add.AC25.2100,TV ROCHÃO,5,9970-010,CAVEIRA,-31.1493745453074,39.43125238112662
pt.ine.add.AC25.2101,TV ROCHÃO,1,9970-010,CAVEIRA,-31.149515031560853,39.431651046743845
pt.ine.add.AC25.2102,R MIRADOURO,,9970-031,CEDROS SCF,-31.151830568636306,39.480727875459024
pt.ine.add.AC25.2103,R LOMBO,8,9970-031,CEDROS SCF,-31.158277671532364,39.4804968400276
pt.ine.add.AC25.2107,R AREEIRO,,9970-243,SANTA CRUZ DAS FLORES,-31.155078805975812,39.46295824930279
pt.ine.add.AC25.2109,R S PEDRO,,9970-033,CEDROS SCF,-31.158006218625083,39.49562883411545
pt.ine.add.AC25.2110,R S PEDRO,,9970-033,CEDROS SCF,-31.158020669465348,39.49596242160688
pt.ine.add.AC25.2111,R SENADOR ANDRE DE FREITAS,,9970-096,PONTA DELGADA SCF,-31.20783423258356,39.51425605729951
pt.ine.add.AC25.2115,R CASAS DE CONCELHO,,9970-061,PONTA DELGADA SCF,-31.20847975716841,39.514031757245
pt.ine.add.AC25.2116,LAD ESPIRITO SANTO,,9970-240,SANTA CRUZ DAS FLORES,-31.14881048711005,39.467030108748155
pt.ine.add.AC25.2117,R LOMBO,,9970-031,CEDROS SCF,-31.157395152850633,39.480455825353694
pt.ine.add.AC25.2118,R QUARTEIRO,,9970-091,PONTA DELGADA SCF,-31.21110831628218,39.51449570278448
pt.ine.add.AC25.2120,TV ROCHÃO,,9970-010,CAVEIRA,-31.149851879248004,39.431214928006256
pt.ine.add.AC25.2121,R CASAS DE CONCELHO,,9970-061,PONTA DELGADA SCF,-31.20845141150934,39.514229533952374
pt.ine.add.AC25.2123,R LEVADA,,9970-077,PONTA DELGADA SCF,-31.2118802700512,39.51387690227533
pt.ine.add.AC25.2125,R TRAVESSA,,9970-250,SANTA CRUZ DAS FLORES,-31.145788595239445,39.46789193148154
pt.ine.add.AC25.2170,R SANTO ESPÍRITO,,9970-285,SANTA CRUZ DAS FLORES,-31.13991653528227,39.44482332459254
pt.ine.add.AC25.2171,R SANTO ESPÍRITO,,9970-285,SANTA CRUZ DAS FLORES,-31.13991653528227,39.44482332459254
pt.ine.add.AC25.2172,R SANTO ESPÍRITO,,9970-285,SANTA CRUZ DAS FLORES,-31.139945022387646,39.44549951092605
pt.ine.add.AC25.2173,R SANTO ESPÍRITO,,9970-285,SANTA CRUZ DAS FLORES,-31.13950422037809,39.44590690638146
pt.ine.add.AC25.2174,R SANTO ESPÍRITO,,9970-285,SANTA CRUZ DAS FLORES,-31.13945488119153,39.446014233752706
pt.ine.add.AC25.2175,R SANTO ESPÍRITO,,9970-285,SANTA CRUZ DAS FLORES,-31.139573085582995,39.44550256998717
pt.ine.add.AC25.2176,R SANTO ESPÍRITO,,9970-285,SANTA CRUZ DAS FLORES,-31.139770789362274,39.44549672349079
pt.ine.add.AC25.2177,R SANTO ESPÍRITO,,9970-285,SANTA CRUZ DAS FLORES,-31.141250274018514,39.44535820908534
pt.ine.add.AC25.2178,R SANTO ESPÍRITO,,9970-285,SANTA CRUZ DAS FLORES,-31.141053289219958,39.44533704037204
pt.ine.add.AC25.2179,R SANTO ESPÍRITO,,9970-285,SANTA CRUZ DAS FLORES,-31.14084420994661,39.44533369742204
pt.ine.add.AC25.2180,R SANTO ESPÍRITO,,9970-285,SANTA CRUZ DAS FLORES,-31.141982291454436,39.445360899300766
pt.ine.add.AC25.2181,R SANTO ESPÍRITO,,9970-285,SANTA CRUZ DAS FLORES,-31.141268116357562,39.445124241008656
pt.ine.add.AC25.2182,R SANTO ESPÍRITO,,9970-285,SANTA CRUZ DAS FLORES,-31.140847446293684,39.44477514513675
pt.ine.add.AC25.2316,R S PEDRO,,9970-083,PONTA DELGADA SCF,-31.20697144034164,39.513882361096194
pt.ine.add.AC25.2183,R SANTO ESPÍRITO,,9970-285,SANTA CRUZ DAS FLORES,-31.14209520971542,39.445047362658975
pt.ine.add.AC25.2184,R SANTO ESPÍRITO,,9970-285,SANTA CRUZ DAS FLORES,-31.141467734762223,39.445046344277515
pt.ine.add.AC25.2185,R SANTO ESPÍRITO,,9970-285,SANTA CRUZ DAS FLORES,-31.14164280733739,39.44545458101294
pt.ine.add.AC25.2186,R SANTO ESPÍRITO,,9970-285,SANTA CRUZ DAS FLORES,-31.141857872514716,39.44523277461308
pt.ine.add.AC25.2187,LAD ESPÍRITO SANTO,,9970-240,SANTA CRUZ DAS FLORES,-31.148567439449547,39.46699019942882
pt.ine.add.AC25.2188,LAD ESPÍRITO SANTO,,9970-240,SANTA CRUZ DAS FLORES,-31.14873368849107,39.46685770113772
pt.ine.add.AC25.2189,LAD ESPÍRITO SANTO,,9970-240,SANTA CRUZ DAS FLORES,-31.149026076529807,39.466790279057406
pt.ine.add.AC25.2190,LAD ESPÍRITO SANTO,,9970-240,SANTA CRUZ DAS FLORES,-31.14895278143912,39.466924257855034
pt.ine.add.AC25.2202,R SANTO ESPÍRITO,,9970-285,SANTA CRUZ DAS FLORES,-31.135092865666937,39.44661107199987
pt.ine.add.AC25.2203,R SANTO ESPÍRITO,,9970-285,SANTA CRUZ DAS FLORES,-31.137926997964808,39.44622402795406
pt.ine.add.AC25.2204,R SANTO ESPÍRITO,,9970-285,SANTA CRUZ DAS FLORES,-31.137137468536835,39.44663483858062
pt.ine.add.AC25.2205,R SANTO ESPÍRITO,,9970-285,SANTA CRUZ DAS FLORES,-31.13518178803488,39.447198130959464
pt.ine.add.AC25.2206,R SANTO ESPÍRITO,,9970-285,SANTA CRUZ DAS FLORES,-31.134641933613295,39.44739669498047
pt.ine.add.AC25.2207,R SANTO ESPÍRITO,,9970-285,SANTA CRUZ DAS FLORES,-31.135234979182783,39.44694671151201
pt.ine.add.AC25.2208,R SANTO ESPÍRITO,,9970-285,SANTA CRUZ DAS FLORES,-31.136956898559575,39.4464337311702
pt.ine.add.AC25.2209,R PADRE JOSE MARIA ÁLVARES,,9970-031,CEDROS SCF,-31.154125954017502,39.48053910454677
pt.ine.add.AC25.2210,R PADRE JOSE MARIA ÁLVARES,,9970-031,CEDROS SCF,-31.15289336548339,39.48054655453606
pt.ine.add.AC25.2211,R PADRE JOSE MARIA ÁLVARES,,9970-031,CEDROS SCF,-31.15289336548339,39.48054655453606
pt.ine.add.AC25.2212,R PADRE JOSE MARIA ÁLVARES,,9970-031,CEDROS SCF,-31.153640949552997,39.480414275849405
pt.ine.add.AC25.2213,R PADRE JOSE MARIA ÁLVARES,,9970-031,CEDROS SCF,-31.155761011398763,39.480700202149904
pt.ine.add.AC25.2214,R PADRE JOSE MARIA ÁLVARES,,9970-031,CEDROS SCF,-31.156407871092753,39.48086145299935
pt.ine.add.AC25.2215,R SANTO ESPÍRITO,,9970-285,SANTA CRUZ DAS FLORES,-31.138671358670717,39.44619990756291
pt.ine.add.AC25.2216,R SANTO ESPÍRITO,,9970-285,SANTA CRUZ DAS FLORES,-31.139054914759882,39.44619703738894
pt.ine.add.AC25.2218,R PADRE JOSE MARIA ÁLVARES,,9970-031,CEDROS SCF,-31.154633294889045,39.480258849014014
pt.ine.add.AC25.2219,R PADRE JOSE MARIA ÁLVARES,,9970-031,CEDROS SCF,-31.154516842693308,39.48026601000058
pt.ine.add.AC25.2220,R PADRE JOSE MARIA ÁLVARES,,9970-031,CEDROS SCF,-31.15408518354517,39.480322224183595
pt.ine.add.AC25.2221,R PADRE JOSE MARIA ÁLVARES,,9970-031,CEDROS SCF,-31.152923280481147,39.48029475813253
pt.ine.add.AC25.2222,R PADRE JOSE MARIA ÁLVARES,,9970-031,CEDROS SCF,-31.15273805292285,39.480264785680774
pt.ine.add.AC25.2223,R SANTO ESPÍRITO,,9970-285,SANTA CRUZ DAS FLORES,-31.139588994865033,39.446214594015736
pt.ine.add.AC25.2224,R SANTO ESPÍRITO,,9970-285,SANTA CRUZ DAS FLORES,-31.1399008285806,39.44585018381068
pt.ine.add.AC25.2225,R SANTO ESPÍRITO,,9970-285,SANTA CRUZ DAS FLORES,-31.14001578622786,39.44589707154724
pt.ine.add.AC25.2226,R BOAVISTA,,9970-285,SANTA CRUZ DAS FLORES,-31.1406062477152,39.44772648309849
pt.ine.add.AC25.2227,R SANTO ESPÍRITO,,9970-285,SANTA CRUZ DAS FLORES,-31.14077020482067,39.4454946894248
pt.ine.add.AC25.2228,R SANTO ESPÍRITO,,9970-285,SANTA CRUZ DAS FLORES,-31.14118788533704,39.44551938706438
pt.ine.add.AC25.2229,R BOAVISTA,,9970-285,SANTA CRUZ DAS FLORES,-31.14143121710135,39.447730663437824
pt.ine.add.AC25.2230,R BOAVISTA,,9970-285,SANTA CRUZ DAS FLORES,-31.1407143846822,39.447593066306325
pt.ine.add.AC25.2231,R BOAVISTA,,9970-285,SANTA CRUZ DAS FLORES,-31.140272262065714,39.447613024621695
pt.ine.add.AC25.2233,R ESPÍRITO SANTO,,9970-285,SANTA CRUZ DAS FLORES,-31.138710042880756,39.446056371014905
pt.ine.add.AC25.2234,R SANTO ESPÍRITO,,9970-285,SANTA CRUZ DAS FLORES,-31.141682921647302,39.445257007807456
pt.ine.add.AC25.2235,LAD ESPÍRITO SANTO,,9970-240,SANTA CRUZ DAS FLORES,-31.148807145218957,39.46715619160896
pt.ine.add.AC25.2236,LAD ESPÍRITO SANTO,,9970-240,SANTA CRUZ DAS FLORES,-31.148258497562715,39.466805084526285
pt.ine.add.AC25.2240,R PADRE JOSE MARIA ÁLVARES,,9970-031,CEDROS SCF,-31.156275990279052,39.481012542590705
pt.ine.add.AC25.2241,R SANTO ESPÍRITO,,9970-285,SANTA CRUZ DAS FLORES,-31.13812446390915,39.446227190206265
pt.ine.add.AC25.2242,R SANTO ESPÍRITO,,9970-285,SANTA CRUZ DAS FLORES,-31.137575169050418,39.4463445292016
pt.ine.add.AC25.2243,R SANTO ESPÍRITO,,9970-285,SANTA CRUZ DAS FLORES,-31.142279759774045,39.446410782627666
pt.ine.add.AC25.2244,R BOAVISTA,,9970-285,SANTA CRUZ DAS FLORES,-31.14089820539959,39.447235616099704
pt.ine.add.AC25.2245,R SANTO ESPÍRITO,,9970-285,SANTA CRUZ DAS FLORES,-31.14253300791269,39.44518950357845
pt.ine.add.AC25.2246,R SANTO ESPÍRITO,,9970-285,SANTA CRUZ DAS FLORES,-31.13595491539672,39.44696726554271
pt.ine.add.AC25.2247,R SANTO ESPÍRITO,,9970-285,SANTA CRUZ DAS FLORES,-31.13443332972581,39.447375328608764
pt.ine.add.AC25.2248,R BOAVISTA,,9970-285,SANTA CRUZ DAS FLORES,-31.14065559486199,39.44674521067438
pt.ine.add.AC25.2249,R SANTO ESPÍRITO,,9970-285,SANTA CRUZ DAS FLORES,-31.140471555162552,39.4453637771118
pt.ine.add.AC25.2252,R PADRE JOSE MARIA ÁLVARES,,9970-031,CEDROS SCF,-31.153512637389777,39.480430257154495
pt.ine.add.AC25.2254,R BOAVISTA,,9970-285,SANTA CRUZ DAS FLORES,-31.14066002307727,39.44701557368114
pt.ine.add.AC25.2255,R SANTO ESPÍRITO,,9970-285,SANTA CRUZ DAS FLORES,-31.139246759120688,39.44597486427153
pt.ine.add.AC25.2256,LAD ESPÍRITO SANTO,,9970-240,SANTA CRUZ DAS FLORES,-31.14829995991817,39.46699494905236
pt.ine.add.AC25.2260,R PADRE JOSE MARIA ÁLVARES,,9970-031,CEDROS SCF,-31.15434133099635,39.48030827200251
pt.ine.add.AC25.2261,R BOAVISTA,,9970-285,SANTA CRUZ DAS FLORES,-31.143613250007043,39.44520675570675
pt.ine.add.AC25.2262,R BOAVISTA,,9970-285,SANTA CRUZ DAS FLORES,-31.143613250007043,39.44520675570675
pt.ine.add.AC25.2263,R BOAVISTA,,9970-285,SANTA CRUZ DAS FLORES,-31.143426923410136,39.44522180016305
pt.ine.add.AC25.2264,LAD ESPÍRITO SANTO,,9970-240,SANTA CRUZ DAS FLORES,-31.148488731512114,39.46688983901084
pt.ine.add.AC25.2265,R PADRE JOSE MARIA ÁLVARES,,9970-031,CEDROS SCF,-31.15394358311664,39.48040106289795
pt.ine.add.AC25.2266,R PADRE JOSE MARIA ÁLVARES,,9970-031,CEDROS SCF,-31.154784611300343,39.480252241334746
pt.ine.add.AC25.2267,R SANTO ESPÍRITO,,9970-285,SANTA CRUZ DAS FLORES,-31.139967406492204,39.445968375529546
pt.ine.add.AC25.2270,R BOAVISTA,,9970-285,SANTA CRUZ DAS FLORES,-31.140432009074672,39.447723696523184
pt.ine.add.AC25.2272,R BOAVISTA,,9970-285,SANTA CRUZ DAS FLORES,-31.14218086025366,39.44750839083252
pt.ine.add.AC25.2273,R ESPÍRITO SANTO,,9970-285,SANTA CRUZ DAS FLORES,-31.13860598198816,39.446036685657035
pt.ine.add.AC25.2274,R SANTO ESPÍRITO,,9970-285,SANTA CRUZ DAS FLORES,-31.139802999444253,39.44559634596592
pt.ine.add.AC25.2275,R SANTO ESPÍRITO,,9970-285,SANTA CRUZ DAS FLORES,-31.140252777357215,39.445288200055586
pt.ine.add.AC25.2276,R SANTO ESPÍRITO,,9970-285,SANTA CRUZ DAS FLORES,-31.140790683911177,39.44516165643756
pt.ine.add.AC25.2277,R SANTO ESPÍRITO,,9970-285,SANTA CRUZ DAS FLORES,-31.141265481943414,39.445223306064555
pt.ine.add.AC25.2278,LAD ESPÍRITO SANTO,,9970-240,SANTA CRUZ DAS FLORES,-31.14801449581641,39.4668011977373
pt.ine.add.AC25.2284,LAD ESPÍRITO SANTO,,9970-240,SANTA CRUZ DAS FLORES,-31.148022294053582,39.46694547747368
pt.ine.add.AC25.2285,R SANTO ESPÍRITO,,9970-285,SANTA CRUZ DAS FLORES,-31.136504517663802,39.44596698505036
pt.ine.add.AC25.2286,R SANTO ESPÍRITO,,9970-285,SANTA CRUZ DAS FLORES,-31.139195527291612,39.44528029438171
pt.ine.add.AC25.2287,R SANTO ESPÍRITO,,9970-285,SANTA CRUZ DAS FLORES,-31.139903593316543,39.445309643592076
pt.ine.add.AC25.2288,R SANTO ESPÍRITO,,9970-285,SANTA CRUZ DAS FLORES,-31.141458874475155,39.44537956313681
pt.ine.add.AC25.2289,R SANTO ESPÍRITO,,9970-285,SANTA CRUZ DAS FLORES,-31.1402958847094,39.44541502592651
pt.ine.add.AC25.2290,R SANTO ESPÍRITO,,9970-285,SANTA CRUZ DAS FLORES,-31.141417920273266,39.44517168441306
pt.ine.add.AC25.2292,R BOAVISTA,,9970-285,SANTA CRUZ DAS FLORES,-31.143426923410136,39.44522180016305
pt.ine.add.AC25.2294,R SANTO ESPÍRITO,,9970-285,SANTA CRUZ DAS FLORES,-31.13937165391843,39.446084979850305
pt.ine.add.AC25.2295,R SANTO ESPÍRITO,,9970-285,SANTA CRUZ DAS FLORES,-31.139522548207626,39.4456549269267
pt.ine.add.AC25.2296,R SANTO ESPÍRITO,,9970-285,SANTA CRUZ DAS FLORES,-31.13538189936141,39.4471022332467
pt.ine.add.AC25.2297,R PADRE JOSE MARIA ÁLVARES,,9970-031,CEDROS SCF,-31.15308169136437,39.48045944980439
pt.ine.add.AC25.2298,R PADRE JOSE MARIA ÁLVARES,,9970-031,CEDROS SCF,-31.152437564996696,39.48019694225162
pt.ine.add.AC25.2299,R SANTO ESPÍRITO,,9970-285,SANTA CRUZ DAS FLORES,-31.14159550494526,39.44504838653873
pt.ine.add.AC25.2300,R SANTO ESPÍRITO,,9970-285,SANTA CRUZ DAS FLORES,-31.141849608852933,39.44510650614414
pt.ine.add.AC25.2301,R SANTO ESPÍRITO,,9970-285,SANTA CRUZ DAS FLORES,-31.13960193943491,39.44572827517901
pt.ine.add.AC25.2303,R SANTO ESPÍRITO,,9970-285,SANTA CRUZ DAS FLORES,-31.14034917007317,39.44559607301627
pt.ine.add.AC25.2304,R SANTO ESPÍRITO,,9970-285,SANTA CRUZ DAS FLORES,-31.13973677210715,39.44590161756314
pt.ine.add.AC25.2305,R SANTO ESPÍRITO,,9970-285,SANTA CRUZ DAS FLORES,-31.13971510863821,39.445405735229734
pt.ine.add.AC25.2306,R SANTO ESPÍRITO,,9970-285,SANTA CRUZ DAS FLORES,-31.135234979182783,39.44694671151201
pt.ine.add.AC25.2307,R PADRE JOSE MARIA ÁLVARES,,9970-031,CEDROS SCF,-31.153221625094954,39.4804436536094
pt.ine.add.AC25.2308,R SANTO ESPÍRITO,,9970-285,SANTA CRUZ DAS FLORES,-31.138253195564374,39.446193212602374
pt.ine.add.AC25.2309,R CRISTINA MALHEIRO SERPA,8,9970-315,SANTA CRUZ DAS FLORES,-31.12921352370619,39.45483259627937
pt.ine.add.AC25.2310,R SENADOR ANDRÉ DE FREITAS,,9970-337,SANTA CRUZ DAS FLORES,-31.126531874894795,39.45385240468498
pt.ine.add.AC25.2312,R VENTO,,9970-093,PONTA DELGADA SCF,-31.212595554824894,39.52000549919827
pt.ine.add.AC25.2313,R PORTO,,9970-090,PONTA DELGADA SCF,-31.210109615982127,39.51669671519373
pt.ine.add.AC25.2318,R TRAVESSA,,9970-079,PONTA DELGADA SCF,-31.210387643950178,39.514475598087834
pt.ine.add.AC25.2319,R TRAVESSA,,9970-250,SANTA CRUZ DAS FLORES,-31.14552015576397,39.46793269822542
pt.ine.add.AC25.2322,R FAZENDA SN,SN,9970-241,SANTA CRUZ DAS FLORES,-31.149840441266765,39.46632572703012
pt.ine.add.AC25.2324,R CANADINHAS,,9970-086,PONTA DELGADA SCF,-31.208866690605387,39.512100632720916
pt.ine.add.AC25.2328,R MONTE,,9970-265,SANTA CRUZ DAS FLORES,-31.13697482604747,39.46145323213076
pt.ine.add.AC25.2329,R SENADOR ANDRE DE FREITAS,16,9970-337,SANTA CRUZ DAS FLORES,-31.126350619217213,39.45411076555808
pt.ine.add.AC25.2332,AV DIOGO TEIVE,16,9970-301,SANTA CRUZ DAS FLORES,-31.125482957722465,39.453529167469654
pt.ine.add.AC25.2334,R S PEDRO,,9970-324,SANTA CRUZ DAS FLORES,-31.135641214842234,39.45916140509333
pt.ine.add.AC25.2335,R JOSE PEREIRA BORGES,S N,9970-010,CAVEIRA,-31.149308809745857,39.430224221063966
pt.ine.add.AC25.2337,R FLORES,,9970-323,SANTA CRUZ DAS FLORES,-31.13286581188001,39.44819708157818
pt.ine.add.AC25.2339,R BOAVISTA,,9970-215,SANTA CRUZ DAS FLORES,-31.139197712588203,39.448253543047386
pt.ine.add.AC25.2341,R LOMBO,,9970-031,CEDROS SCF,-31.15800327119881,39.48032130774581
pt.ine.add.AC25.2343,R HOSPITAL,,9970-303,SANTA CRUZ DAS FLORES,-31.128750166724267,39.450869872597245
pt.ine.add.AC25.2344,R NSA SRA DO ROSÁRIO,,9970-306,SANTA CRUZ DAS FLORES,-31.129803995626265,39.45882439011392
pt.ine.add.AC25.2347,BR NSA SRA FATIMA,,9970-304,SANTA CRUZ DAS FLORES,-31.12887188822313,39.458476032891724
pt.ine.add.AC25.2349,R HORTENSIAS,19,9970-306,SANTA CRUZ DAS FLORES,-31.129477711329802,39.46102652002631
pt.ine.add.AC25.2352,LG FARROPO,,9970-265,SANTA CRUZ DAS FLORES,-31.134958469428444,39.462096631326524
pt.ine.add.AC25.2353,R CMDT SOUTT CRUZ,5 D,9970-316,SANTA CRUZ DAS FLORES,-31.12908128043514,39.45629905202029
pt.ine.add.AC25.2354,R RIBEIRINHHA,,9970-031,CEDROS SCF,-31.15458600645279,39.48116807865372
pt.ine.add.AC25.2357,R LEVADA,,9970-077,PONTA DELGADA SCF,-31.212112817683845,39.51388047990693
pt.ine.add.AC25.2358,R BECO DA ALFÂNDEGA,3,9970-337,SANTA CRUZ DAS FLORES,-31.125923014003178,39.45488771885816
pt.ine.add.AC25.2359,R S CATARINA,6,9970-336,SANTA CRUZ DAS FLORES,-31.1262145732104,39.45354997065402
pt.ine.add.AC25.2362,R ALM GAGO COUTINHO,,9970-315,SANTA CRUZ DAS FLORES,-31.1285175831659,39.456082756062784
pt.ine.add.AC25.2363,R ALM GAGO COUTINHO,15,9970-315,SANTA CRUZ DAS FLORES,-31.128515779311282,39.45484839596973
pt.ine.add.AC25.2365,R BOAVISTA,,9970-215,SANTA CRUZ DAS FLORES,-31.138403442974987,39.447096592081394
pt.ine.add.AC25.2366,R S CATARINA,14 A,9970-336,SANTA CRUZ DAS FLORES,-31.126678037382387,39.453602487786526
pt.ine.add.AC25.2367,TV ALFANDEGA,6,9970-339,SANTA CRUZ DAS FLORES,-31.125630856238864,39.454081144554955
pt.ine.add.AC25.2370,R S PEDRO,,9970-033,CEDROS SCF,-31.15821735238727,39.49556010234169
pt.ine.add.AC25.2371,R TERRA CHA,,9970-078,PONTA DELGADA SCF,-31.208768015058382,39.5150362782767
pt.ine.add.AC25.2372,LAD ESPÍRITO SANTO,,9970-240,SANTA CRUZ DAS FLORES,-31.147653108583352,39.466840488727215
pt.ine.add.AC25.2373,R ESPÍRITO SANTO,,9970-285,SANTA CRUZ DAS FLORES,-31.138443123508214,39.446043088055724
